GHCN ID,Station Name,State,County,Latitude,Longitude,13/03/2017,14/03/2017,15/03/2017,16/03/2017
USC00060227,BAKERSVILLE,CT,LITCHFIELD,-73.01,41.84,0.0,4.3,12.2,0.0
USC00060299,BARKHAMSTED,CT,LITCHFIELD,-72.96,41.92,0.0,4.0,12.0,0.0
US1CTHR0018,BERLIN 2.4 SSE,CT,HARTFORD,-72.76,41.58,0.0,5.7,18.5,0.0
USC00060808,BRIDGEPORT-SUCCESS HILL,CT,FAIRFIELD,-73.16,41.2,0.0,4.5,2.6,0.0
US1CTFR0009,BROOKFIELD 3.3 SSE,CT,FAIRFIELD,-73.39,41.44,0.0,4.5,8.7,0.0
USC00060973,BURLINGTON,CT,HARTFORD,-72.93,41.79,0.0,3.0,13.0,0.0
US1CTHR0007,CENTRAL MANCHESTER 2.7 SW,CT,HARTFORD,-72.55,41.75,0.0,0.0,0.0,0.0
US1CTHR0024,COLLINSVILLE 0.9 NW,CT,HARTFORD,-72.94,41.83,0.0,4.0,11.9,0.0
US1CTWN0006,DAYVILLE 2.0 ENE,CT,WINDHAM,-71.85,41.86,0.0,2.0,7.0,0.0
US1CTHR0022,EAST HARTFORD 1.3 E,CT,HARTFORD,-72.59,41.76,0.0,3.0,10.0,0.0
US1CTWN0004,EAST KILLINGLY 1.3 SW,CT,WINDHAM,-71.84,41.84,0.0,1.5,7.7,0.0
US1CTHR0005,ENFIELD 1.5 SE,CT,HARTFORD,-72.57,41.96,0.0,3.0,8.7,0.0
USC00063420,HAMPTON,CT,WINDHAM,-72.05,41.77,0.0,2.5,0.0,0.0
USW00014740,HARTFORD-BRADLEY INTERNATIONAL AI,CT,HARTFORD,-72.68,41.94,0.0,15.8,0.0,0.0
USW00094702,IGOR I SIKORSKY MEMORI AP,CT,FAIRFIELD,-73.13,41.16,0.0,7.1,0.0,0.0
US1CTLT0007,LITCHFIELD 2.3 NNE,CT,LITCHFIELD,-73.17,41.77,0.0,0.0,0.0,0.0
US1CTTL0004,MANSFIELD CENTER 1.9 SW,CT,TOLLAND,-72.22,41.74,0.0,10.4,0.5,0.0
US1CTNH0016,MILFORD 1.8 E,CT,NEW HAVEN,-73.03,41.22,0.0,2.3,4.6,0.0
US1CTWN0008,MOOSUP 1.7 NE,CT,WINDHAM,-71.85,41.73,0.0,1.5,8.5,0.0
US1CTFR0003,NEW CANAAN 1.9 ENE,CT,FAIRFIELD,-73.46,41.15,0.0,6.1,6.2,0.0
US1CTHR0019,NEWINGTON 0.8 ENE,CT,HARTFORD,-72.72,41.69,0.0,0.0,14.0,0.0
USC00065445,NORFOLK 2 SW,CT,LITCHFIELD,-73.22,41.97,0.0,5.1,10.4,0.4
US1CTHR0008,NORTH GRANBY 1.3 ENE,CT,HARTFORD,-72.82,42.02,0.0,3.5,12.3,0.0
US1CTWN0002,NORTH GROSVENOR DALE 1.7 SSE,CT,WINDHAM,-71.89,41.96,0.0,2.0,12.0,0.0
USC00065910,NORWICH PUB UTILITY PLANT,CT,NEW LONDON,-72.06,41.53,0.0,0.0,0.0,0.0
US1CTNL0005,OAKDALE 2.6 WNW,CT,NEW LONDON,-72.21,41.48,0.0,1.9,6.0,0.0
US1CTMD0002,PORTLAND 0.9 S,CT,MIDDLESEX,-72.63,41.57,0.0,0.0,0.0,0.0
US1CTNH0014,PROSPECT 1.9 ENE,CT,NEW HAVEN,-72.94,41.51,0.0,3.8,8.5,0.0
US1CTFR0024,RIDGEFIELD 3.7 NNE,CT,FAIRFIELD,-73.48,41.32,0.0,0.0,0.0,0.0
US1CTFR0023,SHELTON 1.3 W,CT,FAIRFIELD,-73.16,41.31,0.0,9.8,0.0,0.0
US1CTHR0023,SOUTHINGTON 0.9 SSE,CT,HARTFORD,-72.87,41.58,0.0,0.0,0.0,0.0
US1CTHR0015,SOUTHINGTON 3.0 E,CT,HARTFORD,-72.82,41.61,0.0,4.1,14.5,0.1
USC00067958,STAFFORDVILLE,CT,TOLLAND,-72.26,42.0,0.0,0.0,13.5,0.0
USC00068138,STORRS,CT,TOLLAND,-72.23,41.8,0.0,1.5,8.5,0.0
USC00068330,THOMASTON DAM,CT,LITCHFIELD,-73.06,41.69,0.0,6.0,7.0,0.0
US1CTHR0009,WEST HARTFORD 2.7 NNW,CT,HARTFORD,-72.78,41.8,0.0,0.0,0.0,0.0
US1CTHR0011,WEST HARTFORD 2.7 SSE,CT,HARTFORD,-72.74,41.73,0.0,4.0,8.9,0.0
USC00069388,WEST THOMPSON LAKE,CT,WINDHAM,-71.9,41.94,0.0,1.0,8.0,0.0
US1CTMD0005,WESTBROOK CENTER 1.1 N,CT,MIDDLESEX,-72.44,41.3,0.0,0.0,0.0,0.0
US1CTFR0020,WESTPORT 2.5 ENE,CT,FAIRFIELD,-73.3,41.13,0.0,0.0,0.0,0.0
US1CTHR0006,WETHERSFIELD 1.2 WSW,CT,HARTFORD,-72.69,41.69,0.0,4.5,8.5,0.0
US1CTLT0005,WINSTED 2.6 NNW,CT,LITCHFIELD,-73.09,41.96,0.0,0.0,0.0,0.0
US1DEKN0012,CAMDEN 3.7 ESE,DE,KENT,-75.49,39.08,0.0,0.0,0.0,0.0
US1DESS0031,DAGSBORO 7.1 ENE,DE,SUSSEX,-75.12,38.58,0.0,0.0,0.0,0.0
US1DESS0003,DELMAR 4.3 E,DE,SUSSEX,-75.49,38.47,0.0,0.0,0.0,0.0
US1DESS0045,DEWEY BEACH 0.2 S,DE,SUSSEX,-75.08,38.69,0.0,0.0,0.0,0.0
US1DEKN0001,FELTON 3.6 NE,DE,KENT,-75.52,39.03,0.0,0.0,0.0,0.0
US1DESS0002,GEORGETOWN 5.8 W,DE,SUSSEX,-75.49,38.7,0.0,0.0,0.0,0.0
US1DESS0040,LEWES 1.5 SSW,DE,SUSSEX,-75.16,38.76,0.0,0.0,0.0,0.0
US1DESS0044,LEWES 3.9 SW,DE,SUSSEX,-75.2,38.74,0.0,0.0,0.0,0.0
US1DENC0004,MIDDLETOWN 0.9 SSE,DE,NEW CASTLE,-75.71,39.44,0.0,0.0,0.0,0.0
US1DEKN0013,MILFORD 1.5 W,DE,KENT,-75.46,38.91,0.0,0.0,0.0,0.0
US1DESS0030,MILFORD 2.6 SE,DE,SUSSEX,-75.39,38.89,0.0,0.0,0.0,0.0
US1DESS0041,MILLSBORO 1.3 W,DE,SUSSEX,-75.32,38.58,0.0,0.0,0.0,0.0
US1DENC0013,NEWARK 1.5 S,DE,NEW CASTLE,-75.76,39.66,0.0,2.8,0.9,0.1
US1DENC0002,NEWARK 3.9 SSW,DE,NEW CASTLE,-75.79,39.62,0.0,2.5,1.1,0.0
US1DENC0001,NEWARK 5.3 N,DE,NEW CASTLE,-75.75,39.75,0.0,4.0,0.0,0.0
US1DENC0010,NEWPORT 2.4 WNW,DE,NEW CASTLE,-75.65,39.73,0.0,0.0,0.0,0.1
US1DESS0042,OCEAN VIEW 0.7 NW,DE,SUSSEX,-75.1,38.55,0.0,0.0,0.0,0.0
US1DESS0035,SEAFORD 0.6 S,DE,SUSSEX,-75.62,38.64,0.0,0.0,0.0,0.0
US1DESS0016,SEAFORD 0.7 SW,DE,SUSSEX,-75.63,38.64,0.0,0.0,0.0,0.0
US1DESS0006,SEAFORD 2.3 SSE,DE,SUSSEX,-75.6,38.62,0.0,0.0,0.0,0.0
US1DESS0015,SELBYVILLE 7.1 E,DE,SUSSEX,-75.09,38.46,0.0,0.0,0.0,0.0
US1DEKN0003,SMYRNA 2.7 SSE,DE,KENT,-75.59,39.26,0.0,0.0,0.0,0.0
USW00013781,WILMINGTON NEW CASTLE COUNTY AP,DE,NEW CASTLE,-75.6,39.67,1.6,0.2,0.1,0.0
USC00079605,WILMINGTON PORTER RES,DE,NEW CASTLE,-75.54,39.77,0.0,3.0,0.0,0.0
US1MAPL0015,ABINGTON 1.2 NNE,MA,PLYMOUTH,-70.95,42.13,0.0,0.3,3.0,0.0
US1MAMD0012,ACTON 1.3 SW,MA,MIDDLESEX,-71.48,42.47,0.0,0.1,10.0,0.0
USC00190120,AMHERST,MA,HAMPSHIRE,-72.54,42.39,0.0,1.8,7.4,0.0
USC00190190,ASHBURNHAM,MA,WORCESTER,-71.92,42.62,0.0,1.4,13.1,0.0
USC00190192,ASHBURNHAM NORTH,MA,WORCESTER,-71.94,42.66,0.0,0.0,13.0,0.0
US1MABR0023,ATTLEBORO 0.9 ENE,MA,BRISTOL,-71.28,41.94,0.0,0.6,2.5,0.0
US1MAWR0032,AUBURN 1.9 ESE,MA,WORCESTER,-71.8,42.19,0.0,0.0,0.0,0.0
USC00190408,BARRE FALLS DAM,MA,WORCESTER,-72.03,42.43,0.0,0.0,0.0,0.0
US1MABE0004,BECKET 5.6 SSW,MA,BERKSHIRE,-73.13,42.26,0.0,2.6,16.2,0.2
USC00190562,BELCHERTOWN,MA,HAMPSHIRE,-72.35,42.28,0.0,1.5,7.2,0.0
US1MAWR0028,BERLIN 1.3 WSW,MA,WORCESTER,-71.66,42.38,0.0,1.1,10.3,0.0
USC00190593,BEVERLY,MA,ESSEX,-70.84,42.59,0.0,0.0,8.0,0.0
US1MAES0002,BEVERLY 2.8 NW,MA,ESSEX,-70.88,42.59,0.0,0.0,3.0,0.0
USC00190666,BIRCH HILL DAM,MA,WORCESTER,-72.12,42.63,0.0,0.0,0.0,0.0
USC00190736,BLUE HILL,MA,NORFOLK,-71.11,42.21,0.0,0.5,6.7,0.0
USW00014739,BOSTON,MA,SUFFOLK,-71.01,42.36,0.0,6.6,0.0,0.0
US1MASF0001,BOSTON 0.5 WSW,MA,SUFFOLK,-71.07,42.36,0.0,0.0,0.0,0.0
US1MAES0012,BOXFORD 2.4 S,MA,ESSEX,-70.98,42.64,0.0,0.0,8.0,0.0
US1MABA0033,BREWSTER 1.5 ESE,MA,BARNSTABLE,-70.05,41.75,0.0,0.0,0.0,0.0
USC00190840,BRIDGEWATER,MA,PLYMOUTH,-70.96,41.95,0.0,0.0,0.0,0.0
USC00190860,BROCKTON,MA,PLYMOUTH,-71.0,42.05,0.0,4.8,0.0,0.0
USC00190998,BUFFUMVILLE LAKE,MA,WORCESTER,-71.91,42.12,0.0,0.0,11.0,0.0
US1MAMD0011,CAMBRIDGE 0.9 NNW,MA,MIDDLESEX,-71.13,42.39,0.0,0.0,0.0,0.0
USC00191386,CHATHAM,MA,BARNSTABLE,-69.96,41.66,0.0,0.0,0.0,0.0
US1MABA0043,CHATHAM 0.4 WSW,MA,BARNSTABLE,-69.97,41.67,0.0,0.0,0.0,0.0
US1MASF0010,CHELSEA 0.8 N,MA,SUFFOLK,-71.04,42.41,0.0,0.3,7.9,0.0
US1MAFR0010,CONWAY 0.9 SW,MA,FRANKLIN,-72.7,42.51,0.0,2.0,9.5,0.0
US1MABR0014,DARTMOUTH 2.5 SSW,MA,BRISTOL,-71.02,41.53,0.0,0.0,0.0,0.0
US1MABR0008,DIGHTON 1.1 WSW,MA,BRISTOL,-71.14,41.81,0.0,0.0,5.7,0.0
USC00192107,EAST BRIMFIELD LAKE,MA,WORCESTER,-72.13,42.11,0.0,1.0,11.0,0.0
US1MABA0019,EAST FALMOUTH 0.7 NW,MA,BARNSTABLE,-70.57,41.58,0.0,0.0,1.0,0.0
US1MABA0017,EAST FALMOUTH 1.2 WNW,MA,BARNSTABLE,-70.58,41.58,0.0,0.0,0.0,0.0
US1MABA0011,EAST FALMOUTH 1.4 ESE,MA,BARNSTABLE,-70.53,41.57,0.0,0.0,0.0,0.0
USC00192175,EAST HAWLEY,MA,FRANKLIN,-72.87,42.57,0.0,3.0,15.0,0.0
USC00192372,EAST SANDWICH,MA,BARNSTABLE,-70.47,41.71,0.0,0.0,1.8,0.0
US1MABA0010,EAST SANDWICH 2.3 SE,MA,BARNSTABLE,-70.42,41.72,0.0,0.0,0.0,0.0
USC00192451,EAST WAREHAM,MA,PLYMOUTH,-70.67,41.77,0.0,0.0,0.0,0.0
US1MABA0030,EASTHAM 0.6 SW,MA,BARNSTABLE,-69.98,41.83,0.0,0.0,0.0,0.0
USC00192501,EDGARTOWN,MA,DUKES,-70.52,41.39,0.0,0.0,0.0,0.0
US1MABA0013,FALMOUTH 0.6 NNW,MA,BARNSTABLE,-70.61,41.55,0.0,0.0,0.0,0.0
US1MABA0008,FALMOUTH 1.8 WSW,MA,BARNSTABLE,-70.64,41.54,0.0,0.0,0.0,0.0
US1MABA0003,FALMOUTH 3.0 E,MA,BARNSTABLE,-70.55,41.55,0.0,0.0,0.2,0.0
US1MABA0002,FALMOUTH 3.1 NNW,MA,BARNSTABLE,-70.63,41.59,0.0,0.0,0.0,0.0
US1MAWR0008,FITCHBURG 1.6 SSW,MA,WORCESTER,-71.82,42.57,0.0,0.0,13.5,0.0
US1MAWR0022,FITCHBURG 2.0 NNE,MA,WORCESTER,-71.8,42.62,0.0,0.0,16.0,0.0
USC00192807,FITCHBURG COOP,MA,WORCESTER,-71.8,42.62,0.0,0.0,16.0,0.0
USC00192913,FOXBORO,MA,NORFOLK,-71.24,42.08,0.0,0.5,7.5,0.0
USC00192997,FRANKLIN,MA,NORFOLK,-71.41,42.08,0.0,0.0,6.0,0.0
US1MABE0011,GREAT BARRINGTON 3.0 N,MA,BERKSHIRE,-73.35,42.24,0.0,2.8,13.2,0.0
USC00193229,GREENFIELD NO. 3,MA,FRANKLIN,-72.6,42.57,0.0,1.8,8.3,0.0
USC00193276,GROVELAND,MA,ESSEX,-71.04,42.75,0.0,12.6,0.5,0.0
USC00193402,HARDWICK 2 ESE,MA,WORCESTER,-72.15,42.35,0.0,2.0,11.0,0.0
US1MABA0036,HARWICH 2.6 ENE,MA,BARNSTABLE,-70.03,41.71,0.0,0.0,0.0,0.0
US1MAES0020,HAVERHILL 0.7 N,MA,ESSEX,-71.09,42.79,0.0,0.0,12.5,0.0
US1MAES0003,HAVERHILL 3.6 WNW,MA,ESSEX,-71.15,42.81,0.0,0.0,13.0,0.0
USC00193624,HINGHAM,MA,PLYMOUTH,-70.91,42.23,0.0,5.8,0.0,0.0
US1MAWR0025,HOLDEN 2.0 ESE,MA,WORCESTER,-71.81,42.34,0.0,0.0,0.0,0.0
US1MAMD0055,HOLLISTON 0.7 W,MA,MIDDLESEX,-71.45,42.2,0.0,0.0,0.0,0.0
US1MAMD0042,HOLLISTON 0.8 S,MA,MIDDLESEX,-71.43,42.19,0.0,1.0,10.0,0.0
USC00193890,JAMAICA PLAIN,MA,SUFFOLK,-71.12,42.3,0.0,0.0,0.0,0.0
US1MAPL0005,KINGSTON 3.3 WNW,MA,PLYMOUTH,-70.77,42.02,0.0,0.8,4.8,0.0
USC00194105,LAWRENCE,MA,ESSEX,-71.17,42.7,0.0,0.0,10.0,0.0
USC00194131,LENOX DALE,MA,BERKSHIRE,-73.25,42.34,0.0,0.0,0.0,0.0
US1MAWR0013,LEOMINSTER 1.5 S,MA,WORCESTER,-71.78,42.5,0.0,1.2,11.0,0.0
USC00194154,LEVERETT NO. 2,MA,FRANKLIN,-72.53,42.45,0.0,1.6,8.0,0.0
US1MAMD0052,LEXINGTON 0.6 SW,MA,MIDDLESEX,-71.24,42.44,0.0,0.8,8.0,0.0
USC00194313,LOWELL,MA,MIDDLESEX,-71.36,42.64,0.0,0.0,14.0,0.0
USC00194502,MARBLEHEAD,MA,ESSEX,-70.86,42.5,0.0,0.3,3.6,0.0
US1MAES0008,MARBLEHEAD 0.8 SW,MA,ESSEX,-70.88,42.49,0.0,0.5,5.5,0.0
US1MABA0047,MASHPEE 2.4 WSW,MA,BARNSTABLE,-70.52,41.64,0.0,0.2,0.0,0.0
US1MAMD0051,MAYNARD 0.7 ESE,MA,MIDDLESEX,-71.44,42.42,0.0,0.6,8.5,0.0
USC00194580,MAYNARD 2,MA,MIDDLESEX,-71.44,42.43,0.0,0.4,11.4,0.0
US1MAMD0044,MEDFORD 1.2 W,MA,MIDDLESEX,-71.13,42.42,0.0,0.0,6.1,0.0
USC00194711,MIDDLEBORO,MA,PLYMOUTH,-70.91,41.88,0.0,0.5,3.0,0.0
US1MAPL0006,MIDDLEBOROUGH 5.5 E,MA,PLYMOUTH,-70.82,41.89,0.0,0.0,0.0,0.0
USC00194760,MILFORD,MA,WORCESTER,-71.51,42.16,0.0,1.0,8.0,0.0
US1MAWR0001,MILFORD 2.3 NNW,MA,WORCESTER,-71.53,42.18,0.0,1.0,9.8,0.0
US1MANF0011,MILLIS 2.0 SW,MA,NORFOLK,-71.38,42.15,0.0,1.0,6.0,0.0
US1MANT0002,NANTUCKET 2.2 E,MA,NANTUCKET,-70.06,41.27,0.0,0.0,0.0,0.0
US1MANT0001,NANTUCKET 3.8 WNW,MA,NANTUCKET,-70.17,41.29,0.0,0.0,0.0,0.0
USC00195160,NANTUCKET COOP,MA,NANTUCKET,-70.09,41.27,0.0,0.0,0.0,0.0
USC00195285,NEWBURYPORT 4 NNW,MA,ESSEX,-70.9,42.86,0.0,0.0,14.0,0.0
US1MABA0014,NORTH FALMOUTH 0.5 ENE,MA,BARNSTABLE,-70.62,41.65,0.0,0.0,0.0,0.0
US1MAHS0010,NORTHAMPTON 1.6 NE,MA,HAMPSHIRE,-72.65,42.34,0.0,2.5,8.1,0.0
US1MAWR0018,NORTHBOROUGH 0.6 SSE,MA,WORCESTER,-71.65,42.3,0.0,1.3,11.3,0.0
USC00195524,NORTHBRIDGE 2,MA,WORCESTER,-71.68,42.12,0.0,1.5,11.5,0.0
USC00195984,NORTON WEST,MA,BRISTOL,-71.17,41.99,0.0,0.2,7.6,0.0
US1MANF0001,NORWOOD 1.3 NW,MA,NORFOLK,-71.21,42.2,0.0,0.3,8.0,0.0
US1MABA0012,ORLEANS 1.1 E,MA,BARNSTABLE,-69.98,41.79,0.0,0.0,0.0,0.0
US1MABE0010,PITTSFIELD 2.0 NNW,MA,BERKSHIRE,-73.27,42.48,0.0,2.5,12.5,0.5
USW00014763,PITTSFIELD MUNICIPAL AP,MA,BERKSHIRE,-73.29,42.43,0.0,0.0,0.0,0.0
US1MAHS0007,PLAINFIELD 2.2 SW,MA,HAMPSHIRE,-72.95,42.49,0.0,2.7,12.2,0.1
US1MAHS0014,PLAINFIELD 2.4 ESE,MA,HAMPSHIRE,-72.88,42.5,0.0,1.6,9.6,0.0
USC00196783,READING,MA,MIDDLESEX,-71.12,42.52,0.0,0.5,9.6,0.0
US1MABR0002,REHOBOTH 2.1 N,MA,BRISTOL,-71.27,41.86,0.0,0.5,0.0,0.0
USC00196938,ROCHESTER,MA,PLYMOUTH,-70.92,41.78,0.0,0.0,3.0,0.0
US1MAPL0019,ROCHESTER 1.2 NNW,MA,PLYMOUTH,-70.83,41.75,0.0,0.0,0.0,0.0
USC00196989,ROWE 3NE,MA,FRANKLIN,-72.87,42.74,0.0,1.9,14.0,1.1
US1MABA0045,SANDWICH 0.9 NNE,MA,BARNSTABLE,-70.49,41.77,0.0,0.0,0.0,0.0
US1MAWR0030,SHREWSBURY 1.6 NNE,MA,WORCESTER,-71.7,42.32,0.0,0.0,0.0,0.0
US1MABR0016,SOMERSET 0.4 SSE,MA,BRISTOL,-71.16,41.74,0.0,0.0,4.0,0.0
US1MAMD0043,SOMERVILLE 0.8 SSE,MA,MIDDLESEX,-71.1,42.38,0.0,0.7,6.2,0.0
US1MAWR0006,SOUTHBRIDGE 0.6 E,MA,WORCESTER,-72.02,42.08,0.0,0.0,11.2,0.0
USC00197627,SOUTHBRIDGE 3 SW,MA,WORCESTER,-72.07,42.06,0.0,2.9,7.6,0.0
US1MABE0003,STOCKBRIDGE .2 NNE,MA,BERKSHIRE,-73.32,42.29,0.0,3.0,11.5,0.0
USC00198278,SUNDERLAND,MA,FRANKLIN,-72.55,42.44,0.0,2.0,8.9,0.0
US1MAFR0012,SUNDERLAND 1.3 SE,MA,FRANKLIN,-72.57,42.45,0.0,2.5,13.0,0.0
US1MABR0009,TAUNTON 2.6 NW,MA,BRISTOL,-71.13,41.93,0.0,0.5,7.3,0.0
USC00198368,TAUNTON 4 NW,MA,BRISTOL,-71.13,41.96,0.0,0.4,6.6,0.0
US1MAMD0036,TOWNSEND 2.6 S,MA,MIDDLESEX,-71.7,42.63,0.0,0.0,0.0,0.0
USC00198573,TULLY LAKE,MA,WORCESTER,-72.22,42.64,0.0,0.0,0.0,0.0
US1MADK0002,VINEYARD HAVEN 0.8 WSW,MA,DUKES,-70.63,41.44,0.0,0.0,0.0,0.0
USC00198757,WALPOLE 2,MA,NORFOLK,-71.25,42.16,0.0,0.9,7.8,0.0
US1MABA0018,WAQUOIT 0.6 SSW,MA,BARNSTABLE,-70.53,41.58,0.0,0.0,2.0,0.0
USC00198793,WARE,MA,HAMPSHIRE,-72.25,42.26,0.0,2.1,9.1,0.0
US1MABA0027,WELLFLEET 0.7 NW,MA,BARNSTABLE,-70.04,41.94,0.0,0.0,0.0,0.0
US1MABA0007,WELLFLEET 3.0 E,MA,BARNSTABLE,-69.98,41.93,0.0,0.0,0.0,0.0
US1MADK0005,WEST TISBURY 2.9 N,MA,DUKES,-70.69,41.42,0.0,0.2,0.0,0.0
US1MAMD0047,WEST TOWNSEND 0.5 W,MA,MIDDLESEX,-71.75,42.68,0.0,0.8,11.3,0.0
USC00199193,WESTFIELD 3 SW,MA,HAMPDEN,-72.8,42.09,0.0,0.0,0.0,0.0
US1MAHS0002,WESTHAMPTON 1.8 SW,MA,HAMPSHIRE,-72.79,42.28,0.0,3.0,13.5,0.0
US1MANF0005,WEYMOUTH 0.5 NW,MA,NORFOLK,-70.95,42.21,0.0,0.0,6.0,0.0
US1MAHS0008,WILLIAMSBURG 1.2 WSW,MA,HAMPSHIRE,-72.74,42.39,0.0,1.7,9.3,0.0
US1MAMD0045,WILMINGTON 1.5 NE,MA,MIDDLESEX,-71.14,42.57,0.0,0.3,6.7,0.0
US1MAMD0007,WINCHESTER 0.7 SE,MA,MIDDLESEX,-71.14,42.45,0.0,0.6,5.9,0.0
US1MASF0002,WINTHROP 0.2 N,MA,SUFFOLK,-70.98,42.38,0.0,0.3,6.3,0.0
USC00199891,WOODS HOLE GOLF CLUB,MA,BARNSTABLE,-70.66,41.53,0.0,0.0,1.1,0.0
USW00094746,WORCESTER,MA,WORCESTER,-71.87,42.27,0.0,14.4,0.0,0.0
USC00199972,WORTHINGTON,MA,HAMPSHIRE,-72.92,42.39,0.0,2.1,11.4,0.1
US1MABA0022,YARMOUTH 0.9 NNW,MA,BARNSTABLE,-70.24,41.72,0.0,0.0,0.0,0.0
US1MABA0001,YARMOUTH 2.3 SSE,MA,BARNSTABLE,-70.2,41.68,0.0,0.0,0.0,0.0
USW00013701,ABERDEEN PHILLIPS FLD,MD,HARFORD,-76.17,39.47,0.0,0.0,0.0,0.0
US1MDAA0059,ANNAPOLIS 1.2 SE,MD,ANNE ARUNDEL,-76.49,38.96,0.0,0.5,0.0,0.0
USW00093721,BALTIMORE-WASHINGTON INTERNATIONA,MD,ANNE ARUNDEL,-76.68,39.17,1.6,0.6,0.0,0.0
US1MDHR0011,BEL AIR 1.7 W,MD,HARFORD,-76.38,39.54,0.0,3.5,0.0,0.0
USC00180700,BELTSVILLE,MD,PRINCE GEORGE'S,-76.93,39.03,0.0,0.0,0.0,0.0
US1MDWR0009,BERLIN 0.7 SW,MD,WORCESTER,-75.23,38.32,0.0,0.0,0.0,0.0
US1MDWR0022,BERLIN 5.9 NNE,MD,WORCESTER,-75.16,38.4,0.0,0.0,0.0,0.0
US1MDWR0019,BERLIN 6.5 SSE,MD,WORCESTER,-75.18,38.24,0.0,0.0,0.0,0.0
US1MDMG0066,BETHESDA 2.0 WNW,MD,MONTGOMERY,-77.16,39.0,0.0,3.4,0.0,0.0
US1MDAA0001,BIRDSVILLE 0.2 WSW,MD,ANNE ARUNDEL,-76.6,38.9,0.0,0.0,0.0,0.0
US1MDWR0004,BISHOPVILLE 3.1 E,MD,WORCESTER,-75.13,38.45,0.0,0.0,0.0,0.0
US1MDPG0001,BOWIE 0.5 E,MD,PRINCE GEORGE'S,-76.73,38.96,0.0,1.0,0.0,0.0
US1MDPG0012,BOWIE 2.8 WNW,MD,PRINCE GEORGE'S,-76.78,38.98,0.0,1.6,0.0,0.0
US1MDPG0050,BOWIE 3.9 S,MD,PRINCE GEORGE'S,-76.73,38.9,0.0,1.3,0.0,0.0
US1MDPG0037,BRANDYWINE 6.7 ESE,MD,PRINCE GEORGE'S,-76.74,38.66,0.0,0.3,0.0,0.0
USC00181125,BRIGHTON DAM,MD,MONTGOMERY,-77.01,39.19,0.0,2.6,0.0,0.0
US1MDCH0030,BRYANS ROAD 1.0 SW,MD,CHARLES,-77.09,38.62,0.0,0.0,0.0,0.0
US1MDDR0007,CAMBRIDGE 1.4 WNW,MD,DORCHESTER,-76.1,38.57,0.0,0.0,0.0,0.0
US1MDBL0039,CATONSVILLE 1.2 NW,MD,BALTIMORE,-76.76,39.28,0.0,4.0,0.0,0.0
US1MDCC0015,CHARLESTOWN 0.4 WSW,MD,CECIL,-75.99,39.57,0.0,0.0,3.0,0.0
US1MDCV0018,CHESAPEAKE BEACH 0.1 SSE,MD,CALVERT,-76.53,38.69,0.0,0.0,0.0,0.0
US1MDMG0029,CLARKSBURG 2.1 NE,MD,MONTGOMERY,-77.24,39.25,2.8,2.4,0.0,0.0
US1MDMG0018,COLESVILLE 1.7 W,MD,MONTGOMERY,-77.04,39.09,0.0,3.0,0.0,0.0
US1MDHW0026,COLUMBIA 1.0 E,MD,HOWARD,-76.84,39.21,0.0,3.9,0.0,0.0
US1MDHW0011,COLUMBIA 1.7 W,MD,HOWARD,-76.89,39.2,0.0,0.0,0.0,0.0
US1MDHW0036,COLUMBIA 1.9 N,MD,HOWARD,-76.86,39.23,0.0,0.0,0.0,0.0
US1MDHW0018,COLUMBIA 2.3 N,MD,HOWARD,-76.86,39.24,0.0,4.2,0.4,0.0
USC00182060,CONOWINGO DAM,MD,HARFORD,-76.18,39.66,0.0,3.5,0.5,0.0
US1MDAL0002,CRESAPTOWN-BEL AIR 0.9 SSE,MD,ALLEGANY,-78.85,39.58,0.0,8.4,1.0,0.0
USC00182282,CUMBERLAND 2,MD,ALLEGANY,-78.76,39.64,0.0,7.7,0.2,0.0
USC00182308,CYLBURN,MD,BALTIMORE,-76.65,39.35,0.0,0.0,0.0,0.0
USC00182336,DAMASCUS 3 SSW,MD,MONTGOMERY,-77.23,39.26,0.0,4.2,0.3,0.0
US1MDSS0012,DEAL ISLAND 0.5 SSW,MD,SOMERSET,-75.95,38.15,0.0,0.0,0.0,0.0
US1MDAA0043,DEALE 0.9 SE,MD,ANNE ARUNDEL,-76.54,38.78,0.0,0.3,0.0,0.0
US1MDAA0019,DEALE 1.8 ENE,MD,ANNE ARUNDEL,-76.51,38.8,0.0,0.5,0.0,0.0
US1MDWC0004,DELMAR 0.2 NE,MD,WICOMICO,-75.57,38.45,0.0,0.0,0.0,0.0
US1MDCL0010,DENTON 5.8 WSW,MD,CAROLINE,-75.93,38.86,0.0,0.0,0.0,0.0
US1MDMG0103,DICKERSON 6.6 SW,MD,MONTGOMERY,-77.51,39.15,0.0,3.8,0.0,0.0
US1MDTB0011,EASTON 0.7 NNW,MD,TALBOT,-76.07,38.78,0.0,0.0,0.0,0.0
US1MDTB0008,EASTON 1.2 SSW,MD,TALBOT,-76.08,38.76,0.0,0.0,0.0,0.0
US1MDTB0005,EASTON 2.4 SE,MD,TALBOT,-76.04,38.75,0.0,0.0,0.0,0.0
US1MDCR0019,ELDERSBURG 0.9 ENE,MD,CARROLL,-76.93,39.4,0.0,3.6,1.9,0.0
US1MDHW0003,ELKRIDGE 1.8 W,MD,HOWARD,-76.78,39.2,0.0,3.8,0.7,0.0
US1MDCC0006,ELKTON 1.3 NW,MD,CECIL,-75.84,39.62,0.0,3.7,0.0,0.0
US1MDCC0016,ELKTON 4.8 NW,MD,CECIL,-75.89,39.65,0.0,1.9,1.9,0.1
US1MDCC0010,ELKTON 7.0 NNW,MD,CECIL,-75.87,39.7,0.0,0.0,0.0,0.0
US1MDHW0013,ELLICOTT CITY 1.3 WSW,MD,HOWARD,-76.86,39.27,0.0,0.0,0.0,0.0
USC00182906,EMMITSBURG 2 SE,MD,FREDERICK,-77.29,39.68,0.0,6.0,0.0,0.0
US1MDPG0049,FORT WASHINGTON 1.6 WSW,MD,PRINCE GEORGE'S,-77.03,38.73,0.0,0.0,0.0,0.0
USC00183415,FROSTBURG 2,MD,ALLEGANY,-78.94,39.66,0.0,7.6,0.5,1.5
US1MDMG0063,GAITHERSBURG 3.1 NE,MD,MONTGOMERY,-77.18,39.18,0.0,3.0,0.0,0.0
US1MDKN0005,GALENA 0.3 S,MD,KENT,-75.88,39.34,0.0,0.0,0.0,0.0
US1MDMG0054,GERMANTOWN 4.6 NNE,MD,MONTGOMERY,-77.23,39.24,0.0,3.0,0.0,0.0
US1MDMG0017,GLENMONT 1 NNE,MD,MONTGOMERY,-77.04,39.07,2.3,1.3,0.0,0.0
US1MDPG0040,GREENBELT 1.0 N,MD,PRINCE GEORGE'S,-76.89,39.01,0.0,1.5,0.0,0.0
US1MDPG0075,GREENBELT 1.6 WNW,MD,PRINCE GEORGE'S,-76.91,39.0,0.0,2.0,0.0,0.0
US1MDPG0047,GREENBELT 2.2 E,MD,PRINCE GEORGE'S,-76.84,39.0,0.0,0.0,0.0,0.0
US1MDCL0009,GREENSBORO 1.4 ENE,MD,CAROLINE,-75.78,38.99,0.0,0.0,0.0,0.0
US1MDWH0003,HAGERSTOWN 1.0 ENE,MD,WASHINGTON,-77.7,39.64,0.0,7.2,0.2,0.0
US1MDBC0001,HAMILTON 0.3 NE,MD,BALTIMORE (CITY),-76.55,39.36,0.0,2.9,0.0,0.0
US1MDHR0004,HAVRE DE GRACE 4.0 WNW,MD,HARFORD,-76.17,39.57,0.0,0.0,0.0,0.0
US1MDCV0017,HUNTINGTOWN 2.9 NNW,MD,CALVERT,-76.64,38.65,0.0,0.0,0.0,0.0
US1MDPG0079,HYATTSVILLE 0.7 N,MD,PRINCE GEORGE'S,-76.95,38.97,0.0,0.0,0.0,0.0
US1MDBL0013,JACKSONVILLE 1.5 NE,MD,BALTIMORE,-76.54,39.54,0.0,3.0,0.0,0.0
US1MDHW0007,JESSUP 3.0 W,MD,HOWARD,-76.83,39.15,0.0,2.9,0.0,0.0
US1MDBL0028,KINGSVILLE 1.2 E,MD,BALTIMORE,-76.39,39.45,0.0,3.4,0.4,0.0
US1MDHR0006,KINGSVILLE 2.5 NNE,MD,HARFORD,-76.39,39.48,0.0,4.0,0.0,0.0
US1MDPG0072,LAUREL 2.5 WNW,MD,PRINCE GEORGE'S,-76.9,39.11,0.0,2.6,0.2,0.0
US1MDAA0003,LAUREL 2.7 E,MD,ANNE ARUNDEL,-76.81,39.1,0.0,3.2,0.3,0.0
US1MDSM0003,LEONARDTOWN 0.6 NE,MD,ST. MARY'S,-76.63,38.31,0.0,0.0,0.0,0.0
US1MDBL0009,LONG GREEN 0.6 SW,MD,BALTIMORE,-76.53,39.47,0.0,4.0,0.5,0.0
US1MDCV0001,MARLTON 6.0 E,MD,CALVERT,-76.68,38.74,0.0,0.6,0.0,0.0
US1MDHW0023,MARRIOTTSVILLE 0.6 SE,MD,HOWARD,-76.89,39.34,0.0,4.0,0.0,0.0
US1MDGR0004,MC HENRY 4.8 SSE,MD,GARRETT,-79.32,39.49,0.0,5.0,3.0,1.0
USC00185865,MECHANICSVILLE 5 NE,MD,ST. MARY'S,-76.7,38.46,0.0,0.5,0.0,0.0
US1MDFR0020,MIDDLETOWN 1.8 NNE,MD,FREDERICK,-77.53,39.46,0.0,0.0,0.0,0.0
USC00185934,MILLERS 4 NE,MD,CARROLL,-76.8,39.72,0.0,6.8,0.2,0.0
US1MDQA0010,MILLINGTON 3.6 WSW,MD,QUEEN ANNE'S,-75.91,39.24,0.0,0.0,0.0,0.0
US1MDCR0003,MOUNT AIRY 0.2 SE,MD,CARROLL,-77.16,39.37,0.0,5.0,0.0,0.0
US1MDBC0003,MOUNT WASHINGTON 0.5 N,MD,BALTIMORE (CITY),-76.66,39.37,0.0,3.7,0.4,0.0
US1MDGR0009,MOUNTAIN LAKE PARK 0.4 E,MD,GARRETT,-79.37,39.4,0.0,5.5,7.3,2.0
US1MDFR0012,NEW MARKET 2.6 NNW,MD,FREDERICK,-77.29,39.42,0.0,6.0,0.1,0.0
US1MDFR0004,NEW MARKET 4.8 WSW,MD,FREDERICK,-77.36,39.35,0.0,0.0,0.0,0.0
US1MDMG0005,NORBECK 1.1 ESE,MD,MONTGOMERY,-77.06,39.1,0.0,3.3,0.5,0.0
US1MDHR0023,NORRISVILLE 0.6 WSW,MD,HARFORD,-76.54,39.7,0.0,6.4,2.9,0.0
US1MDHW0021,NORTH LAUREL 1.5 ESE,MD,HOWARD,-76.84,39.13,0.0,3.2,0.3,0.0
USC00186620,OAKLAND 1 SE,MD,GARRETT,-79.4,39.41,0.0,5.5,4.5,0.0
USW00093786,OCEAN CITY MUNICIPAL AP,MD,WORCESTER,-75.12,38.31,0.0,0.0,0.0,0.0
US1MDWR0021,OCEAN PINES 0.9 SSW,MD,WORCESTER,-75.16,38.37,0.0,0.0,0.0,0.0
US1MDWR0017,OCEAN PINES 1.5 SE,MD,WORCESTER,-75.13,38.37,0.0,0.0,0.0,0.0
US1MDMG0010,OLNEY 0.6 SE,MD,MONTGOMERY,-77.07,39.14,0.0,0.0,0.0,0.0
US1MDMG0078,OLNEY 1.4 ENE,MD,MONTGOMERY,-77.06,39.16,0.0,2.4,0.0,0.0
USC00186800,OXON HILL,MD,PRINCE GEORGE'S,-76.99,38.79,0.0,2.0,0.2,0.0
US1MDWC0009,PARSONSBURG 1.6 WNW,MD,WICOMICO,-75.5,38.39,0.0,0.0,0.0,0.0
US1MDAA0039,PASADENA 2.6 ESE,MD,ANNE ARUNDEL,-76.51,39.09,0.0,2.0,0.3,0.0
US1MDBL0038,PIKESVILLE 1.8 SW,MD,BALTIMORE,-76.72,39.37,0.0,0.0,0.0,0.0
US1MDMG0065,POOLESVILLE 0.4 SE,MD,MONTGOMERY,-77.4,39.14,0.0,4.0,0.0,0.0
US1MDCH0011,PORT TOBACCO VILLAGE 1.0 S,MD,CHARLES,-77.02,38.5,0.0,0.0,0.0,0.0
US1MDMG0003,POTOMAC 0.9 NNW,MD,MONTGOMERY,-77.21,39.04,0.0,3.5,0.0,0.0
US1MDCV0007,PRINCE FREDERICK 1.4 W,MD,CALVERT,-76.62,38.55,0.0,0.2,0.0,0.0
US1MDSS0004,PRINCESS ANNE 4.4 WSW,MD,SOMERSET,-75.77,38.18,0.0,0.0,0.0,0.0
US1MDBL0035,REISTERSTOWN 1.2 NW,MD,BALTIMORE,-76.83,39.47,0.0,5.9,0.0,0.0
US1MDSM0001,RIDGE 1.0 N,MD,ST. MARY'S,-76.37,38.12,0.0,0.0,0.0,0.0
US1MDMG0074,ROCKVILLE 0.6 SE,MD,MONTGOMERY,-77.15,39.07,0.0,0.0,0.0,0.0
US1MDMG0055,ROSSMOOR 1.3 ESE,MD,MONTGOMERY,-77.05,39.1,0.0,0.0,0.0,0.0
US1MDWC0016,SALISBURY 2.1 SSE,MD,WICOMICO,-75.57,38.34,0.0,0.0,0.0,0.0
US1MDWC0002,SALISBURY 2.5 WSW,MD,WICOMICO,-75.63,38.36,0.0,0.0,0.0,0.0
US1MDWC0017,SALISBURY 5.5 SW,MD,WICOMICO,-75.67,38.32,0.0,0.0,0.0,0.0
USW00093720,SALISBURY WICOMICO REGIONAL AP,MD,WICOMICO,-75.51,38.34,0.0,0.0,0.0,0.0
USC00188065,SAVAGE RIVER DAM,MD,GARRETT,-79.14,39.51,0.0,7.0,0.0,0.0
US1MDAA0063,SEVERN 1.0 SSE,MD,ANNE ARUNDEL,-76.68,39.12,0.0,0.0,0.0,0.0
US1MDAA0051,SEVERN 1.5 SSW,MD,ANNE ARUNDEL,-76.7,39.11,0.0,1.9,0.0,0.0
US1MDAA0004,SEVERN 2.0 W,MD,ANNE ARUNDEL,-76.73,39.13,0.0,2.0,0.0,0.0
USC00188207,SHARPSBURG 5 S,MD,WASHINGTON,-77.72,39.4,0.0,7.0,0.5,0.0
US1MDMG0071,SILVER SPRING 5.6 N,MD,MONTGOMERY,-77.04,39.07,0.0,0.0,0.0,0.0
US1MDMG0106,SILVER SPRING 6.4 NNE,MD,MONTGOMERY,-77.01,39.08,0.0,2.3,1.1,0.0
USC00188315,SINES DEEP CREEK,MD,GARRETT,-79.41,39.52,0.0,4.0,4.0,1.0
USC00188371,SMITHSBURG 2NW,MD,WASHINGTON,-77.58,39.66,0.0,6.5,0.0,0.0
US1MDTB0004,ST. MICHAELS 0.7 SE,MD,TALBOT,-76.21,38.78,0.0,0.0,0.0,0.0
USC00188557,STEVENSVILLE 2SW,MD,QUEEN ANNE'S,-76.34,38.97,0.0,1.2,0.0,0.0
US1MDQA0008,STEVENSVILLE 3.0 N,MD,QUEEN ANNE'S,-76.3,39.04,0.0,0.0,0.0,0.0
USC00188657,SUDLERSVILLE 1S,MD,QUEEN ANNE'S,-75.85,39.16,0.0,0.0,0.0,0.0
US1MDPG0043,SUITLAND 2.1 SE,MD,PRINCE GEORGE'S,-76.91,38.82,0.0,1.5,0.0,0.0
US1MDHW0002,SYKESVILLE 1.7 SSE,MD,HOWARD,-76.97,39.35,0.0,4.5,0.9,0.0
US1MDMG0042,TAKOMA PARK 0.6 NNW,MD,MONTGOMERY,-77.01,38.99,0.0,3.5,0.0,0.0
US1MDCR0006,TANEYTOWN 3.2 NE,MD,CARROLL,-77.12,39.68,0.0,6.5,0.0,0.0
US1MDCR0005,TANEYTOWN 3.7 NE,MD,CARROLL,-77.12,39.69,0.0,7.5,0.0,0.0
US1MDFR0010,THURMONT 0.8 SSE,MD,FREDERICK,-77.4,39.61,0.0,7.9,0.0,0.0
US1MDBL0016,TOWSON 0.8 SW,MD,BALTIMORE,-76.62,39.4,0.0,4.2,0.4,0.0
US1MDTB0009,TRAPPE 3.5 NE,MD,TALBOT,-76.02,38.7,0.0,0.0,0.0,0.0
US1MDFR0021,URBANA 1.6 W,MD,FREDERICK,-77.38,39.33,0.0,4.8,0.0,0.0
US1MDDR0009,VIENNA 5.0 WNW,MD,DORCHESTER,-75.91,38.51,0.0,0.0,0.0,0.0
US1MDCH0035,WALDORF 3.3 S,MD,CHARLES,-76.91,38.59,0.0,1.0,0.2,0.0
US1MDFR0014,WALKERSVILLE 1.0 E,MD,FREDERICK,-77.34,39.49,0.0,8.0,0.0,0.0
US1MDBL0025,WHITE MARSH 2.3 ESE,MD,BALTIMORE,-76.42,39.37,0.0,3.8,0.0,0.0
US1MDMG0024,WHITE OAK 1.2 N,MD,MONTGOMERY,-76.99,39.06,0.0,2.5,0.0,0.0
USC00189570,WILLIAMSPORT,MD,WASHINGTON,-77.85,39.61,0.0,0.0,0.0,0.0
US1MDWH0001,WILLIAMSPORT 2.8 ENE,MD,WASHINGTON,-77.77,39.61,0.0,8.2,0.0,0.0
US1MDKN0004,WORTON 3.9 NW,MD,KENT,-76.13,39.32,0.0,0.0,0.0,0.0
US1MEPS0009,ABBOT 4.6 WNW,ME,PISCATAQUIS,-69.55,45.22,0.0,0.0,13.2,0.0
US1MEYK0048,ACTON 2.7 NW,ME,YORK,-70.94,43.57,0.0,0.0,13.8,0.0
USC00170217,ANDOVER 2,ME,OXFORD,-70.79,44.65,0.0,0.0,17.0,0.0
US1MEKB0016,AUGUSTA 1.5 WSW,ME,KENNEBEC,-69.76,44.32,0.0,0.0,16.0,0.0
USW00014605,AUGUSTA STATE AP,ME,KENNEBEC,-69.8,44.32,0.0,0.0,0.0,0.0
USW00014606,BANGOR INTL AP,ME,PENOBSCOT,-68.82,44.8,0.0,14.2,0.3,0.0
USC00170409,BATH,ME,SAGADAHOC,-69.86,43.93,0.0,0.0,14.0,0.0
US1MEWL0003,BELMONT 2.7 SSE,ME,WALDO,-69.14,44.38,0.0,0.0,14.0,0.5
US1MEOX0019,BETHEL 2.4 WNW,ME,OXFORD,-70.83,44.42,0.0,0.0,14.5,0.0
USC00170583,BETHEL 6 SSE,ME,OXFORD,-70.76,44.32,0.0,0.0,13.0,0.0
US1MEYK0028,BIDDEFORD 1.5 NNE,ME,YORK,-70.43,43.49,0.0,0.0,10.0,0.0
USC00170814,BRASSUA DAM,ME,SOMERSET,-69.81,45.66,0.0,0.0,17.0,0.5
USC00170833,BRIDGEWATER,ME,AROOSTOOK,-67.84,46.43,0.0,2.0,8.0,1.0
USC00170844,BRIDGTON 3 NW,ME,CUMBERLAND,-70.75,44.07,0.0,0.0,12.8,0.0
US1MEHN0008,BROOKLIN 2.5 NW,ME,HANCOCK,-68.62,44.28,0.0,0.0,7.0,0.0
USC00171131,CAPE NEDDICK,ME,YORK,-70.64,43.24,0.0,0.0,11.0,0.0
USW00014607,CARIBOU MUNICIPAL AP,ME,AROOSTOOK,-68.02,46.87,0.0,11.7,2.4,0.0
US1MEWS0004,COOPER 0.5 SE,ME,WASHINGTON,-67.44,44.95,0.0,0.0,7.5,0.0
USC00171628,CORINNA,ME,PENOBSCOT,-69.24,44.92,0.0,0.3,13.0,0.0
US1MECM0056,CUMBERLAND CENTER 3.7 W,ME,CUMBERLAND,-70.33,43.8,0.0,0.0,14.0,0.1
US1MEHN0028,DEDHAM 6.1 ESE,ME,HANCOCK,-68.54,44.67,0.0,0.0,10.0,0.0
USC00171975,DOVER-FOXCROFT WWTP,ME,PISCATAQUIS,-69.18,45.19,0.0,0.0,14.0,1.0
US1MELN0008,DRESDEN 2.3 SW,ME,LINCOLN,-69.76,44.07,0.0,0.0,0.0,0.0
USC00172048,DURHAM,ME,ANDROSCOGGIN,-70.1,44.0,0.0,0.0,15.0,0.0
USC00172440,EAST SANGERVILLE,ME,PISCATAQUIS,-69.28,45.14,0.0,0.0,14.0,1.0
US1MEHN0002,EAST SURRY,ME,HANCOCK,-68.46,44.49,0.0,0.0,12.9,0.1
US1MEWS0031,EASTPORT 1.4 ESE,ME,WASHINGTON,-66.99,44.91,0.0,0.0,8.7,0.5
US1MEHN0020,ELLSWORTH 4.5 N,ME,HANCOCK,-68.5,44.65,0.0,0.0,0.0,0.0
US1MEHN0007,ELLSWORTH 7.4 NW,ME,HANCOCK,-68.49,44.64,0.0,0.0,0.0,0.0
US1MEHN0017,ELLSWORTH 8.2 NNW,ME,HANCOCK,-68.5,44.65,0.0,0.0,9.0,0.3
US1MEPN0026,ETNA 3.2 WSW,ME,PENOBSCOT,-69.17,44.8,0.0,0.0,0.0,0.0
USC00172700,EUSTIS,ME,FRANKLIN,-70.48,45.22,0.0,0.0,18.0,0.2
USC00172765,FARMINGTON,ME,FRANKLIN,-70.16,44.69,0.0,18.2,0.0,0.0
USC00172878,FORT KENT,ME,AROOSTOOK,-68.61,47.24,0.0,0.0,12.0,1.0
US1MECM0057,FREEPORT 0.3 S,ME,CUMBERLAND,-70.1,43.85,0.0,0.0,13.0,0.0
US1MECM0013,FREEPORT 2.0 SSW,ME,CUMBERLAND,-70.12,43.83,0.0,0.0,13.0,0.0
US1MECM0015,FREEPORT 2.6 WNW,ME,CUMBERLAND,-70.15,43.87,0.0,0.0,15.0,0.0
USC00173261,GRAND LAKE STREAM,ME,WASHINGTON,-67.77,45.18,0.0,0.0,9.1,0.0
USC00173295,GRAY,ME,CUMBERLAND,-70.25,43.89,0.0,0.0,0.0,0.0
US1MEAN0016,GREENE 4.5 NNW,ME,ANDROSCOGGIN,-70.18,44.25,0.0,0.0,15.0,0.0
USC00173567,HARMONY,ME,SOMERSET,-69.55,44.95,0.0,0.0,14.0,0.0
US1MESM0017,HARMONY 3.0 SSE,ME,SOMERSET,-69.56,44.93,0.0,0.0,16.0,0.0
US1MECM0110,HARRISON 0.3 NW,ME,CUMBERLAND,-70.68,44.11,0.0,0.0,21.0,0.0
USC00173570,HARTFORD,ME,OXFORD,-70.32,44.37,0.0,0.0,0.0,0.0
US1MEOX0002,HARTFORD 1.4 N,ME,OXFORD,-70.35,44.39,0.0,0.0,17.0,0.0
USC00173862,HOLLIS,ME,YORK,-70.68,43.65,0.0,0.0,17.0,0.0
USC00174086,JACKMAN,ME,SOMERSET,-70.25,45.63,0.0,0.0,13.0,2.2
US1MEYK0005,KENNEBUNK 1.8 WNW,ME,YORK,-70.58,43.39,0.0,0.0,18.0,0.0
US1MEYK0031,KENNEBUNK 4.0 ESE,ME,YORK,-70.48,43.35,0.0,0.0,13.5,0.0
USC00174193,KENNEBUNKPORT,ME,YORK,-70.47,43.36,0.0,0.0,12.0,0.0
USC00174324,KINGFIELD,ME,FRANKLIN,-70.18,44.96,0.0,0.0,14.0,0.0
US1MEYK0002,KITTERY POINT 0.8 WSW,ME,YORK,-70.71,43.08,0.0,0.0,7.5,0.0
US1MEPN0010,LINCOLN 4.3 NE,ME,PENOBSCOT,-68.44,45.41,0.0,0.0,0.0,0.0
USC00174683,LINCOLN SANITARY DISTRICT/WTP,ME,PENOBSCOT,-68.51,44.38,0.0,0.0,14.5,0.0
USC00174745,LIVERMORE FALLS 1 E,ME,ANDROSCOGGIN,-70.16,44.47,0.0,0.0,18.0,0.0
US1MECM0081,LONG ISLAND 0.5 E,ME,CUMBERLAND,-70.16,43.68,0.0,0.0,0.0,0.0
US1MEAR0023,MADAWASKA 2.5 E,ME,AROOSTOOK,-68.28,47.35,0.0,0.0,8.5,1.5
US1MEHN0004,MARIAVILLE 1.4 ESE,ME,HANCOCK,-68.39,44.72,0.0,0.0,8.0,0.0
USC00175305,MILLINOCKET WASTEWATER,ME,PENOBSCOT,-68.67,45.64,0.0,0.0,12.0,0.5
USC00175460,MOOSEHEAD,ME,SOMERSET,-69.72,45.59,0.0,0.0,19.0,0.5
US1MECM0003,NEW GLOUCESTER 3.0 SE,ME,CUMBERLAND,-70.26,43.92,0.0,0.0,0.0,0.0
USC00175736,NEW SHARON,ME,FRANKLIN,-70.0,44.64,0.0,0.0,15.0,0.0
US1MEFR0004,NEW SHARON 2.0 NW,ME,FRANKLIN,-70.03,44.67,0.0,0.0,15.5,0.0
US1MEAR0018,NEW SWEDEN 4.9 NNW,ME,AROOSTOOK,-68.14,47.01,0.1,0.0,6.3,2.3
US1MELN0001,NEWCASTLE 2.1 SW,ME,LINCOLN,-69.57,44.03,0.0,0.0,12.0,0.0
US1MESM0035,NORRIDGEWOCK 2.2 ESE,ME,SOMERSET,-69.75,44.7,0.0,0.0,12.5,0.0
US1MEKX0008,NORTH HAVEN 1.4 N,ME,KNOX,-68.88,44.15,0.0,0.0,0.0,0.0
US1MESM0010,NORTH NEW PORTLAND 0.3 WSW,ME,SOMERSET,-70.03,44.92,0.0,0.0,13.0,0.0
US1MEYK0057,NORTH WATERBORO 1.2 NE,ME,YORK,-70.71,43.63,0.0,0.0,21.0,0.0
US1MEPN0030,OLD TOWN 4.1 ESE,ME,PENOBSCOT,-68.66,44.94,0.0,0.0,9.1,0.0
US1MESM0003,PALMYRA 3.5 NW,ME,SOMERSET,-69.42,44.87,0.0,0.0,12.5,0.1
US1MEYK0046,PARSONSFIELD 3.9 NE,ME,YORK,-70.87,43.77,0.0,0.0,0.0,0.0
US1MEYK0025,PARSONSFIELD 4.2 NE,ME,YORK,-70.87,43.77,0.0,0.0,14.5,0.0
US1MEWS0025,PEMBROKE 4.8 SSE,ME,WASHINGTON,-67.14,44.89,0.0,0.0,0.0,0.0
US1MEWS0010,PEMBROKE 5.4 SSE,ME,WASHINGTON,-67.13,44.91,0.0,0.0,5.0,0.5
USC00176705,PHILLIPS,ME,FRANKLIN,-70.33,44.82,0.0,0.0,17.0,0.0
US1MESG0006,PHIPPSBURG 4.8 S,ME,SAGADAHOC,-69.8,43.75,0.0,0.0,11.0,0.0
USC00176856,POLAND,ME,ANDROSCOGGIN,-70.36,44.01,0.0,0.0,16.6,0.0
US1MECM0018,PORTLAND 5.5 WNW,ME,CUMBERLAND,-70.31,43.7,0.0,0.0,15.6,0.0
USW00014764,PORTLAND INTL JETPORT,ME,CUMBERLAND,-70.3,43.65,0.0,16.3,0.1,0.0
US1MECM0086,POWNAL 4.1 S,ME,CUMBERLAND,-70.17,43.85,0.0,0.0,14.0,0.0
US1MEAR0015,PRESQUE ISLE 1.3 WSW,ME,AROOSTOOK,-68.01,46.68,0.0,0.0,11.0,0.7
USC00177037,RANGELEY,ME,FRANKLIN,-70.67,44.99,0.0,0.0,0.0,1.6
USC00177238,ROBBINSTON,ME,WASHINGTON,-67.12,45.09,0.0,11.5,0.0,0.2
US1MEKX0001,ROCKPORT 0.1 SW,ME,KNOX,-69.08,44.18,0.0,0.0,10.0,0.0
US1MEKX0005,ROCKPORT 2.8 SW,ME,KNOX,-69.11,44.15,0.0,0.0,11.0,0.0
USC00177336,RUMFORD 6SW,ME,OXFORD,-70.66,44.49,0.0,0.0,17.0,0.0
US1MEYK0051,SACO 2.5 NNW,ME,YORK,-70.45,43.54,0.0,0.0,0.0,0.0
US1MEWL0012,SEARSMONT 3.5 WNW,ME,WALDO,-69.26,44.38,0.0,0.0,0.0,0.0
US1MECM0098,SEBAGO 2.4 ESE,ME,CUMBERLAND,-70.63,43.88,0.0,0.0,13.0,0.0
US1MEKB0025,SIDNEY 2.6 NNW,ME,KENNEBEC,-69.74,44.45,0.0,0.0,0.0,0.0
US1MESM0004,SOLON 3.9 ESE,ME,SOMERSET,-69.78,44.95,0.0,0.0,0.0,0.0
US1MEYK0014,SOUTH ELIOT 3.1 NE,ME,YORK,-70.75,43.16,0.0,0.0,0.0,0.0
US1MEHN0003,SOUTHWEST HARBOR 2.6 SE,ME,HANCOCK,-68.29,44.25,0.0,0.0,7.5,0.0
US1MEWL0024,SWANVILLE 2.7 S,ME,WALDO,-69.01,44.48,0.0,0.0,12.0,0.0
US1MEFR0002,TEMPLE 1.8 W,ME,FRANKLIN,-70.26,44.68,0.0,0.0,16.8,0.1
USC00176881,TENANTS HARBOR,ME,KNOX,-69.22,43.99,0.0,6.5,0.0,0.0
USC00178792,TOPSFIELD 2,ME,WASHINGTON,-67.72,45.44,0.0,0.0,11.0,0.2
USC00178817,TURNER,ME,ANDROSCOGGIN,-70.26,44.28,0.0,0.0,14.0,0.0
US1MEKX0010,UNION 2.1 NNE,ME,KNOX,-69.27,44.24,0.0,0.0,12.0,0.0
US1MEKX0006,UNION 3.0 NW,ME,KNOX,-69.32,44.24,0.0,0.0,11.5,0.0
US1MEKX0012,UNION 3.0 W,ME,KNOX,-69.34,44.21,0.0,0.0,9.5,1.0
US1MEWL0022,UNITY 4.6 SSW,ME,WALDO,-69.35,44.55,0.0,0.0,13.5,0.1
USC00178965,VAN BUREN 2,ME,AROOSTOOK,-67.94,47.17,0.0,0.0,10.0,1.5
USC00179151,WATERVILLE TREATMENT PLT,ME,KENNEBEC,-69.65,44.53,0.0,0.0,15.0,0.0
US1MEKB0010,WAYNE 3.2 SSE,ME,KENNEBEC,-70.06,44.3,0.0,0.0,15.5,0.0
US1MEYK0022,WELLS 2.1 NE,ME,YORK,-70.56,43.35,0.0,0.3,8.1,0.0
US1MEYK0018,WELLS 3.5 SW,ME,YORK,-70.64,43.3,0.0,0.0,0.0,0.0
US1MECM0060,WEST FALMOUTH 0.1 NNW,ME,CUMBERLAND,-70.3,43.75,0.0,0.0,0.0,0.0
USC00179593,WEST ROCKPORT 1 NNW,ME,KNOX,-69.15,44.19,0.0,0.0,0.0,0.0
US1MELN0021,WESTPORT ISLAND 2.2 SSW,ME,LINCOLN,-69.71,43.89,0.0,0.0,14.0,0.0
USC00179720,WINDHAM 2NW,ME,CUMBERLAND,-70.47,43.86,0.0,0.0,14.0,0.0
US1MEKB0006,WINSLOW 1.2 SSE,ME,KENNEBEC,-69.6,44.54,0.0,0.0,14.0,0.0
US1MEWL0008,WINTERPORT 2.9 N,ME,WALDO,-68.85,44.69,0.0,0.0,11.8,0.1
US1MEKB0041,WINTHROP 1.8 WSW,ME,KENNEBEC,-70.0,44.3,0.0,0.0,17.0,0.0
US1MEAN0032,WINTHROP 9.4 W,ME,ANDROSCOGGIN,-70.16,44.3,0.0,0.0,17.0,0.0
USC00179891,WOODLAND,ME,WASHINGTON,-67.4,45.16,0.0,0.0,10.0,0.0
US1NHHL0025,AMHERST 3.7 NNE,NH,HILLSBOROUGH,-71.61,42.91,0.0,0.0,13.5,0.0
US1NHRC0060,AUBURN 1.8 E,NH,ROCKINGHAM,-71.31,43.01,0.0,0.7,17.8,0.0
USC00270493,BATH 3,NH,GRAFTON,-71.97,44.15,0.0,0.0,11.4,0.0
US1NHBK0002,BELMONT 1.7 SW,NH,BELKNAP,-71.51,43.44,0.0,0.2,13.2,0.0
USC00270690,BERLIN,NH,COOS,-71.19,44.45,0.0,0.0,19.0,0.1
US1NHCS0006,BERLIN 3.9 ESE,NH,COOS,-71.18,44.48,0.0,0.0,20.0,1.5
US1NHMR0033,BOSCAWEN 2.2 SE,NH,MERRIMACK,-71.6,43.29,0.0,0.2,13.5,0.0
US1NHMR0043,BOSCAWEN 2.2 SSE,NH,MERRIMACK,-71.61,43.28,0.0,0.0,12.0,0.0
US1NHMR0004,BOW 1.6 NW,NH,MERRIMACK,-71.56,43.15,0.0,0.8,14.5,0.0
USC00270913,BRADFORD 2,NH,MERRIMACK,-72.0,43.26,0.0,0.0,14.0,0.0
US1NHGR0001,BRISTOL 0.4 SSE,NH,GRAFTON,-71.74,43.59,0.0,0.0,16.6,0.0
US1NHHL0019,BROOKLINE 2.1 SW,NH,HILLSBOROUGH,-71.7,42.71,0.0,0.0,16.0,0.0
US1NHBK0012,CENTER HARBOR 3.7 SW,NH,BELKNAP,-71.53,43.68,0.0,0.0,0.0,0.0
US1NHCR0026,CENTER SANDWICH 4.9 E,NH,CARROLL,-71.34,43.81,0.0,0.0,16.0,0.0
US1NHMR0025,CHICHESTER 2.7 SSW,NH,MERRIMACK,-71.41,43.21,0.0,0.0,15.0,0.0
US1NHSL0013,CLAREMONT 1.5 NW,NH,SULLIVAN,-72.36,43.39,0.0,0.0,0.0,0.0
USC00271647,COLEBROOK  3SW,NH,COOS,-71.54,44.86,0.0,0.0,12.0,2.0
US1NHMR0009,CONCORD 3.8 SSE,NH,MERRIMACK,-71.52,43.18,0.0,0.0,11.5,0.0
USW00014745,CONCORD MUNICIPAL AP,NH,MERRIMACK,-71.3,43.12,0.0,15.6,0.0,0.0
US1NHMR0006,DANBURY 2.2 ESE,NH,MERRIMACK,-71.82,43.52,0.0,1.1,14.3,0.0
US1NHRC0018,DEERFIELD 3.2 WSW,NH,ROCKINGHAM,-71.28,43.13,0.0,0.4,14.8,0.0
US1NHGR0032,DORCHESTER 3.8 NNE,NH,GRAFTON,-71.92,43.81,0.0,0.0,10.0,0.5
US1NHST0019,DOVER 0.8 E,NH,STRAFFORD,-70.87,43.19,0.0,0.0,14.5,0.0
US1NHST0014,DOVER 2.5 N,NH,STRAFFORD,-70.89,43.23,0.0,0.0,0.0,0.0
US1NHCH0013,DUBLIN 3.3 SE,NH,CHESHIRE,-72.01,42.88,0.0,0.0,0.0,0.0
US1NHMR0015,DUNBARTON 0.3 N,NH,MERRIMACK,-71.62,43.11,0.0,0.4,13.0,0.0
US1NHMR0047,DUNBARTON 3.8 SE,NH,MERRIMACK,-71.54,43.09,0.0,0.2,12.8,0.0
USC00272302,EAST MILFORD,NH,HILLSBOROUGH,-71.63,42.83,0.0,0.7,12.2,0.0
USC00272303,EAST SANDWICH,NH,CARROLL,-71.34,43.81,0.0,0.0,16.0,0.1
US1NHCR0001,EAST WAKEFIELD 1.2 SE,NH,CARROLL,-70.99,43.6,0.0,0.0,21.0,0.0
USC00275013,EDWARD MACDOWELL LAKE,NH,HILLSBOROUGH,-71.98,42.89,0.0,1.0,14.0,0.0
US1NHGR0038,ENFIELD 2.4 E,NH,GRAFTON,-72.1,43.65,0.0,0.0,10.0,0.2
USC00272800,EPPING,NH,ROCKINGHAM,-71.08,43.03,0.0,0.3,12.0,0.0
US1NHRC0007,EXETER 1.5 E,NH,ROCKINGHAM,-70.92,42.97,0.0,0.0,11.5,0.0
USC00272999,FIRST CONNECTICUT LAKE,NH,COOS,-71.29,45.09,0.0,0.0,15.0,0.0
US1NHGR0023,FRANCONIA 0.8 NE,NH,GRAFTON,-71.74,44.24,0.0,0.0,11.5,1.2
USC00273182,FRANKLIN FALLS DAM,NH,MERRIMACK,-71.65,43.47,0.0,0.0,11.0,0.0
USC00273626,GREENLAND,NH,ROCKINGHAM,-70.83,43.02,0.0,0.2,11.2,0.0
USC00273658,GREENVILLE 1 NNE,NH,HILLSBOROUGH,-71.8,42.78,0.0,0.0,0.0,0.0
US1NHHL0048,GREENVILLE 1.1 ENE,NH,HILLSBOROUGH,-71.78,42.78,0.0,2.0,14.8,0.0
US1NHRC0033,HAMPSTEAD 1.6 NNE,NH,ROCKINGHAM,-71.17,42.9,0.0,0.0,0.0,0.0
USC00273825,HANCOCK,NH,HILLSBOROUGH,-71.95,42.97,0.0,1.6,13.4,0.0
USC00273850,HANOVER,NH,GRAFTON,-72.29,43.71,0.0,0.0,0.0,0.0
US1NHHL0016,HOLLIS 2.9 ENE,NH,HILLSBOROUGH,-71.54,42.76,0.0,0.5,10.2,0.0
USC00274218,HOPKINTON LAKE,NH,MERRIMACK,-71.75,43.19,0.0,0.5,0.0,0.0
USC00274234,HUDSON 1 SSE,NH,HILLSBOROUGH,-71.41,42.78,0.0,0.9,11.4,0.0
US1NHCR0012,INTERVALE 2.7 N,NH,CARROLL,-71.14,44.11,0.0,0.0,0.0,0.0
US1NHCR0015,JACKSON 3.7 NW,NH,CARROLL,-71.23,44.19,0.0,0.0,12.0,0.0
USC00274304,JAFFREY SILVER RANCH AIRPARK,NH,CHESHIRE,-72.01,42.81,0.0,0.5,14.5,0.0
USC00274329,JEFFERSON,NH,COOS,-71.5,44.42,0.0,0.0,18.8,1.6
USC00274399,KEENE,NH,CHESHIRE,-72.32,42.94,0.0,0.3,14.5,0.0
US1NHCH0021,KEENE 2.0 SE,NH,CHESHIRE,-72.27,42.93,0.0,0.0,12.0,0.0
US1NHRC0049,KINGSTON 2.3 NE,NH,ROCKINGHAM,-71.02,42.96,0.0,0.6,9.9,0.0
US1NHBK0007,LACONIA 7.9 E,NH,BELKNAP,-71.32,43.55,0.0,0.3,0.0,0.0
USC00274480,LAKEPORT 2,NH,BELKNAP,-71.46,43.55,0.0,0.0,16.0,0.0
US1NHCR0009,MADISON 1.7 SE,NH,CARROLL,-71.13,43.88,0.0,0.0,15.9,0.0
US1NHHL0069,MANCHESTER 1.0 N,NH,HILLSBOROUGH,-71.44,43.0,0.0,0.0,0.0,0.0
USC00275211,MASSABESIC LAKE,NH,HILLSBOROUGH,-71.39,42.99,0.0,0.8,11.0,0.0
US1NHBK0009,MEREDITH 2.9 SSW,NH,BELKNAP,-71.54,43.62,0.0,0.0,13.9,0.0
USC00275350,MEREDITH 3 NNE,NH,BELKNAP,-71.47,43.7,0.0,11.0,1.0,0.0
US1NHGR0041,MONROE 3.1 NE,NH,GRAFTON,-72.01,44.29,0.0,0.0,12.0,0.0
US1NHHL0049,MONT VERNON 1.3 SSW,NH,HILLSBOROUGH,-71.68,42.88,0.0,0.5,0.0,0.0
USW00014755,MOUNT WASHINGTON,NH,COOS,-71.3,44.27,0.0,0.0,0.0,0.0
USC00275703,NASHUA CWSU,NH,HILLSBOROUGH,-71.48,42.73,0.0,1.2,9.0,0.0
US1NHHL0055,NEW BOSTON 2.4 S,NH,HILLSBOROUGH,-71.69,42.94,0.0,2.0,14.2,0.0
US1NHMR0041,NEWBURY 1.6 NW,NH,MERRIMACK,-72.06,43.34,0.0,0.0,21.5,0.5
USC00275868,NEWPORT,NH,SULLIVAN,-72.18,43.38,0.0,0.0,0.0,0.0
USC00275995,NORTH CONWAY,NH,CARROLL,-71.13,44.06,0.0,0.0,0.0,0.0
US1NHCR0011,NORTH CONWAY 1.4 SSW,NH,CARROLL,-71.14,44.04,0.0,0.0,18.0,0.0
USC00276234,NORTH STRATFORD,NH,COOS,-71.63,44.75,0.0,0.0,10.5,2.0
US1NHMR0045,NORTHFIELD 2.8 E,NH,MERRIMACK,-71.54,43.44,0.0,0.0,21.2,0.0
US1NHRC0017,NORTHWOOD 1.9 WSW,NH,ROCKINGHAM,-71.19,43.19,0.0,0.2,9.0,0.0
US1NHRC0048,NORTHWOOD 2.9 WSW,NH,ROCKINGHAM,-71.26,43.2,0.0,0.3,15.0,0.0
USC00276550,OTTER BROOK LAKE,NH,CHESHIRE,-72.24,42.95,0.0,0.7,12.2,0.0
USC00276818,PINKHAM NOTCH,NH,COOS,-71.25,44.26,0.0,0.0,15.3,6.1
US1NHCS0004,PITTSBURG 6.1 NE,NH,COOS,-71.3,45.11,0.0,0.0,14.0,11.0
US1NHMR0026,PITTSFIELD 0.2 SSW,NH,MERRIMACK,-71.33,43.3,0.0,0.5,13.0,0.0
US1NHRC0059,PORTSMOUTH 1.6 NE,NH,ROCKINGHAM,-70.76,43.07,0.0,0.0,0.0,0.0
US1NHCS0010,RANDOLPH 1.4 NE,NH,COOS,-71.27,44.39,0.0,0.0,21.5,8.3
US1NHRC0047,SALEM 1.7 NNE,NH,ROCKINGHAM,-71.22,42.82,0.0,0.2,10.0,0.0
US1NHMR0011,SOUTH SUTTON 2.5 SSE,NH,MERRIMACK,-71.93,43.28,0.0,0.7,12.5,0.0
US1NHST0031,STRAFFORD 2.9 N,NH,STRAFFORD,-71.14,43.31,0.0,0.0,14.0,0.0
US1NHRC0024,STRATHAM 1.9 ESE,NH,ROCKINGHAM,-70.88,43.01,0.0,0.0,11.8,0.0
US1NHSL0008,SUNAPEE 2.3 N,NH,SULLIVAN,-72.09,43.42,0.0,0.0,9.9,0.2
USC00278539,SURRY MOUNTAIN LAKE,NH,CHESHIRE,-72.31,43.0,0.0,1.0,11.0,0.0
US1NHCR0027,TAMWORTH 0.4 NNW,NH,CARROLL,-71.27,43.86,0.0,0.0,15.2,0.0
USC00278614,TAMWORTH 4,NH,CARROLL,-71.26,43.86,0.0,0.0,15.2,0.0
US1NHBK0001,TILTON NORTHFIELD 3.3 NE,NH,BELKNAP,-71.55,43.48,0.0,0.0,14.5,0.0
US1NHCR0034,WAKEFIELD 6.0 NNW,NH,CARROLL,-71.05,43.64,0.0,0.0,0.0,0.0
USC00278973,WEARE 2 NE,NH,HILLSBOROUGH,-71.76,43.1,0.0,1.4,14.4,0.0
US1NHCH0002,WEST CHESTERFIELD 0.3 WNW,NH,CHESHIRE,-72.52,42.9,0.0,0.5,12.5,0.0
USC00279278,WEST HAMPSTEAD,NH,ROCKINGHAM,-71.2,42.91,0.0,0.9,11.6,0.0
US1NHCH0001,WEST SWANZEY 1.0 WNW,NH,CHESHIRE,-72.34,42.88,0.0,0.0,13.0,0.0
US1NHSL0003,WEST UNITY 0.7 WSW,NH,SULLIVAN,-72.33,43.29,0.0,1.0,12.0,0.0
US1NHCR0016,WOLFEBORO 0.6 SW,NH,CARROLL,-71.22,43.58,0.0,0.0,15.0,0.0
USC00279966,YORK POND,NH,COOS,-71.33,44.5,0.0,0.0,0.0,0.0
US1NJSS0001,ANDOVER TWP 1.7 W,NJ,SUSSEX,-74.76,41.02,0.0,7.0,7.5,0.0
USW00013724,ATLANTIC CITY,NJ,ATLANTIC,-74.42,39.38,0.0,0.0,0.0,0.0
USW00093730,ATLANTIC CITY INTL AP,NJ,ATLANTIC,-74.57,39.45,0.0,0.0,0.0,0.0
US1NJSM0011,BEDMINSTER TWP 2.9 ESE,NJ,SOMERSET,-74.63,40.66,0.0,10.0,1.3,0.0
US1NJMN0024,BELMAR 1.5 W,NJ,MONMOUTH,-74.05,40.18,0.0,2.0,0.0,0.0
USC00280734,BELVIDERE BRIDGE,NJ,WARREN,-75.08,40.83,0.0,6.0,0.0,0.0
US1NJOC0056,BERKELEY TWP 2.7 SSE,NJ,OCEAN,-74.17,39.88,0.0,0.0,0.0,0.2
US1NJCN0020,BERLIN 2.2 SW,NJ,CAMDEN,-74.96,39.76,0.0,0.8,0.0,0.0
US1NJCN0011,BERLIN TWP 0.6 WNW,NJ,CAMDEN,-74.94,39.81,0.0,2.8,0.0,0.0
US1NJSM0004,BERNARDS TWP 0.6 NNW,NJ,SOMERSET,-74.57,40.68,0.0,4.9,5.5,0.0
US1NJSM0002,BERNARDS TWP 0.9 ENE,NJ,SOMERSET,-74.55,40.68,0.0,4.5,6.3,0.0
US1NJHN0007,BETHLEHEM TWP 0.6 S,NJ,HUNTERDON,-75.01,40.66,0.0,6.0,10.0,2.0
USC00280847,BLACKWELLS MILLS,NJ,SOMERSET,-74.58,40.46,0.0,2.5,2.5,0.5
US1NJWR0008,BLAIRSTOWN TWP 4.1 SE,NJ,WARREN,-74.94,40.94,0.0,0.0,0.0,0.0
US1NJWR0022,BLAIRSTOWN TWP 5.0 NE,NJ,WARREN,-74.92,41.02,0.0,0.0,0.0,0.0
US1NJES0020,BLOOMFIELD 1.7 S,NJ,ESSEX,-74.19,40.78,0.0,0.0,0.0,0.0
US1NJPS0025,BLOOMINGDALE 0.7 SSE,NJ,PASSAIC,-74.33,41.02,0.0,0.0,0.0,0.0
US1NJMS0011,BOONTON 0.6 NW,NJ,MORRIS,-74.41,40.91,0.0,4.3,0.0,0.0
US1NJMS0078,BOONTON 0.7 WSW,NJ,MORRIS,-74.42,40.9,0.0,0.0,0.0,0.0
USC00280907,BOONTON 1 SE,NJ,MORRIS,-74.4,40.89,0.0,0.0,0.0,0.0
US1NJOC0063,BRICK TWP 1.2 NW,NJ,OCEAN,-74.13,40.07,0.0,0.0,0.0,0.0
US1NJOC0006,BRICK TWP 1.5 NNE,NJ,OCEAN,-74.1,40.08,0.0,0.0,0.0,0.0
US1NJOC0001,BRICK TWP 2.4 N,NJ,OCEAN,-74.1,40.09,0.0,0.0,0.0,0.0
US1NJOC0038,BRICK TWP 3.5 N,NJ,OCEAN,-74.1,40.12,0.0,0.0,0.0,0.0
US1NJSM0034,BRIDGEWATER TWP 1.6 SSE,NJ,SOMERSET,-74.59,40.57,0.0,0.0,0.0,0.0
US1NJSM0005,BRIDGEWATER TWP 3.3 NW,NJ,SOMERSET,-74.65,40.63,0.0,4.0,4.5,0.6
US1NJAT0001,BUENA VISTA TWP 2.6 NNE,NJ,ATLANTIC,-74.87,39.55,0.0,0.0,0.0,0.0
US1NJBT0003,BURLINGTON 1.7 E,NJ,BURLINGTON,-74.82,40.08,0.0,3.8,1.0,0.0
US1NJHN0001,CALIFON 0.6 NW,NJ,HUNTERDON,-74.84,40.73,0.0,5.9,4.9,0.6
USC00281327,CANISTEAR RESERVOIR,NJ,SUSSEX,-74.48,41.11,0.0,0.0,0.0,0.0
USC00281351,CAPE MAY 2 NW,NJ,CAPE MAY,-74.94,38.95,0.0,0.0,0.0,0.0
USC00281582,CHARLOTTEBURG RESERVE,NJ,PASSAIC,-74.42,41.03,0.0,0.0,0.0,0.0
US1NJMS0040,CHATHAM 0.6 NW,NJ,MORRIS,-74.39,40.75,0.0,3.6,0.0,0.0
US1NJMS0060,CHESTER TWP 0.6 ENE,NJ,MORRIS,-74.67,40.78,0.0,9.5,0.0,0.0
US1NJBT0059,CINNAMINSON TWP 0.7 ESE,NJ,BURLINGTON,-74.98,40.0,0.0,3.5,2.2,2.0
US1NJHN0003,CLINTON 1.6 ENE,NJ,HUNTERDON,-74.88,40.64,0.0,5.2,5.8,0.5
US1NJHN0018,CLINTON TWP 3.9 N,NJ,HUNTERDON,-74.86,40.69,0.0,5.0,7.0,0.5
US1NJMN0012,COLTS NECK TWP 2.4 NW,NJ,MONMOUTH,-74.19,40.32,0.0,0.0,0.0,0.0
US1NJMD0006,CRANBURY TWP 1.4 SW,NJ,MIDDLESEX,-74.54,40.3,0.0,0.0,0.0,0.0
US1NJUN0017,CRANFORD TWP 1.1 NNW,NJ,UNION,-74.31,40.67,0.0,0.0,0.0,0.0
US1NJMS0035,DENVILLE TWP 0.8 N,NJ,MORRIS,-74.49,40.9,0.0,0.0,0.0,0.0
US1NJMS0071,DENVILLE TWP 1.5 ESE,NJ,MORRIS,-74.46,40.88,0.0,4.1,8.5,0.0
US1NJMS0031,DENVILLE TWP 2.0 NNE,NJ,MORRIS,-74.48,40.92,0.0,5.0,9.0,0.0
US1NJGL0022,EAST GREENWICH TWP 0.7 N,NJ,GLOUCESTER,-75.24,39.8,0.0,0.0,0.0,0.0
US1NJMC0038,EAST WINDSOR TWP 1.6 W,NJ,MERCER,-74.56,40.26,0.0,0.0,0.0,0.0
US1NJMN0010,EATONTOWN 1.2 NE,NJ,MONMOUTH,-74.04,40.3,0.0,0.0,0.0,0.0
US1NJAT0017,EGG HARBOR CITY 3.6 SW,NJ,ATLANTIC,-74.65,39.53,0.0,0.0,0.0,0.3
US1NJAT0013,EGG HARBOR TWP 1.3 NW,NJ,ATLANTIC,-74.62,39.39,0.0,0.0,0.0,0.0
USC00282805,ESTELL MANOR,NJ,ATLANTIC,-74.83,39.38,0.0,0.3,0.0,0.0
US1NJAT0011,ESTELL MANOR 4.0 WNW,NJ,ATLANTIC,-74.85,39.37,0.0,0.0,0.0,0.0
US1NJAT0015,ESTELL MANOR 5.2 NE,NJ,ATLANTIC,-74.71,39.41,0.0,0.0,0.0,0.1
US1NJBT0058,EVESHAM TWP 4.2 S,NJ,BURLINGTON,-74.9,39.8,0.0,1.2,0.0,0.0
US1NJMC0017,EWING TWP 0.8 ESE,NJ,MERCER,-74.79,40.26,1.5,5.0,0.2,0.0
US1NJMC0029,EWING TWP 0.9 NNE,NJ,MERCER,-74.79,40.28,0.0,4.0,0.0,0.0
US1NJHN0015,FLEMINGTON 0.3 E,NJ,HUNTERDON,-74.85,40.51,0.0,4.7,4.2,0.5
US1NJHN0010,FLEMINGTON 2.3 E,NJ,HUNTERDON,-74.82,40.51,0.0,0.0,0.0,0.0
USC00283029,FLEMINGTON 5 NNW,NJ,HUNTERDON,-74.88,40.57,0.0,6.2,2.2,0.8
US1NJHN0029,FLEMINGTON 5.2 NE,NJ,HUNTERDON,-74.78,40.55,0.0,0.0,0.0,0.0
US1NJMS0049,FLORHAM PARK 0.2 WNW,NJ,MORRIS,-74.4,40.78,0.0,5.6,3.6,0.0
US1NJAT0002,FOLSOM 3.2 SE,NJ,ATLANTIC,-74.8,39.56,0.0,0.0,0.0,0.0
US1NJSS0034,FRANKLIN 1.3 NE,NJ,SUSSEX,-74.57,41.12,0.0,0.0,0.0,0.0
US1NJSM0063,FRANKLIN TWP 2.7 NE,NJ,SOMERSET,-74.51,40.5,0.0,5.5,0.0,0.0
US1NJGL0006,FRANKLIN TWP 2.7 W,NJ,GLOUCESTER,-75.07,39.59,0.0,1.5,1.0,0.0
US1NJSM0026,FRANKLIN TWP 3.1 NE,NJ,SOMERSET,-74.52,40.51,0.0,4.5,2.5,1.0
US1NJSM0012,FRANKLIN TWP 3.8 ENE,NJ,SOMERSET,-74.49,40.5,0.0,4.6,1.0,0.8
US1NJSM0064,FRANKLIN TWP 3.9 NNW,NJ,SOMERSET,-74.57,40.53,0.0,4.7,3.0,0.8
US1NJSM0039,FRANKLIN TWP 4.6 NNW,NJ,SOMERSET,-74.53,40.55,0.0,4.3,2.6,1.2
US1NJSM0056,FRANKLIN TWP 5.9 SW,NJ,SOMERSET,-74.62,40.41,0.0,5.0,2.8,0.4
US1NJMN0055,FREEHOLD 0.7 SSW,NJ,MONMOUTH,-74.28,40.25,0.0,3.2,1.7,1.4
USC00283181,FREEHOLD-MARLBORO,NJ,MONMOUTH,-74.25,40.31,0.0,0.0,0.0,0.0
US1NJHN0031,FRENCHTOWN 0.5 N,NJ,HUNTERDON,-75.06,40.53,0.0,3.5,4.3,0.3
US1NJBG0017,GLEN ROCK 0.7 SSE,NJ,BERGEN,-74.12,40.95,0.0,5.7,5.0,0.0
US1NJWR0001,GREENWICH TWP 1.6 S,NJ,WARREN,-75.12,40.66,0.0,5.0,4.5,1.0
US1NJWR0005,HACKETTSTOWN 0.8 W,NJ,WARREN,-74.84,40.85,0.0,4.0,8.0,0.1
US1NJMC0002,HAMILTON TWP 2.3 NE,NJ,MERCER,-74.65,40.23,0.0,0.0,2.3,0.2
USC00283662,HAMMONTON 1 NE,NJ,ATLANTIC,-74.81,39.64,0.0,0.0,0.0,1.0
US1NJAT0005,HAMMONTON 3.3 WSW,NJ,ATLANTIC,-74.83,39.64,0.0,0.0,0.0,0.7
US1NJSS0007,HARDYSTON TWP 3.2 SE,NJ,SUSSEX,-74.54,41.09,0.0,6.5,13.0,0.0
USC00283704,HARRISON,NJ,HUDSON,-74.15,40.75,0.0,4.0,3.2,0.0
US1NJHD0001,HARRISON 0.3 N,NJ,HUDSON,-74.15,40.75,0.0,4.0,3.2,0.0
US1NJPS0005,HAWTHORNE 0.4 S,NJ,PASSAIC,-74.16,40.95,0.0,4.0,5.6,0.0
US1NJPS0014,HAWTHORNE 1.0 SSE,NJ,PASSAIC,-74.15,40.94,0.0,3.5,6.3,0.0
USC00283706,HIGHLAND LAKES 1SW,NJ,SUSSEX,-74.46,41.16,0.0,5.2,13.5,0.0
USC00283951,HIGHTSTOWN 2 W,NJ,MERCER,-74.56,40.26,0.0,5.8,2.0,0.2
US1NJSM0033,HILLSBOROUGH TWP 2.4 NW,NJ,SOMERSET,-74.7,40.52,0.0,0.0,0.0,0.0
US1NJSM0001,HILLSBOROUGH TWP 4.7 ESE,NJ,SOMERSET,-74.59,40.47,0.0,4.0,2.0,1.0
US1NJHN0012,HOLLAND TWP 2.6 NNE,NJ,HUNTERDON,-75.1,40.63,0.0,6.9,5.6,1.2
US1NJMC0027,HOPEWELL TWP 2.4 NW,NJ,MERCER,-74.83,40.37,0.0,3.0,1.6,0.0
US1NJMC0030,HOPEWELL TWP 3.9 SE,NJ,MERCER,-74.76,40.3,0.0,0.0,0.0,0.0
US1NJMC0023,HOPEWELL TWP 4.6 SW,NJ,MERCER,-74.87,40.3,0.0,0.0,0.0,0.0
US1NJMN0017,HOWELL TWP 2.5 W,NJ,MONMOUTH,-74.24,40.18,0.0,4.0,0.1,1.5
US1NJMN0064,HOWELL TWP 3.7 SSW,NJ,MONMOUTH,-74.21,40.13,0.0,1.4,0.1,0.1
US1NJOC0053,JACKSON TWP 2.2 S,NJ,OCEAN,-74.36,40.07,0.0,0.7,0.2,0.0
US1NJOC0033,JACKSON TWP 4.1 NNW,NJ,OCEAN,-74.39,40.15,0.0,1.3,0.0,0.0
US1NJOC0068,JACKSON TWP 4.9 ENE,NJ,OCEAN,-74.27,40.13,0.0,0.0,0.0,0.0
US1NJMS0018,JEFFERSON TWP 2.4 ENE,NJ,MORRIS,-74.51,41.01,0.0,12.5,2.5,0.0
US1NJHD0002,KEARNY 1.7 NW,NJ,HUDSON,-74.14,40.77,0.0,0.0,8.5,0.0
US1NJOC0017,LACEY TWP 6.3 E,NJ,OCEAN,-74.14,39.86,0.0,0.0,0.0,0.0
US1NJHN0042,LAMBERTVILLE 0.7 SSE,NJ,HUNTERDON,-74.94,40.36,0.0,0.0,0.0,0.0
US1NJOC0008,LAVALLETTE 1.1 N,NJ,OCEAN,-74.07,39.98,0.0,0.0,0.0,0.0
US1NJMC0040,LAWRENCE TWP 0.8 ESE,NJ,MERCER,-74.71,40.29,0.0,0.0,0.0,0.2
US1NJMC0022,LAWRENCE TWP 1.6 S,NJ,MERCER,-74.72,40.27,0.0,5.0,2.8,0.0
US1NJMC0009,LAWRENCE TWP 1.8 SSW,NJ,MERCER,-74.73,40.27,0.0,3.5,2.8,0.1
US1NJHN0035,LEBANON 0.4 SE,NJ,HUNTERDON,-74.83,40.64,0.0,0.0,0.0,0.0
US1NJHN0025,LEBANON 0.5 E,NJ,HUNTERDON,-74.82,40.64,0.0,0.0,0.0,0.0
US1NJHN0021,LEBANON 2.8 N,NJ,HUNTERDON,-74.84,40.68,0.0,5.0,4.0,0.0
US1NJHN0019,LEBANON 3.2 SW,NJ,HUNTERDON,-74.87,40.61,0.0,5.0,5.5,0.5
US1NJWR0007,LIBERTY TWP 1.0 S,NJ,WARREN,-74.95,40.85,0.0,0.0,0.0,0.0
US1NJWR0002,LIBERTY TWP 1.7 WSW,NJ,WARREN,-74.98,40.85,0.0,5.4,6.7,0.0
US1NJAT0009,LINWOOD 0.7 SSW,NJ,ATLANTIC,-74.58,39.33,0.0,0.0,0.0,0.0
US1NJOC0036,LITTLE EGG HARBOR TWP 5.4 N,NJ,OCEAN,-74.35,39.67,0.0,0.0,0.0,0.0
US1NJPS0012,LITTLE FALLS TWP 0.5 WNW,NJ,PASSAIC,-74.23,40.88,0.0,4.0,5.7,0.0
US1NJMN0048,LONG BRANCH 0.5 W,NJ,MONMOUTH,-74.0,40.3,0.0,1.5,0.3,0.5
US1NJMN0069,LONG BRANCH 1.7 SSW,NJ,MONMOUTH,-74.01,40.28,0.0,0.0,0.0,0.0
US1NJMS0072,LONG HILL TWP 1.4 WSW,NJ,MORRIS,-74.51,40.68,0.0,0.0,0.0,0.0
US1NJMS0019,LONG HILL TWP 1.8 WSW,NJ,MORRIS,-74.52,40.67,0.0,9.0,2.5,0.0
US1NJCM0035,LOWER TWP 3.0 WSW,NJ,CAPE MAY,-74.96,38.96,0.0,0.0,0.0,0.0
US1NJMS0059,MADISON 0.8 WSW,NJ,MORRIS,-74.43,40.75,0.0,8.5,0.0,0.0
US1NJWR0017,MANSFIELD TWP 2.6 WNW,NJ,WARREN,-74.96,40.82,0.0,0.0,0.0,0.0
US1NJSM0061,MANVILLE 0.3 SSW,NJ,SOMERSET,-74.59,40.54,0.0,0.0,0.0,0.0
US1NJES0018,MAPLEWOOD TWP 0.9 SE,NJ,ESSEX,-74.26,40.72,0.0,3.3,4.5,0.0
US1NJMD0060,MATAWAN 1.1 WSW,NJ,MIDDLESEX,-74.25,40.41,0.0,0.0,0.0,0.0
USC00285346,MAYS LANDING 1 W,NJ,ATLANTIC,-74.75,39.45,0.0,0.0,0.0,0.0
US1NJBT0028,MEDFORD LAKES 0.6 W,NJ,BURLINGTON,-74.82,39.86,0.0,0.0,0.0,0.2
US1NJBT0005,MEDFORD TWP 2.4 SSE,NJ,BURLINGTON,-74.81,39.83,0.0,2.0,0.0,0.4
US1NJCN0001,MERCHANTVILLE 0.5 ESE,NJ,CAMDEN,-75.04,39.95,0.0,2.0,0.0,0.0
US1NJCM0029,MIDDLE TWP 3.3 NNW,NJ,CAPE MAY,-74.85,39.13,0.0,0.0,0.0,0.0
US1NJCM0034,MIDDLE TWP 4.2 NNW,NJ,CAPE MAY,-74.85,39.14,0.0,0.0,0.0,0.0
US1NJCM0002,MIDDLE TWP 4.4 SW,NJ,CAPE MAY,-74.89,39.04,0.0,0.0,0.0,0.0
US1NJMN0011,MIDDLETOWN TWP 3.6 NW,NJ,MONMOUTH,-74.12,40.43,0.0,0.0,0.0,0.0
US1NJMS0023,MINE HILL TWP 0.4 NE,NJ,MORRIS,-74.59,40.88,0.0,6.5,7.0,0.0
US1NJMS0063,MINE HILL TWP 1.1 ENE,NJ,MORRIS,-74.58,40.88,0.0,7.1,7.0,0.0
US1NJGL0037,MONROE TWP 3.1 NNW,NJ,GLOUCESTER,-75.0,39.7,0.0,0.0,0.6,0.4
US1NJSS0028,MONTAGUE TWP 2.7 WNW,NJ,SUSSEX,-74.78,41.3,0.0,8.4,9.4,0.1
US1NJSM0022,MONTGOMERY TWP 2.3 S,NJ,SOMERSET,-74.68,40.39,0.0,0.0,0.0,0.0
US1NJSM0021,MONTGOMERY TWP 3.0 NE,NJ,SOMERSET,-74.64,40.46,0.0,4.5,0.0,0.0
US1NJBT0006,MOORESTOWN TWP 0.6 SE,NJ,BURLINGTON,-74.93,39.97,0.0,2.5,0.0,0.2
US1NJMS0003,MORRIS TWP 0.8 NW,NJ,MORRIS,-74.5,40.81,0.0,0.0,0.0,0.0
US1NJCN0024,MOUNT EPHRAIM 0.2 NNE,NJ,CAMDEN,-75.09,39.88,0.0,0.0,0.0,0.0
US1NJBT0004,MOUNT LAUREL TWP 2.5 ENE,NJ,BURLINGTON,-74.86,39.97,0.0,2.8,1.1,0.7
US1NJMS0054,MOUNT OLIVE TWP 0.6 W,NJ,MORRIS,-74.75,40.87,0.0,2.0,8.5,0.0
US1NJMD0028,NEW BRUNSWICK 0.3 NE,NJ,MIDDLESEX,-74.44,40.49,0.0,6.0,0.0,0.0
USC00286055,NEW BRUNSWICK 3 SE,NJ,MIDDLESEX,-74.44,40.47,0.0,4.3,1.7,0.1
US1NJUN0010,NEW PROVIDENCE 0.8 ESE,NJ,UNION,-74.39,40.69,0.0,4.5,3.5,0.0
USW00014734,NEWARK LIBERTY INTL AP,NJ,ESSEX,-74.17,40.68,0.1,6.9,0.0,0.0
US1NJBG0015,NORTH ARLINGTON 0.7 WNW,NJ,BERGEN,-74.14,40.79,0.0,9.0,0.0,0.0
US1NJMD0002,NORTH BRUNSWICK TWP 1.5 W,NJ,MIDDLESEX,-74.51,40.45,0.0,0.0,0.0,0.0
USC00286460,OAK RIDGE RESERVOIR,NJ,MORRIS,-74.5,41.0,0.0,0.0,0.0,0.0
US1NJBG0023,OAKLAND 0.9 SSE,NJ,BERGEN,-74.23,41.02,0.0,6.0,7.5,0.0
US1NJCM0036,OCEAN CITY 2.1 NE,NJ,CAPE MAY,-74.57,39.29,0.0,0.0,0.0,0.0
US1NJMN0005,OCEAN TWP 0.8 SE,NJ,MONMOUTH,-74.03,40.24,0.0,0.0,0.0,0.5
US1NJMD0062,OLD BRIDGE TWP 5.1 NE,NJ,MIDDLESEX,-74.24,40.46,0.0,3.0,2.1,0.5
US1NJWR0020,OXFORD TWP 0.6 SSW,NJ,WARREN,-75.0,40.8,0.0,0.0,0.0,0.0
US1NJBG0018,PALISADES PARK 0.2 WNW,NJ,BERGEN,-74.0,40.85,0.0,6.8,0.5,0.0
US1NJSM0031,PEAPACK-GLADSTONE 1.3 NNE,NJ,SOMERSET,-74.65,40.73,0.0,0.0,2.0,0.0
US1NJMC0001,PENNINGTON 0.6 ENE,NJ,MERCER,-74.78,40.33,0.0,5.0,0.0,0.0
USC00286864,PENNSAUKEN 1N,NJ,CAMDEN,-75.02,39.97,0.0,2.5,2.5,0.0
USC00286964,PHILADELPHIA/MT HOLLY WFO,NJ,BURLINGTON,-74.82,40.01,0.0,3.3,2.2,0.2
USC00286979,PHILLIPSBURG-EASTN BR,NJ,WARREN,-75.2,40.7,0.0,4.6,5.6,0.0
US1NJOC0019,PINE BEACH 0.4 NW,NJ,OCEAN,-74.17,39.94,0.0,0.0,0.0,0.0
US1NJMD0024,PISCATAWAY TWP 1.0 WSW,NJ,MIDDLESEX,-74.48,40.54,0.0,0.0,0.0,0.0
US1NJGL0001,PITMAN 0.1 W,NJ,GLOUCESTER,-75.13,39.73,0.0,1.0,1.0,0.1
US1NJSL0003,PITTSGROVE TWP 1.9 S,NJ,SALEM,-75.14,39.51,0.0,0.0,1.0,0.0
US1NJMD0069,PLAINSBORO TWP 1.8 ESE,NJ,MIDDLESEX,-74.55,40.33,0.0,0.0,0.0,0.0
US1NJOC0013,POINT PLEASANT BEACH 0.5 SW,NJ,OCEAN,-74.05,40.09,0.0,0.0,0.1,0.1
US1NJMC0003,PRINCETON 2.2 SSE,NJ,MERCER,-74.65,40.33,0.0,4.2,1.2,0.1
US1NJMS0021,RANDOLPH TWP 0.8 W,NJ,MORRIS,-74.6,40.85,0.0,5.5,6.5,0.0
US1NJMS0042,RANDOLPH TWP 2.0 E,NJ,MORRIS,-74.54,40.84,0.0,4.9,4.6,0.0
US1NJMS0073,RANDOLPH TWP 2.2 SW,NJ,MORRIS,-74.6,40.82,0.0,4.0,7.0,0.0
USC00287486,RIEGELSVILLE,NJ,WARREN,-75.19,40.59,0.0,5.0,10.0,0.0
US1NJPS0022,RINGWOOD 3.0 SSE,NJ,PASSAIC,-74.26,41.07,0.0,0.0,0.0,0.0
US1NJMC0016,ROBBINSVILLE TWP 1.7 WSW,NJ,MERCER,-74.62,40.21,0.0,4.0,1.0,0.2
US1NJMS0006,ROCKAWAY 0.4 NNW,NJ,MORRIS,-74.52,40.9,0.0,6.2,6.5,0.0
US1NJMS0004,ROCKAWAY TWP 0.7 NE,NJ,MORRIS,-74.49,40.97,0.0,4.5,7.5,0.0
US1NJMS0051,ROXBURY TWP 1.2 ESE,NJ,MORRIS,-74.63,40.88,0.0,5.0,4.5,0.0
US1NJMN0051,RUMSON 0.5 NE,NJ,MONMOUTH,-74.0,40.37,0.0,0.0,3.0,0.0
US1NJBG0002,SADDLE BROOK TWP 0.6 E,NJ,BERGEN,-74.08,40.9,0.0,3.9,5.5,0.0
US1NJCM0011,SEA ISLE CITY 1.4 SSW,NJ,CAPE MAY,-74.71,39.13,0.0,0.0,0.0,0.0
USC00287936,SEABROOK FARMS,NJ,CUMBERLAND,-75.22,39.49,0.0,1.0,0.0,0.0
USC00288173,SOMERDALE 4 SW,NJ,CAMDEN,-75.04,39.84,0.0,2.8,1.0,0.0
US1NJSM0013,SOMERVILLE 0.2 ENE,NJ,SOMERSET,-74.61,40.57,0.0,5.5,0.0,0.0
US1NJMD0009,SOUTH BRUNSWICK TWP 3.1 NW,NJ,MIDDLESEX,-74.57,40.41,0.0,0.0,3.0,0.5
US1NJMD0063,SOUTH RIVER 0.3 WSW,NJ,MIDDLESEX,-74.38,40.44,0.0,3.5,0.0,0.0
US1NJOC0012,STAFFORD TWP 2.1 NW,NJ,OCEAN,-74.29,39.73,0.0,0.0,0.0,0.0
US1NJOC0051,STAFFORD TWP 2.2 NNE,NJ,OCEAN,-74.25,39.74,0.0,0.0,0.0,0.0
US1NJOC0058,STAFFORD TWP 2.8 NNW,NJ,OCEAN,-74.29,39.74,0.0,0.0,0.0,0.0
US1NJHN0022,STOCKTON 3.8 NNW,NJ,HUNTERDON,-75.01,40.45,0.0,3.5,0.0,0.0
US1NJHN0002,STOCKTON 4.4 NW,NJ,HUNTERDON,-75.03,40.45,0.0,0.0,0.0,0.0
USC00288644,SUSSEX 2 NW,NJ,SUSSEX,-74.66,41.22,0.0,7.0,10.0,0.0
US1NJBT0032,TABERNACLE TWP 5.0 WNW,NJ,BURLINGTON,-74.75,39.84,0.0,2.0,1.0,0.3
US1NJBG0003,TENAFLY 1.3 W,NJ,BERGEN,-73.98,40.91,0.0,0.0,0.0,0.0
USW00094741,TETERBORO AIRPORT,NJ,BERGEN,-74.06,40.85,68.0,0.0,0.0,0.0
US1NJOC0065,TOMS RIVER TWP 2.8 SSE,NJ,OCEAN,-74.14,39.95,0.0,0.0,0.0,0.0
US1NJHN0032,UNION TWP 1.2 SW,NJ,HUNTERDON,-74.98,40.62,0.0,0.0,0.0,0.0
US1NJCD0001,UPPER DEERFIELD TWP 1.7 SW,NJ,CUMBERLAND,-75.24,39.48,0.0,0.0,0.0,0.0
US1NJCD0010,UPPER DEERFIELD TWP 1.9 E,NJ,CUMBERLAND,-75.18,39.49,0.0,0.0,0.0,0.0
US1NJSS0003,VERNON TWP 1.7 N,NJ,SUSSEX,-74.49,41.22,0.0,0.0,10.0,0.0
USC00289187,WANAQUE RAYMOND DAM,NJ,PASSAIC,-74.29,41.04,0.0,0.0,7.0,0.0
US1NJSM0040,WARREN TWP 1.5 SSE,NJ,SOMERSET,-74.5,40.61,0.0,4.4,4.3,0.0
US1NJWR0021,WASHINGTON 0.6 ENE,NJ,WARREN,-74.97,40.76,0.0,5.8,5.7,1.1
US1NJGL0012,WASHINGTON TWP 2.1 NNW,NJ,GLOUCESTER,-75.09,39.77,0.0,0.0,0.0,0.0
US1NJMS0061,WASHINGTON TWP 3.6 W,NJ,MORRIS,-74.86,40.79,0.0,5.4,7.5,0.0
USC00289363,WERTSVILLE 4 NE,NJ,HUNTERDON,-74.81,40.45,0.0,3.8,0.0,0.2
US1NJES0019,WEST CALDWELL TWP 1.3 NE,NJ,ESSEX,-74.28,40.86,0.0,0.0,0.0,0.0
US1NJPS0021,WEST MILFORD TWP 2.5 SSE,NJ,PASSAIC,-74.37,41.07,0.0,0.0,0.0,0.0
US1NJUN0014,WESTFIELD 0.6 NE,NJ,UNION,-74.34,40.66,0.0,8.5,0.0,0.0
US1NJWR0023,WHITE TWP 1.7 S,NJ,WARREN,-75.04,40.8,0.0,8.5,5.5,0.0
US1NJCM0017,WILDWOOD CREST 0.1 WSW,NJ,CAPE MAY,-74.84,38.97,0.0,0.0,0.0,0.0
US1NJCN0005,WINSLOW TWP 3.5 W,NJ,CAMDEN,-74.97,39.71,0.0,0.0,0.0,0.3
US1NJCM0007,WOODBINE 0.8 NNW,NJ,CAPE MAY,-74.82,39.24,0.0,0.0,0.0,0.0
US1NJMD0043,WOODBRIDGE TWP 1.1 ESE,NJ,MIDDLESEX,-74.27,40.56,0.0,3.1,1.9,0.0
US1NJMD0045,WOODBRIDGE TWP 1.1 NNE,NJ,MIDDLESEX,-74.28,40.58,0.0,4.2,2.3,0.0
US1NJMD0050,WOODBRIDGE TWP 3.0 NNW,NJ,MIDDLESEX,-74.31,40.6,0.0,0.0,0.0,0.0
US1NJBT0025,WOODLAND TWP 1.8 SW,NJ,BURLINGTON,-74.54,39.82,0.0,0.0,0.0,0.0
US1NJSL0002,WOODSTOWN 0.6 NW,NJ,SALEM,-75.33,39.66,0.0,0.0,0.0,0.0
USC00300023,ADDISON,NY,STEUBEN,-77.23,42.1,0.0,1.4,0.0,1.7
US1NYER0085,AKRON 2.4 S,NY,ERIE,-78.49,42.99,0.0,2.5,15.0,3.5
US1NYAB0023,ALBANY 0.7 SW,NY,ALBANY,-73.81,42.66,0.0,5.5,17.7,0.0
USW00014735,ALBANY INTL AIRPORT,NY,ALBANY,-73.81,42.74,0.0,17.0,0.0,0.0
USC00300063,ALCOVE DAM,NY,ALBANY,-73.93,42.47,0.0,6.0,18.0,0.0
USC00300085,ALFRED,NY,ALLEGANY,-77.76,42.25,0.0,3.0,6.1,0.9
US1NYCT0011,ALLEGANY 4.7 N,NY,CATTARAUGUS,-78.49,42.16,0.0,2.5,5.5,3.0
USC00300093,ALLEGANY STATE PARK,NY,CATTARAUGUS,-78.75,42.1,0.0,2.0,4.0,0.0
US1NYAB0001,ALTAMONT 2.7 SSW,NY,ALBANY,-74.05,42.67,0.2,5.5,13.3,0.0
US1NYER0098,AMHERST 5.4 NNE,NY,ERIE,-78.76,43.05,0.0,4.0,14.4,7.8
USC00300183,ANGELICA,NY,ALLEGANY,-78.02,42.31,0.0,3.0,6.3,0.0
US1NYTG0003,APALACHIN 3.0 ESE,NY,TIOGA,-76.12,42.05,0.0,12.7,14.5,1.5
US1NYWC0015,ARMONK 0.4 E,NY,WESTCHESTER,-73.71,41.13,0.0,4.5,7.0,0.0
USC00300317,ATTICA 7 SW,NY,WYOMING,-78.4,42.81,0.0,3.2,9.3,5.0
USC00300321,AUBURN,NY,CAYUGA,-76.54,42.93,0.0,1.4,19.6,6.4
US1NYCY0008,AUBURN 8.3 SSE,NY,CAYUGA,-76.49,42.83,0.0,1.1,17.1,5.6
US1NYCY0026,AURORA 2.4 N,NY,CAYUGA,-76.7,42.79,0.0,2.3,12.6,4.3
USC00300331,AURORA RESEARCH FARM,NY,CAYUGA,-76.66,42.73,0.0,0.0,0.0,24.0
US1NYRN0001,AVERILL PARK 0.9 WNW,NY,RENSSELAER,-73.57,42.64,0.0,4.2,20.3,0.2
USC00300343,AVON,NY,LIVINGSTON,-77.76,42.92,0.0,1.0,8.0,2.0
US1NYLV0002,AVON 0.5 NNE,NY,LIVINGSTON,-77.74,42.92,0.0,0.0,0.0,0.0
US1NYCN0018,BAINBRIDGE 6.5 SSE,NY,CHENANGO,-75.42,42.21,0.0,5.8,21.5,1.0
USC00300364,BAITING HOLLOW,NY,SUFFOLK,-72.74,40.93,0.0,1.5,1.9,0.0
USC00300379,BALDWINSVILLE,NY,ONONDAGA,-76.33,43.15,0.0,0.0,0.0,4.0
US1NYOG0046,BALDWINSVILLE 3.5 NE,NY,ONONDAGA,-76.29,43.2,0.7,0.0,0.0,2.5
US1NYSR0016,BALLSTON SPA 2.9 ESE,NY,SARATOGA,-73.8,42.99,0.0,1.0,15.0,0.0
USC00300443,BATAVIA,NY,GENESEE,-78.17,43.03,0.0,0.0,5.0,0.0
US1NYSF0034,BAY SHORE 0.5 ESE,NY,SUFFOLK,-73.24,40.72,0.0,2.7,0.0,0.0
US1NYPT0002,BEACON 4.2 ESE,NY,PUTNAM,-73.89,41.48,0.0,10.1,8.5,0.0
US1NYLW0005,BEAVER FALLS 0.1 SW,NY,LEWIS,-75.43,43.89,0.0,0.0,16.0,0.0
USC00300608,BENNETTS BRIDGE,NY,OSWEGO,-75.95,43.53,0.0,0.0,11.0,1.0
US1NYTG0015,BERKSHIRE 1.9 ENE,NY,TIOGA,-76.22,42.32,0.5,4.0,12.5,6.5
US1NYTG0005,BERKSHIRE 2.0 N,NY,TIOGA,-76.19,42.33,0.0,5.5,11.5,7.0
US1NYST0004,BIG FLATS 2.0 W,NY,STEUBEN,-76.97,42.14,0.0,3.7,5.0,1.5
USC00300668,BIG MOOSE 3 SE,NY,HERKIMER,-74.87,43.8,0.0,0.0,0.0,0.0
USW00004725,BINGHAMTON (GREATER  AP),NY,BROOME,-75.98,42.21,0.0,31.2,4.1,0.2
US1NYBM0024,BINGHAMTON 1.3 ENE,NY,BROOME,-75.89,42.11,0.0,9.8,18.0,3.0
US1NYBM0011,BINGHAMTON 1.8 SW,NY,BROOME,-75.93,42.07,0.0,9.0,17.5,1.0
USC00300684,BINGHAMTON WFO,NY,BROOME,-75.99,42.21,0.0,31.2,4.1,0.2
US1NYER0060,BLASDELL 1.5 SSW,NY,ERIE,-78.84,42.78,0.0,2.0,5.5,0.0
US1NYOD0004,BOONVILLE 0.2 NW,NY,ONEIDA,-75.33,43.48,0.0,0.0,0.0,0.0
USC00300785,BOONVILLE 4 SSW,NY,ONEIDA,-75.37,43.44,0.0,0.6,15.9,1.2
US1NYOD0001,BOONVILLE 8.0 E,NY,ONEIDA,-75.17,43.48,0.0,1.0,17.0,0.3
US1NYER0065,BOSTON 1.5 NE,NY,ERIE,-78.72,42.65,0.0,2.0,12.0,1.0
USC00300870,BREWERTON LOCK 23,NY,ONONDAGA,-76.2,43.24,0.0,0.0,0.0,4.0
US1NYOT0004,BRIDGEWATER 4.3 SSE,NY,OTSEGO,-75.23,42.82,0.0,2.8,27.7,1.1
USC00300937,BROCKPORT,NY,MONROE,-77.95,43.22,0.0,0.0,0.0,0.0
US1NYMR0015,BROCKPORT 0.6 WNW,NY,MONROE,-77.95,43.22,0.0,0.0,0.0,15.5
US1NYMR0029,BROCKPORT 1.5 ENE,NY,MONROE,-77.91,43.22,0.0,0.0,0.0,0.0
US1NYKN0025,BROOKLYN 3.1 NW,NY,KINGS,-73.99,40.68,0.0,3.5,7.0,0.0
US1NYER0109,BUFFALO 6.7 N,NY,ERIE,-78.87,42.99,0.0,3.0,12.0,0.0
USW00014733,BUFFALO NIAGARA INTL,NY,ERIE,-78.74,42.94,1.5,13.2,4.9,0.0
USC00301068,BUSKIRK,NY,RENSSELAER,-73.43,42.94,0.0,1.7,13.8,0.6
USC00301102,CALLICOON CENTER,NY,SULLIVAN,-74.95,41.83,0.0,7.0,19.0,1.1
US1NYOG0010,CAMILLUS 1.0 W,NY,ONONDAGA,-76.33,43.04,0.2,0.2,22.5,4.5
USC00301152,CANANDAIGUA 3 S,NY,ONTARIO,-77.28,42.85,0.0,0.0,0.0,0.0
USC00301168,CANDOR 2SE,NY,TIOGA,-76.31,42.19,0.0,0.0,0.0,0.0
USW00014743,CANTON 4 SE,NY,ST. LAWRENCE,-75.11,44.58,0.0,0.0,0.0,0.0
USC00301211,CARMEL 4N,NY,PUTNAM,-73.65,41.47,0.0,7.5,6.5,0.0
US1NYTM0006,CAROLINE CENTER 0.1 SE,NY,TOMPKINS,-76.32,42.35,1.3,4.6,20.6,10.0
US1NYJF0011,CARTHAGE 2.0 SW,NY,JEFFERSON,-75.63,43.96,0.0,0.0,0.0,0.8
US1NYCY0002,CAYUGA 3.2 ESE,NY,CAYUGA,-76.67,42.9,0.0,3.0,9.0,14.5
USC00301265,CAYUGA LOCK NO 1,NY,CAYUGA,-76.73,42.95,0.0,0.0,8.0,9.5
US1NYMD0010,CAZENOVIA 2.9 SE,NY,MADISON,-75.81,42.9,0.4,1.3,20.5,10.0
USC00301309,CENTERPORT,NY,SUFFOLK,-73.37,40.88,0.0,0.0,0.0,0.0
US1NYER0122,CHEEKTOWAGA 2.4 NW,NY,ERIE,-78.78,42.93,0.0,0.0,0.0,0.0
US1NYER0102,CHEEKTOWAGA 2.7 NE,NY,ERIE,-78.72,42.94,0.0,3.3,12.7,3.6
US1NYCM0024,CHEMUNG 5.7 N,NY,CHEMUNG,-76.63,42.09,0.0,5.5,10.0,3.5
US1NYMD0016,CHITTENANGO 2.1 ESE,NY,MADISON,-75.83,43.03,0.5,0.8,20.8,2.8
US1NYER0051,CLARENCE CENTER 0.9 N,NY,ERIE,-78.63,43.02,0.0,2.0,5.0,2.0
US1NYER0123,CLARENCE CENTER 5.2 WNW,NY,ERIE,-78.72,43.05,0.0,2.3,13.1,0.0
US1NYOG0012,CLAY 4.6 NW,NY,ONONDAGA,-76.26,43.2,0.0,0.0,0.0,0.0
US1NYSR0029,CLIFTON PARK 2.7 S,NY,SARATOGA,-73.79,42.82,0.0,2.1,16.0,0.0
USC00301595,COBLESKILL 2 ESE,NY,SCHOHARIE,-74.43,42.67,0.0,4.0,25.0,0.0
US1NYPT0004,COLD SPRING 8.1 NE,NY,PUTNAM,-73.84,41.5,0.0,7.5,11.5,0.0
USC00301625,COLDEN 1W,NY,ERIE,-78.71,42.65,0.3,2.1,14.3,3.0
US1NYER0077,COLDEN 2.4 ENE,NY,ERIE,-78.61,42.65,0.2,2.9,16.6,2.7
USC00301708,CONKLINGVILLE DAM,NY,SARATOGA,-73.93,43.32,0.0,0.0,16.0,0.0
US1NYLW0003,CONSTABLEVILLE 1.2 NW,NY,LEWIS,-75.45,43.58,0.0,0.0,0.0,0.0
USC00301752,COOPERSTOWN,NY,OTSEGO,-74.93,42.72,0.0,28.5,28.0,0.0
US1NYOT0002,COOPERSTOWN 0.3 S,NY,OTSEGO,-74.93,42.7,0.2,8.1,30.0,1.5
USC00301761,COPAKE,NY,COLUMBIA,-73.55,42.11,0.0,0.0,0.0,0.0
USC00301787,CORNING,NY,STEUBEN,-77.07,42.13,0.0,2.0,7.2,1.0
US1NYST0030,CORNING 0.7 NNW,NY,STEUBEN,-77.06,42.16,0.0,0.0,0.0,0.0
US1NYOR0002,CORNWALL ON HUDSON 0.6 NNW,NY,ORANGE,-74.02,41.45,0.0,19.0,0.0,0.0
US1NYLW0010,CROGHAN 6.2 N,NY,LEWIS,-75.37,43.98,0.0,0.8,13.0,4.0
USC00301974,DANSVILLE,NY,LIVINGSTON,-77.72,42.56,0.0,2.7,7.3,0.0
US1NYLV0005,DANSVILLE 1.0 ENE,NY,LIVINGSTON,-77.68,42.57,0.0,2.4,8.5,1.2
US1NYLV0001,DANSVILLE 3.6 WSW,NY,LIVINGSTON,-77.76,42.53,0.0,3.2,9.0,1.2
US1NYOG0002,DE WITT 1.4 WSW,NY,ONONDAGA,-76.1,43.03,0.5,0.9,20.5,2.7
US1NYDL0031,DELANCEY 0.9 SE,NY,DELAWARE,-74.96,42.2,0.0,0.0,0.0,0.0
USC00302031,DELANSON 2NE,NY,SCHENECTADY,-74.17,42.77,1.0,6.0,24.0,0.0
US1NYDL0005,DELHI 1.5 NNE,NY,DELAWARE,-74.9,42.3,0.0,7.0,27.0,4.0
USC00302036,DELHI 2 SE,NY,DELAWARE,-74.9,42.25,0.0,8.0,0.0,1.0
US1NYHR0012,DOLGEVILLE 1.9 NW,NY,HERKIMER,-74.8,43.12,0.0,1.5,23.3,0.5
USC00302151,DOWLING CEECOM,NY,SUFFOLK,-73.09,40.72,0.0,0.0,0.0,0.0
US1NYYT0006,DUNDEE 3.3 ESE,NY,YATES,-76.92,42.51,0.0,0.0,0.0,0.0
US1NYSY0012,DUNDEE 5.7 ESE,NY,SCHUYLER,-76.87,42.5,0.0,2.3,7.0,0.0
US1NYSY0011,DUNDEE 6.2 E,NY,SCHUYLER,-76.86,42.52,0.0,2.3,7.0,1.0
USC00302197,DUNKIRK,NY,CHAUTAUQUA,-79.33,42.47,0.4,0.5,5.0,0.0
US1NYOD0023,DURHAMVILLE 3.5 NNW,NY,ONEIDA,-75.68,43.17,0.3,0.8,23.3,3.7
US1NYMD0009,EARLVILLE 0.4 W,NY,MADISON,-75.55,42.74,0.0,2.8,25.0,3.0
US1NYMD0011,EARLVILLE 1.6 NNW,NY,MADISON,-75.56,42.76,0.0,2.8,21.3,2.7
US1NYER0054,EAST AMHERST 1.2 WNW,NY,ERIE,-78.72,43.02,0.1,2.7,10.2,4.7
US1NYER0050,EAST AURORA 0.1 ENE,NY,ERIE,-78.62,42.77,0.1,2.0,6.7,3.3
US1NYER0066,EAST AURORA 1.0 ESE,NY,ERIE,-78.6,42.76,1.2,7.5,0.0,0.0
US1NYTM0018,EAST ITHACA 4.7 E,NY,TOMPKINS,-76.37,42.42,3.0,2.8,12.5,5.6
USC00302366,EAST JEWETT,NY,GREENE,-74.14,42.24,0.0,5.9,23.4,0.5
US1NYSF0019,EAST MORICHES 0.6 WNW,NY,SUFFOLK,-72.77,40.81,0.0,1.7,0.0,0.0
USC00302454,EAST SIDNEY,NY,DELAWARE,-75.23,42.33,0.0,4.3,23.5,0.0
US1NYER0096,ELMA 2.7 WSW,NY,ERIE,-78.68,42.81,0.7,3.0,11.0,3.5
US1NYER0075,ELMA CENTER 0.7 SE,NY,ERIE,-78.62,42.82,0.0,2.3,6.8,3.0
USC00302610,ELMIRA,NY,CHEMUNG,-76.84,42.1,0.0,2.5,7.8,1.7
US1NYCM0013,ELMIRA 0.7 WNW,NY,CHEMUNG,-76.82,42.1,0.0,3.8,9.0,1.2
US1NYCM0021,ELMIRA 1.2 WNW,NY,CHEMUNG,-76.83,42.1,0.0,3.8,9.0,1.2
US1NYCM0003,ELMIRA 1.3 ESE,NY,CHEMUNG,-76.79,42.08,0.0,5.0,6.6,1.5
US1NYCM0006,ELMIRA 3.2 E,NY,CHEMUNG,-76.75,42.09,0.0,4.0,7.4,1.0
USC00305113,EMMONS,NY,OTSEGO,-75.01,42.47,0.0,4.9,28.5,3.6
US1NYBM0004,ENDICOTT 5.2 SSE,NY,BROOME,-76.02,42.03,0.0,12.0,0.0,0.0
US1NYNS0007,FLORAL PARK 0.4 W,NY,NASSAU,-73.71,40.72,0.0,4.9,5.4,0.0
US1NYMG0002,FONDA 5.2 W,NY,MONTGOMERY,-74.48,42.96,0.0,4.0,17.5,0.0
US1NYCQ0006,FORESTVILLE 2.1 SW,NY,CHAUTAUQUA,-79.2,42.45,0.0,12.5,4.0,0.0
US1NYMG0001,FORT PLAIN 0.2 SE,NY,MONTGOMERY,-74.63,42.93,1.1,2.9,22.7,0.0
USC00303025,FRANKLINVILLE,NY,CATTARAUGUS,-78.46,42.33,0.0,3.0,3.0,0.0
US1NYCT0022,FRANKLINVILLE 0.5 NNE,NY,CATTARAUGUS,-78.45,42.34,0.0,3.0,5.0,0.8
US1NYCQ0022,FREDONIA 0.8 WNW,NY,CHAUTAUQUA,-79.35,42.44,0.0,0.0,0.0,0.0
US1NYGR0006,FREEHOLD 3.4 E,NY,GREENE,-73.98,42.36,0.0,6.0,20.0,0.0
US1NYCR0001,FREETOWN 1.0 NE,NY,CORTLAND,-76.02,42.53,0.0,2.0,14.0,2.5
USC00303050,FREEVILLE 1 NE,NY,TOMPKINS,-76.33,42.52,0.0,2.0,10.0,5.0
US1NYTM0005,FREEVILLE 1.5 NE,NY,TOMPKINS,-76.32,42.53,0.0,0.0,0.0,0.0
US1NYTM0023,FREEVILLE 3.7 W,NY,TOMPKINS,-76.42,42.5,0.0,2.8,16.0,2.0
US1NYCQ0021,FREWSBURG 3.4 SSE,NY,CHAUTAUQUA,-79.12,42.02,0.0,0.0,0.0,0.0
USC00303087,FULTON,NY,OSWEGO,-76.39,43.3,0.0,0.5,21.5,0.0
US1NYOS0020,FULTON 0.2 W,NY,OSWEGO,-76.42,43.32,1.0,1.0,19.0,10.0
US1NYSR0006,GANSEVOORT 1.3 WNW,NY,SARATOGA,-73.68,43.2,0.0,1.3,16.5,0.0
USC00303184,GENEVA RESEARCH FARM,NY,ONTARIO,-77.03,42.88,0.0,2.2,0.0,0.0
USC00303250,GLENFIELD 1W,NY,LEWIS,-75.43,43.71,0.0,0.3,12.0,0.4
US1NYAB0032,GLENMONT 2.5 SW,NY,ALBANY,-73.8,42.58,0.0,3.5,26.5,0.0
US1NYWR0003,GLENS FALLS 4.0 W,NY,WARREN,-73.73,43.31,0.0,0.0,13.8,0.0
USW00014750,GLENS FALLS AP,NY,WARREN,-73.62,43.35,0.0,0.0,0.0,0.0
US1NYER0063,GLENWOOD 1.5 SE,NY,ERIE,-78.64,42.6,0.0,2.0,11.0,3.0
USC00303322,GLOVERSVILLE 7NW   (PECK LAKE),NY,FULTON,-74.42,43.12,0.0,1.3,19.5,2.5
USC00303346,GOUVERNEUR 3 NW,NY,ST. LAWRENCE,-75.51,44.35,0.0,0.5,10.0,1.5
USC00303444,GREENE,NY,CHENANGO,-75.77,42.32,0.0,11.0,27.0,1.0
US1NYSR0022,GREENFIELD CENTER 1.6 W,NY,SARATOGA,-73.88,43.13,0.0,2.0,15.0,0.0
US1NYGR0007,GREENVILLE 0.7 E,NY,GREENE,-74.01,42.41,0.0,3.0,29.0,0.0
US1NYTM0004,GROTON 0.5 NW,NY,TOMPKINS,-76.37,42.59,0.0,1.7,13.0,1.5
US1NYER0039,HAMBURG 0.4 WSW,NY,ERIE,-78.84,42.72,0.1,1.7,2.8,0.0
US1NYSL0006,HANNAWA FALLS 0.1 SW,NY,ST. LAWRENCE,-74.97,44.61,0.0,0.5,19.0,9.0
US1NYLW0002,HARRISVILLE 4.7 SSW,NY,LEWIS,-75.37,44.09,0.0,0.8,14.0,3.0
US1NYOT0011,HARTWICK,NY,OTSEGO,-75.05,42.66,0.0,3.2,35.2,2.2
USC00303851,HIGHMARKET,NY,LEWIS,-75.52,43.58,0.0,0.1,8.0,1.1
US1NYDL0025,HOBART 4.8 ESE,NY,DELAWARE,-74.58,42.35,0.1,5.0,19.0,3.0
US1NYOD0043,HOLLAND PATENT 1.1 WNW,NY,ONEIDA,-75.28,43.25,1.0,0.5,27.0,1.0
US1NYOD0007,HOLLAND PATENT 1.5 WSW,NY,ONEIDA,-75.29,43.24,1.3,0.3,27.1,0.0
USC00303955,HONEOYE,NY,ONTARIO,-77.51,42.79,0.0,2.0,9.0,3.0
USC00303961,HOOKER 12 NNW,NY,LEWIS,-75.72,43.85,0.0,0.0,0.0,0.0
US1NYDT0004,HOPEWELL JUNCTION 2.4 SSE,NY,DUTCHESS,-73.79,41.55,0.0,7.3,13.3,0.0
USC00303983,HORNELL ALMOND DAM,NY,STEUBEN,-77.7,42.35,0.0,4.0,8.5,2.0
US1NYCB0001,HUDSON 8.2 S,NY,COLUMBIA,-73.77,42.13,0.0,0.0,0.0,0.0
USC00304102,INDIAN LAKE 2SW,NY,HAMILTON,-74.27,43.76,0.0,0.4,22.8,0.4
US1NYSF0017,ISLIP 0.2 NW,NY,SUFFOLK,-73.22,40.74,0.0,2.0,0.0,0.0
USW00004781,ISLIP-LI MACARTHUR AP,NY,SUFFOLK,-73.1,40.79,0.0,3.4,0.0,0.0
US1NYTM0003,ITHACA 1.1 SE,NY,TOMPKINS,-76.49,42.43,0.0,2.5,10.5,1.0
US1NYTM0017,ITHACA 2.6 NW,NY,TOMPKINS,-76.58,42.5,0.0,0.0,0.0,0.0
USC00304174,ITHACA CORNELL UNIV,NY,TOMPKINS,-76.45,42.45,0.0,3.0,9.8,2.6
US1NYSF0007,JAMESPORT 0.6 SSW,NY,SUFFOLK,-72.58,40.94,0.0,0.0,0.0,0.0
USC00304207,JAMESTOWN 4 ENE,NY,CHAUTAUQUA,-79.16,42.11,0.3,2.7,5.4,2.0
USW00094789,JFK INTL AP,NY,QUEENS,-73.76,40.64,0.0,5.1,0.0,0.0
US1NYES0007,KEESEVILLE 0.8 SE,NY,ESSEX,-73.47,44.49,0.0,0.0,26.0,1.0
US1NYER0059,KENMORE 0.3 ESE,NY,ERIE,-78.87,42.96,0.1,3.0,11.6,3.4
US1NYER0057,KENMORE 0.8 NW,NY,ERIE,-78.88,42.97,0.0,3.6,10.6,6.8
US1NYUL0001,KINGSTON 1.1 W,NY,ULSTER,-74.02,41.93,0.0,6.2,18.0,0.0
USW00014732,LA GUARDIA AP,NY,QUEENS,-73.88,40.78,0.0,7.4,0.0,0.0
US1NYOS0001,LACONA 3.6 SSE,NY,OSWEGO,-76.04,43.6,0.0,0.0,12.3,0.0
US1NYDT0012,LAGRANGEVILLE 3.4 NE,NY,DUTCHESS,-73.72,41.68,0.0,7.0,13.3,0.0
USC00304537,LAKE LUZERNE,NY,WARREN,-73.83,43.26,0.0,0.5,20.5,0.0
US1NYES0001,LAKE PLACID 1.5 N,NY,ESSEX,-73.99,44.3,0.0,0.0,0.0,0.0
US1NYTM0002,LANSING 6.6 NW,NY,TOMPKINS,-76.57,42.57,0.0,0.5,0.0,0.0
USC00304575,LANSING MANOR,NY,SCHOHARIE,-74.47,42.45,0.0,0.0,0.0,28.0
US1NYOT0025,LAURENS 5.5 W,NY,OTSEGO,-75.2,42.52,0.1,5.7,27.6,3.8
USC00304808,LITTLE VALLEY,NY,CATTARAUGUS,-78.81,42.25,0.0,2.0,10.0,6.0
US1NYCB0008,LIVINGSTON 0.7 SSW,NY,COLUMBIA,-73.79,42.13,0.0,6.0,11.7,0.0
USC00304844,LOCKPORT,NY,NIAGARA,-78.67,43.17,0.5,11.6,14.5,0.0
US1NYNG0012,LOCKPORT 0.8 NE,NY,NIAGARA,-78.68,43.18,0.0,3.9,23.4,6.1
US1NYSV0006,LONG EDDY,NY,SULLIVAN,-75.13,41.85,0.0,7.0,15.5,0.5
US1NYDL0023,LONG EDDY 6.5 NNE,NY,DELAWARE,-75.08,41.94,0.0,5.6,21.5,3.4
US1NYHM0006,LONG LAKE 0.1 SSE,NY,HAMILTON,-74.42,43.97,0.0,0.0,27.0,2.0
USC00304912,LOWVILLE,NY,LEWIS,-75.48,43.79,0.0,0.4,10.9,0.0
US1NYNS0014,LYNBROOK 0.3 NW,NY,NASSAU,-73.68,40.66,0.0,3.2,0.0,0.0
USC00304939,LYNDONVILLE,NY,ORLEANS,-78.39,43.34,0.0,5.9,6.8,0.0
US1NYWN0018,MACEDON 2.6 ESE,NY,WAYNE,-77.26,43.05,0.2,1.1,18.3,10.7
USC00304996,MALONE,NY,FRANKLIN,-74.31,44.84,0.0,0.0,25.0,7.5
US1NYJF0026,MANNSVILLE 0.3 SE,NY,JEFFERSON,-76.06,43.71,0.0,0.0,10.0,4.0
US1NYCR0005,MARATHON 1.0 NW,NY,CORTLAND,-76.04,42.45,0.0,3.5,12.5,1.8
US1NYWN0009,MARION 2.0 NE,NY,WAYNE,-77.17,43.17,0.0,0.0,13.1,0.0
USW00094725,MASSENA INTL AP,NY,ST. LAWRENCE,-74.85,44.94,0.0,0.0,0.0,0.0
USC00305233,MECKLENBURG 4SW,NY,SCHUYLER,-76.76,42.44,0.2,3.0,10.5,3.0
USC00305248,MELROSE 1 NE,NY,RENSSELAER,-73.62,42.85,0.0,0.0,13.9,0.0
US1NYQN0002,MIDDLE VILLAGE 0.5 SW,NY,QUEENS,-73.88,40.71,0.0,3.8,8.3,0.0
US1NYYT0008,MIDDLESEX 3.5 S,NY,YATES,-77.27,42.65,0.0,2.4,7.3,2.0
US1NYDT0008,MILLBROOK 3.2 SE,NY,DUTCHESS,-73.65,41.75,0.0,6.4,14.0,0.0
US1NYOS0015,MINETTO 0.1 SE,NY,OSWEGO,-76.48,43.4,0.1,0.5,20.9,4.5
USC00305512,MORRISVILLE 6 SW,NY,MADISON,-75.73,42.84,0.3,2.0,22.0,0.0
USC00305597,MOUNT MORRIS 2 W,NY,LIVINGSTON,-77.91,42.73,0.0,0.0,0.0,0.0
USC00305606,MOUNT SINAI,NY,SUFFOLK,-73.02,40.93,0.0,4.0,0.0,0.0
US1NYMD0014,MUNNSVILLE 2.0 SW,NY,MADISON,-75.61,42.95,1.0,1.4,31.5,6.0
US1NYYT0009,NAPLES 5.2 E,NY,YATES,-77.3,42.6,0.0,0.0,0.0,0.0
US1NYGR0005,NEW BALTIMORE 0.2 SE,NY,GREENE,-73.79,42.44,0.0,0.0,0.0,0.0
US1NYOD0019,NEW HARTFORD 0.8 S,NY,ONEIDA,-75.29,43.06,0.4,0.6,24.9,0.7
USC00305714,NEWCOMB,NY,ESSEX,-74.22,43.97,0.0,0.0,0.0,1.4
US1NYTM0015,NEWFIELD 2.5 S,NY,TOMPKINS,-76.59,42.32,0.4,3.0,10.6,3.0
US1NYNG0011,NIAGARA FALLS 0.7 WNW,NY,NIAGARA,-79.03,43.1,1.4,16.6,5.1,0.0
US1NYNG0022,NIAGARA FALLS 5.7 E,NY,NIAGARA,-78.9,43.08,0.0,2.0,14.0,11.6
USC00305840,NIAGARA FALLS INT'L AP,NY,NIAGARA,-78.94,43.1,0.0,0.0,0.0,0.0
US1NYSC0016,NISKAYUNA 2.0 N,NY,SCHENECTADY,-73.9,42.85,0.0,2.0,18.0,0.0
US1NYMR0012,NORTH CHILI 0.6 NW,NY,MONROE,-77.82,43.12,0.0,0.0,0.0,0.0
USC00305925,NORTH CREEK 5 SE,NY,WARREN,-73.9,43.66,0.0,0.0,21.0,0.0
USC00306047,NORTH TONAWANDA,NY,NIAGARA,-78.85,43.02,1.5,11.2,7.7,0.0
US1NYNG0002,NORTH TONAWANDA 1.0 NNE,NY,NIAGARA,-78.86,43.06,0.0,2.8,15.2,5.1
US1NYSF0016,NORTHPORT 1.6 NNE,NY,SUFFOLK,-73.33,40.92,0.0,2.2,1.1,0.0
USC00306062,NORTHVILLE,NY,FULTON,-74.2,43.16,0.0,0.0,0.0,0.0
USC00306085,NORWICH,NY,CHENANGO,-75.52,42.51,0.0,4.0,24.0,2.0
US1NYCN0009,NORWICH 5.4 W,NY,CHENANGO,-75.63,42.53,0.0,3.4,26.0,3.1
US1NYAB0021,NWS ALBANY,NY,ALBANY,-73.83,42.69,0.0,3.9,13.9,0.0
USW00094728,NY CITY CENTRAL PARK,NY,NEW YORK,-73.97,40.79,0.0,7.6,0.0,0.0
US1NYSL0010,OGDENSBURG 1.6 SW,NY,ST. LAWRENCE,-75.49,44.69,0.0,0.0,14.5,1.5
USC00306164,OGDENSBURG 4 NE,NY,ST. LAWRENCE,-75.44,44.73,0.0,0.2,11.0,2.5
USC00306196,OLEAN,NY,CATTARAUGUS,-78.45,42.07,0.0,3.0,3.0,3.0
US1NYES0006,OLMSTEDVILLE 4.6 NNE,NY,ESSEX,-73.9,43.83,0.0,0.3,18.7,0.6
US1NYMD0022,ONEIDA 0.4 NW,NY,MADISON,-75.67,43.08,0.6,0.8,27.0,4.1
USC00306300,OSCEOLA,NY,LEWIS,-75.71,43.5,0.0,0.5,20.0,3.0
US1NYOS0003,OSWEGO 5.0 ESE,NY,OSWEGO,-76.41,43.44,0.0,0.0,14.8,9.7
US1NYCN0014,OXFORD 0.8 NNW,NY,CHENANGO,-75.6,42.45,0.0,6.0,31.0,2.0
USC00306376,PALERMO 2SSE,NY,OSWEGO,-76.27,43.33,0.0,0.7,24.0,6.2
US1NYWN0006,PALMYRA 1.6 NW,NY,WAYNE,-77.25,43.08,0.0,1.8,19.5,12.0
US1NYSC0017,PATTERSONVILLE 4.2 SSW,NY,SCHENECTADY,-74.12,42.83,0.0,0.0,0.0,0.0
US1NYWC0011,PEEKSKILL 0.4 N,NY,WESTCHESTER,-73.92,41.29,0.0,8.0,7.0,0.0
US1NYYT0005,PENN YAN 5.1 NNW,NY,YATES,-77.08,42.73,0.0,1.0,7.0,3.0
USC00306525,PERRYSBURG,NY,CATTARAUGUS,-79.0,42.46,0.0,0.0,0.0,0.0
US1NYCL0007,PERU 4.1 ESE,NY,CLINTON,-73.45,44.56,0.0,0.0,23.4,0.2
US1NYCM0017,PINE CITY 3.1 SE,NY,CHEMUNG,-76.83,42.0,0.0,0.0,0.0,0.0
US1NYMR0021,PITTSFORD 4.0 SSE,NY,MONROE,-77.49,43.03,0.0,1.5,19.0,5.0
USC00306649,PLATTE CLOVE,NY,GREENE,-74.09,42.14,0.0,6.7,18.0,0.0
USC00306660,PLATTSBURGH 1 S,NY,CLINTON,-73.46,44.69,0.0,0.0,20.0,0.0
USW00064776,PLATTSBURGH INTERNATIONAL AIRPORT,NY,CLINTON,-73.47,44.65,0.0,0.0,0.0,0.0
US1NYOD0002,POINT ROCK 0.6 SE,NY,ONEIDA,-75.54,43.37,0.8,0.4,12.1,0.7
USC00306774,PORT JERVIS,NY,ORANGE,-74.69,41.39,0.0,9.0,12.0,0.0
USC00306745,PORTAGEVILLE,NY,WYOMING,-78.04,42.57,0.0,0.0,0.0,0.0
USC00306747,PORTLAND1 SW,NY,CHAUTAUQUA,-79.49,42.37,0.2,0.0,0.0,0.0
USC00306820,POUGHKEEPSIE,NY,DUTCHESS,-73.91,41.62,0.0,4.0,21.5,0.0
US1NYDT0010,POUGHKEEPSIE 3.9 SSE,NY,DUTCHESS,-73.9,41.65,0.0,5.7,15.7,0.0
USW00014757,POUGHKEEPSIE AIRPORT,NY,DUTCHESS,-73.88,41.63,0.0,0.0,0.0,0.0
USC00306867,PULASKI,NY,OSWEGO,-76.12,43.57,0.0,14.0,2.0,0.0
US1NYOS0021,PULASKI 0.5 NE,NY,OSWEGO,-76.12,43.57,0.0,0.0,14.0,2.5
US1NYCT0002,RANDOLPH 1.1 ENE,NY,CATTARAUGUS,-78.96,42.17,0.0,2.5,5.5,3.0
US1NYOS0013,REDFIELD 7.9 NNW,NY,OSWEGO,-75.88,43.64,0.0,7.0,11.0,0.0
US1NYAB0010,RENSSELAERVILLE 2.1 NNW,NY,ALBANY,-74.15,42.55,0.0,7.2,17.5,0.3
US1NYOT0009,RICHFIELD SPRINGS 0.5 ESE,NY,OTSEGO,-74.98,42.85,0.3,2.5,29.5,0.5
US1NYSF0002,RIVERHEAD 1.3 SSE,NY,SUFFOLK,-72.67,40.93,0.0,1.8,0.0,0.0
US1NYMR0036,ROCHESTER 3.4 NNW,NY,MONROE,-77.64,43.21,0.0,0.0,0.0,0.0
US1NYMR0047,ROCHESTER 5.0 W,NY,MONROE,-77.71,43.18,0.0,2.9,12.5,3.8
US1NYMR0023,ROCHESTER 5.0 WNW,NY,MONROE,-77.7,43.2,0.0,3.0,12.1,0.0
USW00014768,ROCHESTER GREATER INT'L,NY,MONROE,-77.68,43.12,0.4,16.2,9.9,0.0
US1NYSV0005,ROCK HILL 2.0 NE,NY,SULLIVAN,-74.56,41.63,0.0,8.0,12.2,0.0
US1NYOD0021,ROME 4.8 SSE,NY,ONEIDA,-75.46,43.16,0.0,0.2,22.4,1.8
US1NYSF0024,RONKONKOMA 1.4 WSW,NY,SUFFOLK,-73.15,40.8,0.0,0.0,0.0,0.0
US1NYUL0016,ROSENDALE VILLAGE 1.8 WNW,NY,ULSTER,-74.11,41.86,0.0,7.5,13.5,0.0
US1NYUL0003,ROSENDALE VILLAGE 2.4 NNE,NY,ULSTER,-74.06,41.88,0.0,0.0,0.0,0.0
US1NYUL0004,RUBY 0.5 NE,NY,ULSTER,-74.02,42.02,0.0,0.0,0.0,0.0
USC00307329,RUSHFORD,NY,ALLEGANY,-78.19,42.43,0.0,3.4,3.0,0.4
US1NYFK0007,SARANAC LAKE 6.2 N,NY,FRANKLIN,-74.15,44.41,0.0,0.2,34.3,3.8
USW00094740,SARANAC LAKE ADIRONDACK REGIONAL,NY,FRANKLIN,-74.21,44.39,0.0,0.0,0.0,0.0
US1NYSR0004,SARATOGA SPRINGS 0.5 S,NY,SARATOGA,-73.78,43.06,0.0,0.9,19.0,0.0
US1NYST0010,SAVONA 4.7 S,NY,STEUBEN,-77.22,42.22,0.0,0.0,0.0,0.0
US1NYSC0011,SCHENECTADY 3.3 E,NY,SCHENECTADY,-73.86,42.79,0.0,0.0,0.0,0.0
US1NYAB0006,SCHENECTADY 5.6 SSW,NY,ALBANY,-73.93,42.72,0.0,3.0,17.5,0.0
USC00307520,SCHOHARIE,NY,SCHOHARIE,-74.3,42.67,0.0,4.5,0.0,0.0
US1NYES0005,SCHROON LAKE 3.5 SW,NY,ESSEX,-73.82,43.81,0.0,0.0,22.0,1.3
US1NYSC0002,SCOTIA 1.1 NW,NY,SCHENECTADY,-73.97,42.84,0.0,0.0,0.0,0.0
USC00307705,SHERBURNE,NY,CHENANGO,-75.51,42.68,0.0,1.3,24.0,4.0
USC00307749,SILVER SPRINGS 3N,NY,WYOMING,-78.09,42.71,0.2,2.5,4.7,1.2
USC00307780,SKANEATELES,NY,ONONDAGA,-76.43,42.95,0.0,1.5,18.0,6.0
US1NYSY0001,SMITH VALLEY 1.9 SE,NY,SCHUYLER,-76.72,42.39,0.6,2.4,13.3,1.5
USC00307842,SODUS,NY,WAYNE,-77.08,43.24,0.0,1.3,8.7,0.0
US1NYST0003,SOUTH CORNING 4.7 S,NY,STEUBEN,-77.05,42.06,0.0,3.5,9.3,1.2
US1NYWC0006,SOUTH SALEM 2.1 NW,NY,WESTCHESTER,-73.57,41.3,0.0,5.3,9.3,0.0
US1NYHM0001,SPECULATOR 10.0 SSW,NY,HAMILTON,-74.47,43.45,0.0,0.5,24.0,0.0
USC00308132,SPRINGVILLE 5NE,NY,ERIE,-78.58,42.55,0.0,5.5,5.0,0.1
US1NYGN0006,STAFFORD 1.8 NE,NY,GENESEE,-78.05,43.0,0.1,2.2,7.7,3.6
US1NYRC0002,STATEN ISLAND 1.4 SE,NY,RICHMOND,-74.13,40.57,0.0,3.0,2.0,0.0
US1NYRC0001,STATEN ISLAND 4.5 SSE,NY,RICHMOND,-74.15,40.54,0.0,0.0,5.0,0.0
USC00308248,STILLWATER RESERVOIR,NY,HERKIMER,-75.04,43.9,0.0,0.0,0.0,0.0
US1NYUL0008,STONE RIDGE 4.9 NNW,NY,ULSTER,-74.18,41.92,0.0,9.5,3.0,0.0
US1NYSH0003,SUMMIT 1.3 NNW,NY,SCHOHARIE,-74.59,42.6,0.0,5.0,20.0,0.0
US1NYOG0020,SYRACUSE 1.4 SE,NY,ONONDAGA,-76.12,43.03,0.0,0.0,0.0,0.0
US1NYOG0052,SYRACUSE 2.7 S,NY,ONONDAGA,-76.14,43.0,0.0,1.0,13.0,2.2
USW00014771,SYRACUSE HANCOCK INTL AP,NY,ONONDAGA,-76.1,43.11,0.0,18.9,5.5,0.0
US1NYER0086,TONAWANDA 1.5 NNE,NY,ERIE,-78.87,43.01,0.0,2.0,10.0,0.0
US1NYER0072,TONAWANDA 3.1 NE,NY,ERIE,-78.83,43.01,0.0,0.0,0.0,0.0
USC00308578,TRENTON FALLS,NY,ONEIDA,-75.16,43.28,0.0,0.0,24.0,0.0
USC00308600,TROY LOCK AND DAM,NY,RENSSELAER,-73.68,42.75,0.0,5.0,0.0,1.0
US1NYTM0038,TRUMANSBURG 0.4 WNW,NY,TOMPKINS,-76.67,42.54,0.1,2.3,15.6,1.2
USC00308631,TUPPER LAKE SUNMOUNT,NY,FRANKLIN,-74.44,44.23,0.0,0.0,25.0,1.0
USC00308721,UPTON COOP - NWSFO NEW YORK,NY,SUFFOLK,-72.86,40.87,0.0,2.9,0.1,0.0
US1NYCM0010,VAN ETTEN 0.3 ENE,NY,CHEMUNG,-76.55,42.2,0.0,4.0,0.0,2.2
US1NYWY0007,VARYSBURG 3.1 E,NY,WYOMING,-78.25,42.76,0.0,2.2,14.1,2.3
US1NYOD0011,VERNON 0.4 NNW,NY,ONEIDA,-75.54,43.09,0.7,0.1,23.0,0.0
US1NYBM0040,VESTAL 0.4 SSE,NY,BROOME,-76.05,42.08,0.0,11.0,0.0,0.0
US1NYBM0007,VESTAL 2.8 SSE,NY,BROOME,-76.03,42.05,0.0,0.0,0.0,0.0
US1NYBM0034,VESTAL 3.2 E,NY,BROOME,-75.99,42.08,0.0,0.0,0.0,2.0
US1NYOG0006,VILLAGE GREEN 2.6 ESE,NY,ONONDAGA,-76.27,43.12,0.4,0.3,16.3,3.1
USC00308910,WALES,NY,ERIE,-78.59,42.74,0.2,1.3,8.9,2.9
USC00308932,WALTON 2,NY,DELAWARE,-75.15,42.18,0.0,5.5,26.0,3.5
US1NYDL0024,WALTON 6.5 W,NY,DELAWARE,-75.26,42.17,0.0,6.5,23.6,1.9
US1NYWN0010,WALWORTH 1.7 SW,NY,WAYNE,-77.3,43.12,0.0,2.1,18.9,10.5
US1NYDT0005,WAPPINGERS FALLS 1.6 ESE,NY,DUTCHESS,-73.89,41.59,0.0,8.5,11.0,0.0
USC00308962,WARSAW 6 SW,NY,WYOMING,-78.22,42.69,0.2,2.7,14.0,2.5
US1NYOR0004,WARWICK 3.2 WNW,NY,ORANGE,-74.42,41.27,0.0,0.0,19.0,0.0
USC00308987,WATERLOO,NY,SENECA,-76.86,42.9,0.0,0.0,17.0,0.0
US1NYSY0006,WATKINS GLEN 4.6 NW,NY,SCHUYLER,-76.94,42.42,0.0,2.3,7.0,0.0
USC00309047,WAVERLY,NY,TIOGA,-76.53,42.0,0.0,7.9,8.9,0.0
USC00309049,WEBSTER 2 NE,NY,MONROE,-77.39,43.24,0.0,8.0,6.5,0.0
US1NYMR0026,WEBSTER 3.2 W,NY,MONROE,-77.49,43.21,0.0,0.0,0.0,0.0
US1NYMR0024,WEBSTER 4.4 WNW,NY,MONROE,-77.5,43.25,0.0,0.0,13.0,0.0
USC00309072,WELLSVILLE,NY,ALLEGANY,-77.95,42.12,0.0,2.0,6.0,1.0
US1NYAL0002,WEST ALMOND 3.6 SW,NY,ALLEGANY,-77.94,42.27,0.0,3.2,5.2,0.1
USC00309089,WEST BLOOMFIELD 1 S,NY,ONTARIO,-77.53,42.88,0.1,0.8,7.8,0.0
US1NYRL0005,WEST NYACK 1.3 WSW,NY,ROCKLAND,-73.99,41.08,0.0,6.0,11.0,0.0
US1NYER0113,WEST SENECA 0.4 E,NY,ERIE,-78.74,42.84,0.0,2.5,8.2,3.2
USC00309248,WESTMORELAND 4N,NY,ONEIDA,-75.46,43.16,0.0,0.2,22.4,1.8
US1NYWC0003,WHITE PLAINS 3.1 NNW,NY,WESTCHESTER,-73.77,41.06,0.0,0.0,0.0,0.0
USC00309389,WHITEHALL,NY,WASHINGTON,-73.4,43.56,0.0,0.0,0.0,0.0
US1NYOD0042,WHITESBORO 2.3 SW,NY,ONEIDA,-75.33,43.1,0.3,0.1,30.0,1.0
USC00309425,WHITESVILLE,NY,ALLEGANY,-77.76,42.04,0.0,1.9,5.2,0.3
US1NYBM0014,WHITNEY POINT 1.7 SSE,NY,BROOME,-75.96,42.31,0.0,8.6,23.8,2.5
US1NYBM0010,WHITNEY POINT 3.7 ENE,NY,BROOME,-75.9,42.35,0.0,0.0,0.0,0.0
USC00309442,WHITNEY POINT DAM,NY,BROOME,-75.97,42.34,0.0,5.0,24.0,0.0
US1NYCR0003,WILLET 1.8 E,NY,CORTLAND,-75.87,42.47,0.0,4.6,18.8,1.6
US1NYER0104,WILLIAMSVILLE 2.2 NNW,NY,ERIE,-78.75,42.99,0.0,0.0,0.0,3.0
US1NYER0007,WILLIAMSVILLE 2.7 E,NY,ERIE,-78.69,42.97,0.0,4.5,6.5,5.0
USC00309499,WILMINGTON 2W,NY,ESSEX,-73.86,44.39,0.0,0.2,28.0,2.6
US1NYBM0021,WINDSOR 8.0 SE,NY,BROOME,-75.51,42.01,0.0,8.0,26.5,3.4
US1NYOT0014,WORCESTER 4.0 SSW,NY,OTSEGO,-74.77,42.54,0.0,5.5,27.5,1.5
US1NYSV0008,WURTSBORO 0.2 SSW,NY,SULLIVAN,-74.49,41.57,0.0,11.0,24.0,0.0
USC00309593,WYOMING 3W,NY,WYOMING,-78.15,42.82,0.0,2.4,12.4,3.0
US1NYWC0007,YORKTOWN HEIGHTS 0.6 SW,NY,WESTCHESTER,-73.79,41.26,0.0,7.5,7.5,0.0
USC00309690,YOUNGSTOWN 2 NE,NY,NIAGARA,-79.01,43.27,0.0,4.0,3.5,0.1
US1PAAD0002,ABBOTTSTOWN 2.4 N,PA,ADAMS,-76.99,39.92,0.0,10.0,2.5,0.0
USC00360022,ACMETONIA LOCK 3,PA,ALLEGHENY,-79.82,40.54,0.0,0.0,0.5,0.5
US1PALN0003,ADAMSTOWN 2.5 SSE,PA,LANCASTER,-76.05,40.21,0.0,7.5,4.0,0.0
US1PABR0021,ALBURTIS 4.7 SW,PA,BERKS,-75.67,40.47,0.0,0.0,12.2,0.0
USW00014737,ALLENTOWN LEHIGH VALLEY INTL AP,PA,LEHIGH,-75.45,40.65,1.3,12.4,0.0,0.0
USC00360132,ALTOONA,PA,BLAIR,-78.37,40.52,0.0,5.5,0.0,0.0
USC00360140,ALTOONA 3 W,PA,BLAIR,-78.47,40.49,6.0,0.0,0.0,0.0
USW00014736,ALTOONA BLAIR COUNTY AP,PA,BLAIR,-78.32,40.3,0.0,0.0,0.0,0.0
US1PALZ0025,BEACH HAVEN 0.8 E,PA,LUZERNE,-76.16,41.07,0.0,0.0,0.0,0.0
USC00360457,BEAR GAP,PA,NORTHUMBERLAND,-76.5,40.82,0.0,19.5,0.0,0.0
US1PACN0010,BELLEFONTE 4.3 E,PA,CENTRE,-77.69,40.92,0.0,8.0,8.5,0.5
US1PACM0004,BELMONT 0.1 NE,PA,CAMBRIA,-78.89,40.28,0.0,3.0,0.0,0.0
USC00360560,BELTZVILLE DAM,PA,CARBON,-75.64,40.86,0.0,0.0,0.0,0.5
US1PABR0005,BERNVILLE 1.3 SW,PA,BERKS,-76.13,40.42,0.0,0.0,0.0,0.0
US1PANH0012,BETHLEHEM 1.8 NW,PA,NORTHAMPTON,-75.39,40.65,0.0,0.0,0.0,0.0
USC00360656,BIGLERVILLE,PA,ADAMS,-77.26,39.94,0.0,8.2,4.6,0.0
US1PAAD0055,BIGLERVILLE 0.3 S,PA,ADAMS,-77.25,39.93,0.0,11.0,0.0,0.0
US1PAAD0036,BIGLERVILLE 0.4 SSE,PA,ADAMS,-77.24,39.92,0.0,0.0,0.0,0.0
US1PAAD0047,BIGLERVILLE 2.0 WSW,PA,ADAMS,-77.28,39.91,0.0,9.5,0.0,0.0
US1PAAD0011,BIGLERVILLE 3.0 WSW,PA,ADAMS,-77.3,39.92,0.0,7.8,0.0,0.0
USC00360754,BLOOMSBURG UNIVERSITY,PA,COLUMBIA,-76.45,41.01,0.0,13.0,8.0,0.0
US1PAMT0013,BLUE BELL 2.3 NW,PA,MONTGOMERY,-75.3,40.17,0.0,3.0,0.0,0.0
USC00360785,BLUE MARSH LAKE,PA,BERKS,-76.03,40.38,0.0,0.0,0.0,0.0
US1PAAD0028,BLUE RIDGE SUMMIT 1.6 NNE,PA,ADAMS,-77.45,39.74,0.0,0.0,0.0,0.0
US1PACN0013,BOALSBURG 0.4 E,PA,CENTRE,-77.78,40.77,0.0,7.0,4.5,0.0
US1PACB0012,BOWMANSTOWN 3.0 WSW,PA,CARBON,-75.71,40.78,0.0,15.1,0.0,0.2
USC00360861,BRADDOCK LOCK 2,PA,ALLEGHENY,-79.86,40.39,0.0,0.0,0.1,0.0
USC00360868,BRADFORD 4SW RES 5,PA,MCKEAN,-78.71,41.9,0.0,2.0,4.0,3.0
US1PAAL0001,BRIDGEVILLE 1.4 SW,PA,ALLEGHENY,-80.12,40.34,0.0,0.0,0.7,0.2
US1PAJF0003,BROOKVILLE 5.3 SSW,PA,JEFFERSON,-79.1,41.09,0.0,0.0,0.0,0.0
USC00361139,BUTLER 2 SW,PA,BUTLER,-79.92,40.84,0.0,0.0,1.3,0.3
US1PABT0006,BUTLER 6.6 SW,PA,BUTLER,-79.94,40.77,0.0,0.0,0.6,0.0
US1PAWN0026,CANAAN - 11,PA,WAYNE,-75.36,41.59,0.0,7.1,20.0,1.0
USC00361207,CANADENSIS EAST,PA,MONROE,-75.24,41.19,0.0,10.8,9.0,1.0
USC00361212,CANTON,PA,BRADFORD,-76.85,41.65,0.0,12.0,7.0,0.0
USC00361920,CARLISLE WATER PLANT,PA,CUMBERLAND,-77.19,40.23,0.0,12.0,1.0,0.0
USC00363226,CASHTOWN 1S,PA,ADAMS,-77.35,39.88,0.0,9.0,3.2,0.3
US1PACH0027,CHADDS FORD 3.1 SW,PA,CHESTER,-75.64,39.84,0.0,4.0,0.0,0.0
USC00361350,CHALK HILL 2 ENE,PA,FAYETTE,-79.59,39.85,0.0,1.0,12.0,0.0
USC00361354,CHAMBERSBURG 1 ESE,PA,FRANKLIN,-77.64,39.94,0.0,11.0,0.0,0.0
USC00361362,CHANDLERS VALLEY 1SE,PA,WARREN,-79.3,41.93,0.0,2.0,6.0,7.0
USC00361377,CHARLEROI LOCK 4,PA,WESTMORELAND,-79.9,40.15,0.0,0.0,0.0,1.0
US1PAWN0038,CHERRY RIDGE 13A,PA,WAYNE,-75.27,41.52,0.0,0.0,0.0,0.0
USC00361480,CLARENCE,PA,CENTRE,-77.94,41.05,0.0,3.3,6.0,0.8
USC00361485,CLARION 3 SW,PA,CLARION,-79.44,41.19,0.0,0.0,1.0,0.0
US1PACB0011,COALDALE 1.5 N,PA,CARBON,-75.92,40.84,0.0,6.0,15.0,0.0
USC00361590,COATESVILLE 1E,PA,CHESTER,-75.8,40.0,0.0,5.1,0.0,0.0
US1PAMT0091,COLLEGEVILLE 0.8 NNE,PA,MONTGOMERY,-75.45,40.2,0.0,6.1,0.0,0.0
US1PAMT0012,COLLEGEVILLE 3.0 NE,PA,MONTGOMERY,-75.42,40.22,0.0,0.0,0.0,0.0
USC00361705,CONFLUENCE 1 SW DAM,PA,SOMERSET,-79.37,39.8,0.0,4.0,4.0,2.0
US1PACW0014,CONNEAUT LAKE 1.4 NE,PA,CRAWFORD,-80.29,41.62,0.3,0.0,0.0,0.0
USC00361726,CONNELLSVILLE 2 SSW,PA,FAYETTE,-79.6,40.0,0.0,0.0,0.8,0.0
USC00361737,CONSHOHOCKEN,PA,MONTGOMERY,-75.32,40.07,0.0,3.0,1.5,0.0
US1PALZ0004,CONYNGHAM 3.9 NE,PA,LUZERNE,-76.01,41.03,0.0,10.5,0.0,0.0
USC00361751,COOKSBURG 2 NW,PA,CLARION,-79.22,41.36,0.0,0.2,0.6,0.0
US1PAVN0007,COOPERSTOWN 1.3 E,PA,VENANGO,-79.85,41.5,0.0,0.1,2.9,0.3
USC00361802,COUDERSPORT 1 SW,PA,POTTER,-78.04,41.78,0.0,2.0,5.0,1.0
US1PAPT0005,COUDERSPORT 5.4 SE,PA,POTTER,-77.95,41.71,0.0,6.0,2.0,0.0
USC00361810,COUDERSPORT 7SE,PA,POTTER,-77.97,41.74,0.0,3.0,5.5,0.0
USC00361833,COVINGTON 2 WSW,PA,TIOGA,-77.12,41.74,0.0,4.0,6.0,2.0
USC00361838,COWANESQUE DAM,PA,TIOGA,-77.16,41.99,0.0,2.5,5.0,0.5
USC00362071,DEHART DAM,PA,DAUPHIN,-76.87,40.46,0.0,15.5,3.0,0.0
USC00362183,DONEGAL 2 NW,PA,WESTMORELAND,-79.41,40.13,0.0,2.0,5.0,3.0
USC00362190,DONORA 1 SW,PA,WASHINGTON,-79.87,40.16,0.0,0.0,0.0,1.0
US1PAYR0024,DOVER 2.2 E,PA,YORK,-76.81,40.0,0.0,0.0,0.0,0.0
US1PAYR0002,DOVER 4.2 WSW,PA,YORK,-76.92,39.97,0.0,0.0,0.0,0.0
US1PABK0026,DOYLESTOWN 3.7 W,PA,BUCKS,-75.2,40.31,0.0,5.5,6.5,0.3
USW00004787,DUBOIS JEFFERSON COUNTY AP,PA,JEFFERSON,-78.9,41.18,0.0,0.0,0.0,0.0
US1PALZ0015,DURYEA 0.3 SE,PA,LUZERNE,-75.77,41.35,0.0,13.0,12.8,2.0
USC00362323,DUSHORE,PA,SULLIVAN,-76.4,41.52,0.0,7.0,14.0,1.5
US1PAWN0012,DYBERRY - 19,PA,WAYNE,-75.28,41.6,0.0,9.0,18.0,0.5
US1PAMN0009,EAST STROUDSBURG 6.5 NE,PA,MONROE,-75.08,41.06,0.0,0.0,0.0,0.0
USC00362470,EBENSBURG SEWAGE PL,PA,CAMBRIA,-78.73,40.47,0.0,2.5,2.5,3.0
USC00362574,EMSWORTH L/D OHIO RIVER,PA,ALLEGHENY,-80.08,40.5,0.0,0.0,1.0,0.1
US1PAER0002,ERIE 5.6 SW,PA,ERIE,-80.15,42.06,0.0,4.2,4.8,0.0
USW00014860,ERIE INTL AP,PA,ERIE,-80.18,42.08,1.2,5.3,0.0,0.0
USC00362721,EVERETT,PA,BEDFORD,-78.37,40.01,0.0,8.5,1.0,0.0
US1PABD0006,EVERETT 3.4 SW,PA,BEDFORD,-78.41,39.98,0.0,9.9,1.0,0.0
US1PABD0011,EVERETT 3.9 W,PA,BEDFORD,-78.44,40.02,0.0,9.0,2.0,0.0
US1PABD0001,EVERETT 4.1 S,PA,BEDFORD,-78.36,39.95,0.0,9.0,3.0,0.0
US1PAAD0008,FAIRFIELD 1.0 NNE,PA,ADAMS,-77.36,39.8,0.0,0.0,0.0,0.0
US1PAAD0043,FAIRFIELD 1.8 NNW,PA,ADAMS,-77.38,39.81,0.0,0.0,0.0,0.0
US1PAAD0031,FAIRFIELD 5.2 SE,PA,ADAMS,-77.31,39.73,0.0,0.0,0.0,0.0
US1PAFY0010,FARMINGTON .3 ESE,PA,FAYETTE,-79.56,39.81,0.0,1.6,8.1,1.1
US1PABR0007,FLEETWOOD 2.0 ESE,PA,BERKS,-75.79,40.44,0.0,0.0,14.0,0.0
USC00362942,FORD CITY 4 S DAM,PA,ARMSTRONG,-79.51,40.71,0.0,0.3,0.2,0.0
US1PASS0006,FOREST CITY 0.2 SE,PA,SUSQUEHANNA,-75.47,41.65,0.0,11.5,23.0,0.0
US1PAMT0067,FORT WASHINGTON 0.8 NW,PA,MONTGOMERY,-75.2,40.15,0.0,5.5,1.5,0.0
US1PALZ0024,FORTY FORT 0.4 NNE,PA,LUZERNE,-75.87,41.29,0.0,11.0,15.5,1.5
USC00363018,FRANCIS E WALTER DAM,PA,LUZERNE,-75.73,41.12,0.0,9.0,9.0,4.0
USC00363028,FRANKLIN,PA,VENANGO,-79.83,41.4,0.0,0.0,1.0,0.0
US1PAWS0010,FREDERICKTOWN-MILLSBORO 2.0 N,PA,WASHINGTON,-80.0,40.03,0.0,0.0,0.0,0.0
USC00363130,GALETON,PA,POTTER,-77.65,41.74,0.0,3.0,2.6,0.0
US1PAAD0034,GARDNERS 0.6 SSW,PA,ADAMS,-77.21,40.0,0.0,0.0,0.0,0.0
US1PAAD0033,GARDNERS 1.0 NW,PA,ADAMS,-77.23,40.02,0.0,0.0,0.0,0.0
US1PAAD0005,GETTYSBURG 0.8 NNE,PA,ADAMS,-77.23,39.84,0.0,0.0,0.0,0.0
US1PAAD0012,GETTYSBURG 4.9 SW,PA,ADAMS,-77.29,39.77,0.0,9.2,0.0,0.0
US1PAAD0024,GETTYSBURG 7.1 SSE,PA,ADAMS,-77.2,39.73,0.0,0.0,0.0,0.0
US1PAMT0001,GILBERTSVILLE 0.9 S,PA,MONTGOMERY,-75.61,40.31,0.0,4.1,0.0,0.0
USC00363311,GLEN HAZEL 2 NE DAM,PA,ELK,-78.6,41.56,0.0,1.3,4.2,1.0
US1PAYR0025,GLEN ROCK 4.1 NE,PA,YORK,-76.67,39.83,0.0,0.0,0.0,0.0
USC00363293,GLENCOE,PA,SOMERSET,-78.83,39.83,0.0,8.9,2.3,1.6
USC00363321,GLENMOORE,PA,CHESTER,-75.75,40.1,0.0,5.0,1.3,0.0
USC00363343,GLENWILLARD DASHIELDS LOCK AND  D,PA,ALLEGHENY,-80.22,40.55,0.0,0.0,0.5,0.0
USC00363417,GRAMPIAN 1E,PA,CLEARFIELD,-78.59,40.97,0.0,2.0,4.0,1.4
USC00363437,GRATERFORD 1 E,PA,MONTGOMERY,-75.44,40.23,0.0,4.0,0.0,0.0
USC00363451,GRAYS LANDING,PA,FAYETTE,-79.92,39.78,0.0,0.0,0.5,0.1
USC00363488,GREEN LANE,PA,MONTGOMERY,-75.48,40.34,0.0,5.5,0.5,0.0
US1PAMT0090,GREEN LANE 0.9 ESE,PA,MONTGOMERY,-75.45,40.33,0.0,0.0,0.0,0.0
US1PAFN0001,GREENCASTLE 0.3 SSE,PA,FRANKLIN,-77.73,39.79,0.0,7.5,0.0,0.0
USC00363632,HAMBURG,PA,BERKS,-75.99,40.55,0.0,10.0,5.8,0.0
US1PABR0025,HAMBURG 0.7 NNW,PA,BERKS,-75.99,40.57,0.0,9.5,6.2,0.1
USC00363665,HANOVER 4 SW,PA,ADAMS,-77.03,39.77,0.0,8.0,1.3,0.0
US1PAAD0021,HANOVER 4.2 WNW,PA,ADAMS,-77.06,39.82,0.0,0.0,0.0,0.0
US1PAAD0026,HANOVER 5.4 S,PA,ADAMS,-77.0,39.72,0.0,7.1,0.0,0.0
US1PAMT0007,HARLEYSVILLE 2.1 SW,PA,MONTGOMERY,-75.41,40.26,0.0,4.0,2.5,0.0
US1PAMT0051,HARLEYSVILLE 2.9 S,PA,MONTGOMERY,-75.38,40.24,0.0,0.0,0.0,0.0
US1PAMT0087,HARLEYSVILLE 3.9 WNW,PA,MONTGOMERY,-75.45,40.31,0.0,5.2,2.1,0.0
USC00363698,HARRISBURG 1 NE,PA,DAUPHIN,-76.87,40.28,0.0,13.5,3.5,0.0
US1PADP0015,HARRISBURG 6.0 NE,PA,DAUPHIN,-76.83,40.35,0.0,0.0,0.0,0.0
US1PAMT0006,HATFIELD 0.1 SSW,PA,MONTGOMERY,-75.3,40.28,0.0,0.0,0.0,0.0
US1PAMT0056,HATFIELD 2.0 WSW,PA,MONTGOMERY,-75.33,40.27,0.0,0.0,0.0,0.0
US1PAWN0013,HAWLEY - 15,PA,WAYNE,-75.16,41.5,0.0,6.0,21.0,0.0
USC00363758,HAWLEY 1 E,PA,PIKE,-75.17,41.48,0.0,10.1,12.2,0.0
US1PASM0001,HIDDEN VALLEY 0.3 ENE,PA,SOMERSET,-79.26,40.06,0.0,2.0,14.0,1.5
USC00364214,INDIANA 3 SE,PA,INDIANA,-79.12,40.6,0.0,0.5,1.5,1.0
USC00364325,JAMESTOWN 2 NW,PA,CRAWFORD,-80.47,41.5,0.0,0.0,0.0,0.0
US1PACB0016,JIM THORPE 1.1 NNE,PA,CARBON,-75.73,40.89,0.0,10.8,8.0,1.5
USW00004726,JOHNSTOWN CAMBRIA COUNTY AP,PA,CAMBRIA,-78.83,40.32,0.0,0.0,0.0,0.0
USC00364432,KANE 1NNE,PA,MCKEAN,-78.8,41.68,0.0,0.0,0.0,0.0
US1PACH0028,KENNETT SQUARE 4.1 NNE,PA,CHESTER,-75.69,39.9,0.0,0.0,0.0,0.0
US1PAMT0022,KULPSVILLE 2.6 SSW,PA,MONTGOMERY,-75.35,40.21,0.0,6.0,2.5,0.0
US1PABR0012,KUTZTOWN 2.2 NNE,PA,BERKS,-75.77,40.55,0.0,10.5,3.0,0.0
USC00364763,LANCASTER 2 NE FILT PLANT,PA,LANCASTER,-76.27,40.05,0.0,1.5,7.3,0.0
US1PALN0007,LANCASTER 5.8 WNW,PA,LANCASTER,-76.41,40.06,0.0,0.0,0.0,0.0
US1PABK0018,LANGHORNE 2.8 NE,PA,BUCKS,-74.89,40.21,0.0,0.0,0.0,0.0
USC00364815,LAPORTE,PA,SULLIVAN,-76.49,41.42,0.0,5.5,14.2,2.8
US1PAWT0002,LATROBE 0.6 NW,PA,WESTMORELAND,-79.39,40.32,0.0,0.0,0.0,0.0
USC00364839,LAUREL SUMMIT,PA,SOMERSET,-79.14,40.17,0.0,2.0,6.0,0.0
USC00364896,LEBANON 2 W,PA,LEBANON,-76.47,40.33,2.0,10.5,0.0,0.0
US1PACL0004,LEEPER 0.9 WSW,PA,CLARION,-79.32,41.36,0.0,0.0,0.0,0.0
USC00364934,LEHIGHTON 1SSW,PA,CARBON,-75.7,40.82,0.0,9.0,6.5,0.0
US1PACB0018,LEHIGHTON 3.3 WSW,PA,CARBON,-75.77,40.81,0.0,8.9,6.2,0.0
USC00364976,LEWISBURG,PA,UNION,-76.88,40.95,0.0,7.0,7.0,0.0
USC00364992,LEWISTOWN,PA,MIFFLIN,-77.57,40.59,0.0,10.0,4.0,0.0
US1PAMT0086,LIMERICK 1.0 W,PA,MONTGOMERY,-75.54,40.23,0.0,6.3,0.0,0.0
USC00365050,LINESVILLE 1 S,PA,CRAWFORD,-80.43,41.65,0.0,5.0,6.0,0.0
USC00365109,LOCK HAVEN SEWAGE PLANT,PA,CLINTON,-77.43,41.13,0.0,8.0,6.5,0.0
US1PAWT0014,LOWER BURRELL 1.2 WNW,PA,WESTMORELAND,-79.73,40.59,0.0,0.0,1.1,0.0
USC00365344,MAHANOY CITY 2 N,PA,SCHUYLKILL,-76.14,40.83,0.0,0.0,6.0,0.0
US1PANH0008,MARTINS CREEK 0.2 E,PA,NORTHAMPTON,-75.18,40.78,0.0,5.7,4.7,1.2
US1PAWS0005,MCMURRAY 0.2 NE,PA,WASHINGTON,-80.09,40.28,0.0,0.0,1.3,0.8
US1PACW0002,MEADVILLE 6.7 NW,PA,CRAWFORD,-80.24,41.71,0.4,2.6,3.4,0.2
US1PACD0006,MECHANICSBURG 1.0 NNW,PA,CUMBERLAND,-77.01,40.22,0.0,10.0,5.0,0.0
USC00365686,MEYERSDALE 2 SSW,PA,SOMERSET,-79.04,39.78,0.0,6.0,1.0,0.3
US1PADP0014,MIDDLETOWN 2.9 NW,PA,DAUPHIN,-76.76,40.23,0.0,0.0,0.0,0.0
USW00014711,MIDDLETOWN HARRISBURG INTL AP,PA,DAUPHIN,-76.77,40.2,2.3,14.7,0.2,0.0
USC00365724,MIFFLINBURG 2NW,PA,UNION,-77.07,40.93,0.0,9.3,5.9,0.4
USC00365738,MILANVILLE,PA,WAYNE,-75.06,41.67,0.0,21.0,0.0,0.0
US1PABR0016,MOHNTON 2.8 SSW,PA,BERKS,-76.0,40.25,0.0,8.7,2.6,0.0
US1PABR0028,MOHRSVILLE 2.2 SW,PA,BERKS,-76.01,40.45,0.0,10.4,0.0,0.0
USC00365902,MONTGOMERY LOCK & DAM,PA,BEAVER,-80.39,40.65,0.0,0.0,0.5,0.0
USC00365918,MOON TOWNSHIP,PA,ALLEGHENY,-80.22,40.53,0.0,0.0,2.2,0.8
USC00365956,MORGANTOWN,PA,BERKS,-75.89,40.16,0.0,0.0,0.0,0.0
US1PANM0002,MOUNT CARMEL 1.1 WNW,PA,NORTHUMBERLAND,-76.43,40.8,0.0,8.0,13.5,0.0
US1PAYR0020,MOUNT WOLF 1.0 SE,PA,YORK,-76.69,40.05,0.0,12.7,2.6,0.2
US1PALZ0026,MOUNTAIN TOP 1.0 SW,PA,LUZERNE,-75.91,41.15,0.0,20.8,0.0,0.0
US1PALN0019,MOUNTVILLE 0.5 NW,PA,LANCASTER,-76.44,40.05,0.0,0.0,0.0,0.0
USC00366111,MURRYSVILLE 2 SW,PA,WESTMORELAND,-79.72,40.41,0.0,0.0,1.1,0.0
USC00366151,NATRONA LOCK 4,PA,ALLEGHENY,-79.72,40.61,0.0,0.0,1.0,0.0
USC00366194,NESHAMINY FALLS,PA,BUCKS,-74.96,40.14,0.0,4.0,0.0,0.0
USC00366238,NEW HOLLAND 2 SE,PA,LANCASTER,-76.07,40.08,1.0,8.3,0.1,0.0
US1PASS0016,NEW MILFORD 1.6 SSE,PA,SUSQUEHANNA,-75.71,41.86,0.0,0.0,0.0,0.0
USC00366241,NEW MILFORD 5 W,PA,SUSQUEHANNA,-75.81,41.86,0.0,8.5,13.0,2.0
US1PAAD0045,NEW OXFORD 0.3 WSW,PA,ADAMS,-77.06,39.86,0.0,0.0,0.0,0.0
US1PAAD0030,NEW OXFORD 1.3 SSE,PA,ADAMS,-77.04,39.85,0.0,0.0,0.0,0.0
USC00366289,NEW PARK,PA,YORK,-76.5,39.73,0.0,7.0,0.0,0.0
USC00366310,NEW STANTON 1 SW,PA,WESTMORELAND,-79.63,40.2,0.0,0.0,1.0,0.0
USC00366305,NEWTON RANSOM,PA,LACKAWANNA,-75.82,41.41,0.0,0.0,0.0,0.0
US1PAER0005,NORTH EAST 1.2 WNW,PA,ERIE,-79.86,42.22,0.0,2.1,8.1,0.0
US1PAMT0072,NORTH WALES 1.3 SW,PA,MONTGOMERY,-75.29,40.19,0.0,0.0,0.0,0.0
US1PAMT0016,NORTH WALES 1.3 WSW,PA,MONTGOMERY,-75.3,40.21,0.0,3.5,2.0,0.0
US1PACH0014,NOTTINGHAM 1.5 SW,PA,CHESTER,-76.05,39.74,0.0,4.0,2.0,0.0
USC00366508,OCTORARO LAKE,PA,LANCASTER,-76.05,39.8,0.0,7.0,0.0,0.0
US1PABR0019,OLEY 1.9 E,PA,BERKS,-75.75,40.39,0.0,7.3,0.8,0.0
US1PAWN0037,OREGON - 23,PA,WAYNE,-75.22,41.62,0.0,0.0,0.0,0.0
US1PAAD0048,ORRTANNA 0.3 W,PA,ADAMS,-77.37,39.84,0.0,0.0,0.0,0.0
US1PAAD0035,ORRTANNA 1.6 NE,PA,ADAMS,-77.34,39.86,0.0,0.0,0.0,0.0
US1PAAD0006,ORRTANNA 3.2 NNW,PA,ADAMS,-77.38,39.89,0.0,0.0,0.0,0.0
US1PAAD0054,ORRTANNA 5.7 NNW,PA,ADAMS,-77.4,39.92,0.0,0.0,0.0,0.0
US1PASC0003,ORWIGSBURG 1.9 W,PA,SCHUYLKILL,-76.14,40.66,0.0,0.0,0.0,0.0
USC00366649,OSWAYO 1 ENE,PA,POTTER,-78.01,41.92,0.0,3.0,3.0,1.6
US1PACB0004,PALMERTON 5.8 ENE,PA,CARBON,-75.52,40.84,0.0,9.5,3.0,1.0
US1PAAL0009,PATHFINDER,PA,ALLEGHENY,-80.05,40.34,0.0,0.0,2.5,0.0
US1PADP0006,PAXTONIA 1.7 E,PA,DAUPHIN,-76.76,40.31,0.0,15.0,3.0,1.0
US1PABK0013,PENNDEL 1.1 WSW,PA,BUCKS,-74.93,40.15,0.0,6.0,2.0,0.0
US1PAMT0092,PENNSBURG 1.6 SSW,PA,MONTGOMERY,-75.51,40.37,0.0,5.0,0.0,0.0
US1PABK0005,PERKASIE 1.6 SSE,PA,BUCKS,-75.29,40.35,0.0,0.0,0.0,0.0
US1PAMT0076,PERKIOMENVILLE 4.6 SW,PA,MONTGOMERY,-75.55,40.28,0.0,0.0,0.0,0.0
US1PAPH0004,PHILADELPHIA 4.7 NE,PA,PHILADELPHIA,-75.08,40.06,0.0,3.0,0.0,0.0
USC00366886,PHILADELPHIA FRANKLIN INSTITUTE,PA,PHILADELPHIA,-75.17,39.96,0.0,4.0,4.0,0.0
USW00013739,PHILADELPHIA INTL AP,PA,PHILADELPHIA,-75.23,39.87,1.2,4.8,0.0,0.0
USC00366921,PHILIPSBURG 2 S,PA,CENTRE,-78.22,40.87,0.0,3.1,3.6,0.2
US1PACH0035,PHOENIXVILLE 2.9 W,PA,CHESTER,-75.57,40.14,0.0,6.7,0.0,0.0
USC00366955,PINE GROVE FURNACE,PA,CUMBERLAND,-77.3,40.03,0.0,0.0,0.0,0.0
USW00094823,PITTSBURGH ASOS,PA,ALLEGHENY,-80.21,40.48,0.0,1.2,1.8,0.0
USC00367029,PLEASANT MOUNT 1 W,PA,WAYNE,-75.45,41.74,0.0,0.0,0.0,0.0
US1PAFY0002,POINT MARION 1.0 SE,PA,FAYETTE,-79.89,39.72,0.0,0.2,1.4,0.0
USC00367073,POINT MARION LOCK 8,PA,GREENE,-79.91,39.73,0.0,0.0,0.0,0.0
USC00367103,PORT ALLEGANY,PA,MCKEAN,-78.29,41.82,0.0,2.1,2.0,3.1
US1PACN0018,PORT MATILDA 2.2 ESE,PA,CENTRE,-78.01,40.79,0.0,4.5,4.5,1.1
USC00367167,PRINCE GALLITZIN ST PARK,PA,CAMBRIA,-78.56,40.65,0.0,1.9,2.4,0.5
US1PAWN0035,PROMPTON - 25,PA,WAYNE,-75.34,41.58,0.0,0.0,0.0,0.0
USC00367186,PROMPTON DAM,PA,WAYNE,-75.33,41.59,0.0,7.0,23.0,0.0
USC00367229,PUTNEYVILLE 2 SE DAM,PA,ARMSTRONG,-79.28,40.92,0.0,0.5,0.5,0.0
US1PABD0005,RAINSBURG 5.0 NNW,PA,BEDFORD,-78.56,39.96,0.0,10.3,0.0,0.0
US1PABD0004,RAINSBURG 9.0 SSE,PA,BEDFORD,-78.43,39.78,0.0,9.5,1.0,0.0
US1PABR0008,READING 1.2 SW,PA,BERKS,-75.94,40.33,0.0,0.0,0.0,0.0
US1PABR0017,READING 3.5 NNW,PA,BERKS,-75.94,40.39,0.0,0.0,0.0,0.0
US1PABR0002,READING 3.5 SW,PA,BERKS,-75.99,40.32,0.0,9.0,2.8,0.0
US1PABR0029,READING 4.7 WSW,PA,BERKS,-76.01,40.31,0.0,9.0,3.0,0.0
USW00014712,READING SPAATZ FIELD,PA,BERKS,-75.97,40.37,0.0,2.0,0.0,0.0
USC00367409,RENOVO,PA,CLINTON,-77.74,41.33,0.0,2.5,3.5,0.5
USC00367477,RIDGWAY,PA,ELK,-78.75,41.42,0.0,1.0,1.0,1.0
US1PAAL0039,ROBINSON TOWNSHIP 2.2 WNW,PA,ALLEGHENY,-80.17,40.47,0.0,0.0,0.0,0.0
US1PAPH0002,ROCKLEDGE 1.3 SE,PA,PHILADELPHIA,-75.07,40.07,0.0,3.5,0.0,0.0
US1PAPT0002,ROULETTE 1.8 NNE,PA,POTTER,-78.14,41.81,0.0,2.0,5.5,0.5
USC00367732,SAFE HARBOR DAM,PA,LANCASTER,-76.39,39.9,0.0,6.0,1.0,0.0
USC00367782,SALINA 3 W,PA,WESTMORELAND,-79.55,40.51,0.0,0.0,1.0,2.0
US1PALN0013,SALUNGA-LANDISVILLE 1.1 SSE,PA,LANCASTER,-76.41,40.08,0.0,8.5,1.0,0.0
US1PAMR0011,SANDY LAKE 1.8 ENE,PA,MERCER,-80.05,41.35,0.0,0.0,2.0,0.7
US1PAMN0011,SAYLORSBURG 2.7 ENE,PA,MONROE,-75.37,40.9,0.0,0.0,0.0,1.0
US1PAMN0013,SAYLORSBURG 2.8 W,PA,MONROE,-75.37,40.9,0.0,8.1,5.8,1.9
US1PAMN0014,SAYLORSBURG 4.0 W,PA,MONROE,-75.4,40.89,0.0,8.6,11.6,0.0
US1PABF0014,SAYRE 2.8 WNW,PA,BRADFORD,-76.57,42.0,0.0,0.0,0.0,0.0
US1PABD0007,SCHELLSBURG 2.6 WNW,PA,BEDFORD,-78.69,40.07,0.0,8.0,8.0,0.0
USC00367863,SCHENLEY LOCK 5,PA,ARMSTRONG,-79.67,40.68,0.0,0.0,0.1,1.0
US1PALH0017,SCHNECKSVILLE 1.7 ENE,PA,LEHIGH,-75.59,40.68,0.0,8.5,5.5,0.0
US1PALH0005,SCHNECKSVILLE 2.7 SW,PA,LEHIGH,-75.65,40.65,0.0,8.0,6.0,0.5
US1PAAL0031,SCOTT TOWNSHIP 1.3 NW,PA,ALLEGHENY,-80.1,40.4,0.0,0.0,0.0,0.0
US1PALC0017,SCRANTON 1.5 ESE,PA,LACKAWANNA,-75.64,41.39,0.0,0.0,0.0,0.0
US1PALC0022,SCRANTON 1.6 NNE,PA,LACKAWANNA,-75.65,41.42,0.0,10.4,17.3,2.1
USC00367931,SELINSGROVE 2 S,PA,SNYDER,-76.86,40.78,0.0,8.4,8.6,0.0
US1PASN0002,SELINSGROVE 2.6 WNW,PA,SNYDER,-76.91,40.82,0.0,8.9,8.9,0.0
USC00367938,SELLERSVILLE,PA,BUCKS,-75.32,40.36,0.0,6.1,1.7,0.0
US1PAVN0005,SENECA 0.7 NNE,PA,VENANGO,-79.7,41.38,0.0,0.0,2.0,0.0
USC00368073,SHIPPENSBURG,PA,CUMBERLAND,-77.52,40.06,1.0,9.6,0.2,0.0
US1PAMT0020,SKIPPACK 1.4 SSW,PA,MONTGOMERY,-75.41,40.2,0.0,0.0,0.0,0.0
US1PAMT0085,SKIPPACK 2.6 ESE,PA,MONTGOMERY,-75.36,40.2,0.0,4.5,2.5,0.0
USC00368184,SLIPPERY ROCK 1 SSW,PA,BUTLER,-80.06,41.06,0.0,0.0,1.8,0.1
USC00368244,SOMERSET,PA,SOMERSET,-79.08,40.0,0.0,3.2,4.0,1.5
US1PAAL0003,SOUTH FAYETTE 2 SE,PA,ALLEGHENY,-80.12,40.34,0.0,0.0,0.0,0.0
USC00368308,SOUTH MOUNTAIN,PA,FRANKLIN,-77.48,39.86,0.0,0.0,1.5,0.0
USC00368361,SPRINGBORO 3 WNW,PA,CRAWFORD,-80.42,41.82,0.3,4.0,9.8,0.2
USC00368400,SPRINGTOWN 1 NNE,PA,BUCKS,-75.28,40.57,0.0,7.3,7.7,0.0
US1PAEL0001,ST. MARYS 1.7 SE,PA,ELK,-78.53,41.41,0.6,1.1,1.4,2.9
US1PASS0012,STANFORDVILLE 0.4 SE,PA,SUSQUEHANNA,-75.83,41.95,0.0,4.7,24.0,3.0
US1PAWN0010,STARRUCCA - 27,PA,WAYNE,-75.47,41.9,0.0,0.0,27.0,0.0
USC00368449,STATE COLLEGE,PA,CENTRE,-77.87,40.79,0.0,6.3,3.8,0.0
US1PACN0003,STATE COLLEGE 2.4 ENE,PA,CENTRE,-77.82,40.81,0.0,7.5,2.1,0.1
US1PACN0005,STATE COLLEGE 2.6 NW,PA,CENTRE,-77.9,40.82,0.0,6.5,2.2,0.3
US1PAWN0004,STERLING - 22,PA,WAYNE,-75.45,41.28,0.0,11.5,15.5,0.5
USC00368469,STEVENSON DAM,PA,CAMERON,-78.02,41.4,0.0,2.2,3.5,0.0
USC00368596,STROUDSBURG,PA,MONROE,-75.19,41.01,0.7,0.0,0.0,0.0
US1PAMN0007,STROUDSBURG 5.1 W,PA,MONROE,-75.3,40.99,0.0,0.0,0.0,0.0
USC00368668,SUNBURY,PA,NORTHUMBERLAND,-76.79,40.85,0.0,12.5,7.0,0.0
USC00368692,SUSQUEHANNA,PA,SUSQUEHANNA,-75.6,41.95,0.0,7.0,19.0,2.2
USC00368763,TAMAQUA 4 N DAM,PA,SCHUYLKILL,-76.0,40.85,0.0,15.0,2.0,0.0
US1PAJF0002,TIMBLIN 0.1 S,PA,JEFFERSON,-79.2,40.96,0.0,0.5,1.5,0.0
USC00368868,TIOGA HAMMOND DAM,PA,TIOGA,-77.14,41.9,0.0,3.0,5.0,0.0
USC00368873,TIONESTA 2 SE LAKE,PA,FOREST,-79.44,41.48,0.0,0.4,1.0,1.0
US1PAFR0001,TIONESTA 7.3 SSE,PA,FOREST,-79.41,41.39,0.5,2.0,1.0,0.0
US1PAVN0011,TITUSVILLE 6.3 SW,PA,VENANGO,-79.76,41.57,0.0,0.2,3.4,0.5
USC00368888,TITUSVILLE WATER WORKS,PA,CRAWFORD,-79.69,41.63,0.0,1.0,3.0,2.0
USC00368905,TOWANDA 1 S,PA,BRADFORD,-76.44,41.75,0.0,9.3,18.8,1.4
US1PABF0006,TOWANDA 4.6 NNE,PA,BRADFORD,-76.42,41.84,0.0,17.0,11.0,3.0
US1PAWY0002,TUNKHANNOCK 4.0 NW,PA,WYOMING,-76.01,41.58,0.0,0.0,0.0,0.0
US1PAWY0001,TUNKHANNOCK 4.2 NNW,PA,WYOMING,-75.97,41.6,0.0,24.0,1.0,0.0
USC00369022,TYRONE,PA,BLAIR,-78.22,40.66,0.0,4.0,0.0,0.0
US1PAFY0009,UNIONTOWN 1.7 NNE,PA,FAYETTE,-79.71,39.92,0.0,1.0,0.5,0.0
US1PACH0011,UNIONVILLE 2.2 NE,PA,CHESTER,-75.7,39.92,0.0,7.0,0.0,0.0
US1PAYR0008,VALLEY GREEN 0.8 ENE,PA,YORK,-76.78,40.16,0.0,8.5,11.0,0.0
US1PAWS0008,VENETIA 0.7 WNW,PA,WASHINGTON,-80.05,40.25,0.0,0.0,0.0,0.0
USC00369270,WARFORDSBURG 2W,PA,FULTON,-78.24,39.77,0.0,8.0,3.0,0.0
USC00369298,WARREN,PA,WARREN,-79.15,41.85,0.0,0.6,3.0,5.3
USC00369367,WAYNESBURG 1 E,PA,GREENE,-80.17,39.9,0.0,0.0,0.3,0.1
USC00369408,WELLSBORO 4 SW,PA,TIOGA,-77.39,41.7,0.0,2.8,4.3,0.4
US1PABR0009,WERNERSVILLE 0.5 ESE,PA,BERKS,-76.07,40.33,0.0,0.0,0.0,0.0
US1PACH0021,WEST CHESTER 1.8 SE,PA,CHESTER,-75.58,39.94,0.0,4.0,1.9,0.0
USC00369464,WEST CHESTER 2 NW,PA,CHESTER,-75.64,39.97,0.0,5.0,0.0,0.0
US1PACH0009,WEST CHESTER 2.4 SSE,PA,CHESTER,-75.6,39.93,0.0,4.5,0.5,0.0
US1PACH0023,WEST GROVE 2.6 W,PA,CHESTER,-75.88,39.82,0.0,0.0,5.5,0.0
US1PALZ0006,WEST HAZLETON 3.2 NNE,PA,LUZERNE,-76.0,41.02,0.5,19.5,0.7,0.0
US1PALZ0023,WHITE HAVEN 1.5 NW,PA,LUZERNE,-75.8,41.07,0.0,0.0,0.0,0.0
US1PALZ0022,WILKES-BARRE 5.2 SE,PA,LUZERNE,-75.81,41.19,0.0,13.5,19.0,3.0
USW00014777,WILKES-BARRE SCRANTON INTL AP,PA,LUZERNE,-75.73,41.33,0.3,22.1,1.5,0.0
USC00369714,WILLIAMSBURG,PA,BLAIR,-78.2,40.47,0.0,7.0,0.0,0.0
US1PALY0002,WILLIAMSPORT 2.0 NE,PA,LYCOMING,-77.01,41.26,0.0,14.8,2.5,0.0
USW00014778,WILLIAMSPORT REGIONAL AP,PA,LYCOMING,-76.92,41.24,0.0,18.3,0.1,0.0
USC00369823,WOLFSBURG,PA,BEDFORD,-78.53,40.04,0.0,9.2,1.8,0.4
US1PABF0005,WYALUSING 2.8 SSW,PA,BRADFORD,-76.27,41.63,0.0,7.0,26.0,7.0
US1PAMT0089,WYNCOTE 0.3 ENE,PA,MONTGOMERY,-75.14,40.09,0.0,6.0,0.0,0.0
US1PAPH0006,WYNDMOOR 3.0 SSW,PA,PHILADELPHIA,-75.22,40.05,0.0,0.0,0.0,0.0
USC00369900,WYOMING COUNTY EOC,PA,WYOMING,-75.93,41.54,0.0,10.0,12.0,0.0
US1PABR0014,WYOMISSING 0.3 SW,PA,BERKS,-75.97,40.33,0.0,0.0,0.0,0.0
US1PAYR0017,YORK 2.5 NNW,PA,YORK,-76.75,40.0,0.0,7.0,4.0,0.0
USC00369950,YORK HAVEN,PA,YORK,-76.71,40.11,0.0,8.0,7.0,0.2
US1PAAD0003,YORK SPRINGS 0.7 SE,PA,ADAMS,-77.11,40.0,0.0,11.5,4.6,0.0
USC00371874,COVENTRY,RI,KENT,-71.59,41.7,0.0,0.0,0.0,0.0
USC00371875,COVENTRY 2,RI,KENT,-71.56,41.67,0.0,0.0,7.0,0.0
US1RIPR0017,CRANSTON 4.1 E,RI,PROVIDENCE,-71.4,41.78,0.0,0.5,7.0,0.0
US1RIKN0002,EAST GREENWICH 2.3 ESE,RI,KENT,-71.42,41.66,0.0,0.5,4.5,0.0
US1RIPR0033,GREENVILLE 0.7 NNW,RI,PROVIDENCE,-71.56,41.89,0.0,1.0,8.3,0.0
US1RIWS0001,HOPE VALLEY 3.7 S,RI,WASHINGTON,-71.72,41.46,0.0,0.0,0.0,0.0
USC00374266,KINGSTON,RI,WASHINGTON,-71.54,41.49,0.0,0.0,0.0,0.0
US1RINW0007,LITTLE COMPTON 0.6 E,RI,NEWPORT,-71.16,41.51,0.0,0.0,0.0,0.0
US1RINW0005,LITTLE COMPTON 1.7 NW,RI,NEWPORT,-71.19,41.53,0.0,0.0,0.0,0.0
US1RINW0004,MIDDLETOWN 1.1 SW,RI,NEWPORT,-71.3,41.53,0.0,0.0,4.0,0.0
USW00014765,PROVIDENCE,RI,KENT,-71.43,41.72,0.0,3.3,0.0,0.0
US1RIPR0032,PROVIDENCE 2.3 NE,RI,PROVIDENCE,-71.39,41.84,0.0,0.5,5.5,0.0
US1RIWS0025,ROCKVILLE 0.4 E,RI,WASHINGTON,-71.75,41.52,0.0,0.0,3.5,0.0
USC00377581,TIVERTON,RI,NEWPORT,-71.21,41.63,0.0,3.8,0.0,0.0
US1RINW0011,TIVERTON 0.8 SSW,RI,NEWPORT,-71.21,41.64,0.0,0.0,0.0,0.0
USC00379423,WOONSOCKET,RI,PROVIDENCE,-71.49,41.98,0.0,0.5,10.0,0.0
USC00440021,ABINGDON 3S,VA,WASHINGTON,-81.96,36.67,0.0,0.0,0.0,0.0
US1VAAB0006,AFTON 5.4 ESE,VA,ALBEMARLE,-78.74,38.01,0.0,0.0,0.0,0.0
USC00440079,ALBERTA 5N,VA,BRUNSWICK,-77.9,36.94,0.0,0.0,0.0,0.0
US1VAFX0063,ALEXANDRIA 5.6 SSW,VA,FAIRFAX,-77.09,38.73,0.0,2.3,0.0,0.0
USC00440243,APPOMATTOX,VA,APPOMATTOX,-78.83,37.33,0.0,0.0,0.0,0.0
US1VAAR0008,ARLINGTON 0.3 E,VA,ARLINGTON,-77.1,38.88,0.0,0.0,0.0,0.0
USC00440327,ASHLAND,VA,HANOVER,-77.48,37.75,0.0,0.1,0.0,0.0
USW00093775,ASHLAND HANOVER COUNTY MUNICIPAL,VA,HANOVER,-77.43,37.71,0.0,0.0,0.0,0.0
US1VAHV0006,BEAVERDAM 4.3 ESE,VA,HANOVER,-77.59,37.91,0.0,0.2,0.0,0.0
USC00440561,BEDFORD 4 NW,VA,BEDFORD,-79.56,37.38,0.0,0.0,0.0,0.0
US1VACK0002,BERRYVILLE 0.9 NNW,VA,CLARKE,-77.99,39.16,0.0,6.0,0.0,0.0
US1VAMN0006,BLACKSBURG 0.4 N,VA,MONTGOMERY,-80.43,37.24,0.0,1.0,0.0,0.0
US1VAMN0024,BLACKSBURG 1.3 ESE,VA,MONTGOMERY,-80.41,37.23,0.0,1.1,0.0,0.0
US1VAMN0025,BLACKSBURG 1.6 NNE,VA,MONTGOMERY,-80.42,37.25,0.0,1.0,0.0,0.0
US1VAMN0013,BLACKSBURG 1.7 ESE,VA,MONTGOMERY,-80.4,37.22,0.0,0.0,0.0,0.0
US1VAMN0021,BLACKSBURG 2.4 ENE,VA,MONTGOMERY,-80.39,37.25,0.0,1.0,0.2,0.0
US1VAMN0022,BLACKSBURG 4.3 WSW,VA,MONTGOMERY,-80.5,37.22,0.0,1.8,0.0,0.0
US1VAMN0009,BLACKSBURG 5.0 W,VA,MONTGOMERY,-80.52,37.22,0.0,1.5,0.0,0.0
USC00440766,BLACKSBURG NWSO,VA,MONTGOMERY,-80.41,37.2,0.0,0.0,0.0,0.0
US1VAFR0006,BOONES MILL 12.6 E,VA,FRANKLIN,-79.72,37.14,0.0,0.0,0.0,0.0
US1VAFR0015,BOONES MILL 5.5 E,VA,FRANKLIN,-79.85,37.13,0.0,0.0,0.0,0.0
US1VABR0002,BRACEY 6.0 ESE,VA,BRUNSWICK,-78.04,36.57,0.0,0.0,0.0,0.0
USC00440993,BREMO BLUFF,VA,FLUVANNA,-78.29,37.71,0.0,0.0,0.0,0.0
US1VAWH0005,BRISTOL 6.7 W,VA,WASHINGTON,-82.29,36.6,0.0,0.0,0.0,0.0
US1VAFQ0013,BROAD RUN 2.8 SSW,VA,FAUQUIER,-77.73,38.78,0.0,4.5,0.0,0.0
USC00441082,BROOKNEAL,VA,CAMPBELL,-78.95,37.07,0.0,0.0,0.0,0.0
USC00441136,BUCKINGHAM,VA,BUCKINGHAM,-78.53,37.51,0.0,0.0,0.0,0.0
USC00441159,BUENA VISTA,VA,ROCKBRIDGE,-79.36,37.73,0.0,1.0,0.0,0.0
USC00441209,BURKES GARDEN,VA,TAZEWELL,-81.34,37.09,0.0,1.4,4.0,0.0
US1VARN0001,CAVE SPRING 2.4 SSW,VA,ROANOKE,-80.02,37.19,0.0,0.0,0.0,0.0
USC00441593,CHARLOTTESVILLE 2W,VA,ALBEMARLE,-78.52,38.03,0.0,0.7,0.0,0.0
US1VAAB0010,CHARLOTTESVILLE 8.4 W,VA,ALBEMARLE,-78.64,38.02,0.0,0.0,0.0,0.0
USC00441614,CHATHAM,VA,PITTSYLVANIA,-79.41,36.82,0.0,0.0,0.0,0.0
US1VACSC004,CHESAPEAKE 9.8 NW,VA,CHESAPEAKE,-76.41,36.79,0.0,0.0,0.0,0.0
US1VACS0021,CHESTERFIELD 3.2 SSW,VA,CHESTERFIELD,-77.53,37.33,0.0,0.0,0.0,0.0
US1VACS0020,CHESTERFIELD 8.5 WSW,VA,CHESTERFIELD,-77.64,37.33,0.0,0.0,0.0,0.0
US1VAAC0010,CHINCOTEAGUE 1.3 SSW,VA,ACCOMACK,-75.37,37.93,0.0,0.0,0.0,0.0
USC00441692,CHRISTIANSBURG,VA,MONTGOMERY,-80.4,37.13,0.0,1.0,0.0,0.0
US1VAMN0005,CHRISTIANSBURG 1.1 ESE,VA,MONTGOMERY,-80.38,37.14,0.0,0.4,0.0,0.0
US1VAMN0004,CHRISTIANSBURG 1.7 WNW,VA,MONTGOMERY,-80.43,37.15,0.0,0.7,0.0,0.0
US1VAMN0010,CHRISTIANSBURG 2.9 NW,VA,MONTGOMERY,-80.44,37.17,0.0,0.0,0.0,0.0
USC00441746,CLARKSVILLE,VA,MECKLENBURG,-78.55,36.62,0.0,0.0,0.0,0.0
USC00441825,CLINTWOOD 1 W,VA,DICKENSON,-82.49,37.15,0.0,0.0,2.0,0.0
USC00441955,CONCORD 4 SSW,VA,CAMPBELL,-78.96,37.28,0.0,0.0,0.0,0.0
USC00441999,COPPER HILL,VA,FLOYD,-80.14,37.09,0.0,0.0,1.1,0.0
US1VAFL0002,COPPER HILL 6.2 S,VA,FLOYD,-80.13,36.99,0.0,0.0,0.0,0.0
USC00442009,CORBIN,VA,CAROLINE,-77.37,38.2,0.0,0.5,0.0,0.0
US1VAAL0003,COVINGTON 4.1 E,VA,ALLEGHANY,-79.92,37.78,0.0,2.0,0.0,0.0
USC00442044,COVINGTON FILTER PLANT,VA,ALLEGHANY,-79.99,37.81,0.0,1.5,0.0,0.0
USC00442142,CROZIER,VA,GOOCHLAND,-77.88,37.67,0.0,0.0,0.0,0.0
USC00442208,DALE ENTERPRISE,VA,ROCKINGHAM,-78.94,38.45,0.0,2.5,0.0,0.0
USW00013728,DANVILLE REGIONAL AIRPORT,VA,PITTSYLVANIA,-79.34,36.57,0.0,0.0,0.0,0.0
US1VAPC0005,DISPUTANTA 6.3 NE,VA,PRINCE GEORGE,-77.15,37.19,0.0,0.0,0.0,0.0
US1VACM0012,EVINGTON 2.2 NE,VA,CAMPBELL,-79.26,37.26,0.0,0.0,0.0,0.0
US1VAFX0064,FALLS CHURCH 1.6 W,VA,FAIRFAX,-77.2,38.89,0.0,3.3,0.0,0.0
US1VAPN0002,FARMVILLE 1.0 SSW,VA,PRINCE EDWARD,-78.4,37.28,0.0,0.0,0.0,0.0
US1VAFR0019,FERRUM 1.9 SSW,VA,FRANKLIN,-80.03,36.9,0.0,0.0,0.0,0.0
US1VAFR0026,FERRUM 2.7 SW,VA,FRANKLIN,-80.05,36.9,0.0,0.0,0.0,0.0
US1VABT0002,FINCASTLE 1.9 NNW,VA,BOTETOURT,-79.88,37.53,0.0,0.1,0.0,0.0
US1VAFL0009,FLOYD 5.2 NW,VA,FLOYD,-80.39,36.96,0.0,0.7,0.0,0.0
US1VAFX0033,FRANCONIA 1.3 SSE,VA,FAIRFAX,-77.14,38.75,0.0,2.0,0.0,0.0
US1VASP0002,FREDERICKSBURG 5.2 SSW,VA,SPOTSYLVANIA,-77.51,38.23,0.0,1.0,0.0,0.0
US1VASF0005,FREDERICKSBURG 7.6 ESE,VA,STAFFORD,-77.36,38.26,0.0,0.8,0.1,0.0
USC00443229,FRONT ROYAL,VA,WARREN,-78.18,38.9,0.0,5.0,0.0,0.0
US1VAPW0009,GAINESVILLE 1.6 SE,VA,PRINCE WILLIAM,-77.6,38.77,0.0,2.9,0.0,0.0
US1VACR0003,GALAX 6.1 N,VA,CARROLL,-80.92,36.75,0.0,0.5,0.3,0.0
USC00443272,GALAX WATER PLANT,VA,CARROLL,-80.92,36.65,0.0,0.0,0.0,0.0
US1VASC0001,GATE CITY 6.2 NNE,VA,SCOTT,-82.54,36.72,0.0,0.0,0.5,0.0
USC00443310,GATHRIGHT DAM,VA,ALLEGHANY,-79.95,37.95,0.0,2.8,0.0,0.0
US1VACM0003,GLADYS 0.6 S,VA,CAMPBELL,-79.07,37.15,0.0,0.0,0.0,0.0
USC00443375,GLASGOW 1 SE,VA,ROCKBRIDGE,-79.44,37.62,0.0,0.4,0.0,0.0
US1VAHR0006,GLEN ALLEN 4.6 W,VA,HENRICO,-77.57,37.66,0.0,0.0,0.0,0.0
US1VAGC0003,GLOUCESTER COURTHOUSE 0.5 NW,VA,GLOUCESTER,-76.53,37.42,0.0,0.0,0.0,0.0
US1VAGC0004,GLOUCESTER COURTHOUSE 3.5 NNW,VA,GLOUCESTER,-76.54,37.46,0.0,0.0,0.0,0.0
US1VABD0020,GOODVIEW 1.7 NNE,VA,BEDFORD,-79.72,37.24,0.0,0.0,0.0,0.0
US1VALS0004,GORDONSVILLE 10.4 S,VA,LOUISA,-78.21,37.99,0.0,0.0,0.0,0.0
US1VAAC0008,GREENBACKVILLE 0.4 WNW,VA,ACCOMACK,-75.4,38.01,0.0,0.0,0.0,0.0
USC00443640,GRUNDY,VA,BUCHANAN,-82.09,37.28,0.0,0.0,0.3,0.0
US1VAHMC004,HAMPTON 7.2 W,VA,HAMPTON,-76.42,37.05,0.0,0.0,0.0,0.0
US1VAHMC007,HAMPTON 8.1 W,VA,HAMPTON,-76.44,37.06,0.0,0.0,0.0,0.0
US1VAFR0002,HARDY 5.7 SE,VA,FRANKLIN,-79.73,37.18,0.0,0.0,0.0,0.0
US1VAFR0014,HARDY 7.1 SE,VA,FRANKLIN,-79.72,37.16,0.0,0.0,0.0,0.0
US1VAFR0013,HARDY 7.8 SE,VA,FRANKLIN,-79.71,37.15,0.0,0.0,0.0,0.0
US1VARH0004,HARRISONBURG 0.8 NW,VA,ROCKINGHAM,-78.89,38.44,3.0,0.0,0.0,0.0
US1VARH0003,HARRISONBURG 4.2 SSE,VA,ROCKINGHAM,-78.84,38.38,0.0,0.0,0.0,0.0
US1VAPW0015,HAYMARKET 5.5 N,VA,PRINCE WILLIAM,-77.62,38.89,0.0,3.5,0.0,0.0
US1VAFX0001,HERNDON 3.3 S,VA,FAIRFAX,-77.38,38.92,0.0,1.5,0.2,0.0
USC00444039,HOLCOMB ROCK,VA,BEDFORD,-79.4,37.54,0.0,0.0,0.0,0.0
USC00444101,HOPEWELL,VA,PRINCE GEORGE,-77.28,37.3,0.0,0.0,0.0,0.0
USC00444128,HOT SPRINGS,VA,BATH,-79.83,38.0,0.0,3.0,0.0,0.0
USC00444148,HUDDLESTON 4 SW,VA,BEDFORD,-79.53,37.13,0.0,0.0,0.0,0.0
US1VAGR0003,INDEPENDENCE 1.3 S,VA,GRAYSON,-81.16,36.6,0.0,0.3,0.0,0.0
US1VAST0005,IVOR 1.0 SW,VA,SOUTHAMPTON,-76.91,36.89,0.0,0.0,0.0,0.0
USC00444410,JOHN FLANNAGAN LAKE,VA,DICKENSON,-82.34,37.23,0.0,0.0,1.1,0.0
US1VALE0002,JONESVILLE 3.1 WSW,VA,LEE,-83.17,36.67,0.0,0.0,0.2,0.0
US1VAAB0012,KESWICK 2.8 NE,VA,ALBEMARLE,-78.33,38.05,0.0,1.0,0.0,0.0
USC00444568,KEYSVILLE 2 S,VA,CHARLOTTE,-78.48,37.02,0.0,0.0,0.0,0.0
US1VALN0002,KILMARNOCK 2.5 NW,VA,LANCASTER,-76.42,37.74,0.0,0.0,0.0,0.0
US1VAHR0008,LAUREL 0.8 N,VA,HENRICO,-77.5,37.65,0.0,0.0,0.0,0.0
US1VABR0001,LAWRENCEVILLE 4.1 ESE,VA,BRUNSWICK,-77.78,36.74,0.0,0.0,0.0,0.0
USC00444777,LEBANON,VA,RUSSELL,-82.04,36.9,0.0,0.0,0.0,0.0
US1VALD0024,LEESBURG 1.7 E,VA,LOUDOUN,-77.52,39.1,0.0,0.0,0.0,0.0
US1VALD0026,LEESBURG 2.6 E,VA,LOUDOUN,-77.51,39.1,0.0,3.2,0.0,0.0
US1VALD0017,LEESBURG 4.4 W,VA,LOUDOUN,-77.64,39.09,0.0,3.5,0.0,0.0
USC00444876,LEXINGTON,VA,ROCKBRIDGE,-79.44,37.78,0.0,0.7,0.0,0.0
US1VAND0002,LOTTSBURG 2.3 NNE,VA,NORTHUMBERLAND,-76.51,37.99,0.0,0.0,0.0,0.0
USC00445096,LURAY 5 E,VA,PAGE,-78.37,38.67,0.0,4.0,0.0,0.0
US1VABD0019,LYNCHBURG 1.3 SSW,VA,BEDFORD,-79.2,37.39,0.0,0.0,0.0,0.0
US1VABD0016,LYNCHBURG 1.4 SSW,VA,BEDFORD,-79.2,37.38,0.0,0.0,0.0,0.0
US1VALYC001,LYNCHBURG 2.5 NNW,VA,LYNCHBURG,-79.21,37.43,0.0,0.0,0.0,0.0
US1VALYC004,LYNCHBURG 2.5 WSW,VA,LYNCHBURG,-79.23,37.38,0.0,0.0,0.0,0.0
US1VACM0004,LYNCHBURG 6.7 ESE,VA,CAMPBELL,-79.08,37.36,0.0,0.0,0.0,0.0
USW00013733,LYNCHBURG INTL AP,VA,CAMPBELL,-79.21,37.32,0.0,0.0,0.0,0.0
USC00445204,MANASSAS,VA,MANASSAS,-77.49,38.73,0.0,1.0,0.0,0.0
US1VAPW0013,MANASSAS 5.3 SE,VA,PRINCE WILLIAM,-77.43,38.68,0.0,3.6,0.6,0.0
US1VAPW0014,MANASSAS 5.8 SE,VA,PRINCE WILLIAM,-77.42,38.68,0.0,3.7,0.0,0.0
US1VAFX0037,MANTUA 1.4 S,VA,FAIRFAX,-77.26,38.83,0.0,0.0,0.0,0.0
US1VASM0004,MARION 2.4 ENE,VA,SMYTH,-81.47,36.85,0.0,1.0,0.2,0.0
US1VASM0001,MARION 4.4 WSW,VA,SMYTH,-81.59,36.81,0.0,1.0,0.0,0.0
US1VAHN0007,MARTINSVILLE 2.0 SE,VA,HENRY,-79.84,36.66,0.0,0.0,0.0,0.0
USC00445300,MARTINSVILLE FILTER PLANT,VA,HENRY,-79.86,36.71,0.0,0.0,0.0,0.0
US1VAFX0052,MCLEAN 1.5 S,VA,FAIRFAX,-77.18,38.92,0.0,3.4,0.0,0.0
US1VAFX0041,MCLEAN 2.3 SE,VA,FAIRFAX,-77.14,38.92,0.0,3.0,0.0,0.0
US1VAFX0053,MCLEAN 2.4 SSE,VA,FAIRFAX,-77.15,38.91,0.0,3.0,0.0,0.0
US1VAPR0002,MEADOWS OF DAN 4.5 SW,VA,PATRICK,-80.45,36.68,0.0,0.0,0.0,0.0
USC00445453,MEADOWS OF DAN 5 SW,VA,PATRICK,-80.45,36.67,0.0,0.0,0.0,0.0
US1VACS0019,MIDLOTHIAN 0.6 NE,VA,CHESTERFIELD,-77.64,37.51,0.0,0.0,0.0,0.0
US1VACS0027,MIDLOTHIAN 3.5 SSW,VA,CHESTERFIELD,-77.66,37.46,0.0,0.0,0.0,0.0
US1VACS0026,MIDLOTHIAN 4.7 SSW,VA,CHESTERFIELD,-77.67,37.44,0.0,0.0,0.0,0.0
US1VABH0001,MILLBORO 0.3 NW,VA,BATH,-79.61,37.98,0.0,3.0,1.0,0.0
USC00445595,MILLGAP,VA,HIGHLAND,-79.72,38.31,0.0,4.0,0.2,0.1
US1VALS0002,MINERAL 10.2 ESE,VA,LOUISA,-77.75,37.93,0.0,0.0,0.0,0.0
US1VABD0007,MONETA 3.6 SW,VA,BEDFORD,-79.68,37.16,0.0,0.0,0.0,0.0
US1VABD0004,MONETA 3.7 SW,VA,BEDFORD,-79.66,37.14,0.0,0.0,0.0,0.0
US1VABD0013,MONETA 3.9 WSW,VA,BEDFORD,-79.69,37.17,0.0,0.0,0.0,0.0
USC00445690,MONTEBELLO FISH CULTURAL STATION,VA,NELSON,-79.13,37.84,0.0,0.0,0.0,0.0
US1VAHG0002,MONTEREY 6.5 SSW,VA,HIGHLAND,-79.64,38.33,0.0,4.5,0.0,0.0
US1VAWM0001,MONTROSS 5.2 ESE,VA,WESTMORELAND,-76.73,38.08,0.0,0.0,0.0,0.0
USC00445851,MOUNT WEATHER,VA,LOUDOUN,-77.89,39.06,0.0,5.8,0.0,0.0
USC00445756,MOUNTAIN GROVE,VA,BATH,-79.89,38.1,0.0,0.0,0.0,0.0
USC00446012,NEW CASTLE,VA,CRAIG,-80.1,37.51,0.0,0.5,0.0,0.0
US1VANNC004,NEWPORT NEWS 3.3 E,VA,NEWPORT NEWS,-76.45,37.08,0.0,0.0,0.0,0.0
US1VAYR0001,NEWPORT NEWS 5.8 NE,VA,YORK,-76.45,37.14,0.0,0.0,0.0,0.0
US1VAYR0003,NEWPORT NEWS 7.5 NNE,VA,YORK,-76.44,37.17,0.0,0.0,0.0,0.0
USW00093741,NEWPORT NEWS INTL AP,VA,NEWPORT NEWS,-76.49,37.13,0.0,0.0,0.0,0.0
US1VAPW0011,NOKESVILLE 4.0 S,VA,PRINCE WILLIAM,-77.58,38.64,0.0,2.5,0.0,0.0
USC00446125,NORA 4 SSE,VA,DICKENSON,-82.32,37.02,0.0,0.3,2.8,0.0
US1VANRC005,NORFOLK 3.0 S,VA,NORFOLK (CITY),-76.25,36.88,0.0,0.0,0.0,0.0
US1VANRC003,NORFOLK 5.0 SSW,VA,NORFOLK (CITY),-76.29,36.86,0.0,0.0,0.0,0.0
USW00013737,NORFOLK INTL AP,VA,NORFOLK (CITY),-76.19,36.9,0.0,0.0,0.0,0.0
USC00446147,NORFOLK SOUTH,VA,NORFOLK (CITY),-76.23,36.87,0.0,0.0,0.0,0.0
USC00446161,NORTH,VA,MATHEWS,-76.44,37.43,0.0,0.0,0.0,0.0
USC00446173,NORTH FORK LAKE,VA,WISE,-82.63,37.12,0.0,0.0,2.0,0.0
US1VAFX0072,OAK HILL 0.3 WSW,VA,FAIRFAX,-77.41,38.91,1.5,1.5,0.0,0.0
US1VAFX0060,OAKTON 0.4 E,VA,FAIRFAX,-77.29,38.89,0.0,3.1,0.0,0.0
US1VAAC0006,ONANCOCK 3.9 SW,VA,ACCOMACK,-75.8,37.67,0.0,0.0,0.0,0.0
US1VAAC0007,ONLEY 0.6 SE,VA,ACCOMACK,-75.71,37.68,0.0,0.0,0.0,0.0
US1VAFV0002,PALMYRA 4.3 N,VA,FLUVANNA,-78.25,37.92,0.0,0.0,0.0,0.0
USC00446593,PEDLAR DAM,VA,AMHERST,-79.28,37.67,0.0,0.0,0.0,0.0
US1VAGL0008,PEMBROKE 1.3 NNE,VA,GILES,-80.63,37.34,0.0,1.3,0.5,0.0
USC00446712,PIEDMONT RESEARCH STA,VA,ORANGE,-78.12,38.23,0.0,0.0,0.0,0.0
US1VAPT0009,PITTSVILLE 4.5 NNW,VA,PITTSYLVANIA,-79.48,37.05,0.0,0.0,0.0,0.0
US1VAPQC001,POQUOSON 5.8 W,VA,POQUOSON,-76.4,37.15,0.0,0.0,0.0,0.0
US1VAMT0001,PORT HAYWOOD 1.0 SE,VA,MATHEWS,-76.31,37.37,0.0,0.0,0.0,0.0
US1VAPRC002,PORTSMOUTH 4.1 SSE,VA,PORTSMOUTH,-76.33,36.8,0.0,0.0,0.0,0.0
USC00446955,PULASKI 2 E,VA,PULASKI,-80.78,37.06,0.0,0.9,0.0,0.0
US1VARDC001,RADFORD 0.9 WNW,VA,RADFORD,-80.57,37.13,0.0,0.0,0.0,0.0
USC00446999,RADFORD 3 N,VA,PULASKI,-80.59,37.2,0.0,1.0,0.0,0.0
US1VAFQ0004,REMINGTON 4.0 ENE,VA,FAUQUIER,-77.74,38.56,0.0,0.0,0.0,0.0
US1VAAM0001,RICE 7.3 NE,VA,AMELIA,-78.23,37.37,0.0,0.0,0.0,0.0
USC00447174,RICHLANDS,VA,TAZEWELL,-81.79,37.09,0.0,0.0,0.0,0.0
US1VACS0031,RICHMOND 6.4 W,VA,CHESTERFIELD,-77.59,37.52,0.0,0.0,0.0,0.0
USW00013740,RICHMOND INTERNATIONAL  AP,VA,HENRICO,-77.32,37.51,0.0,0.0,0.0,0.0
US1VACP0002,RIXEYVILLE 2.5 N,VA,CULPEPER,-77.97,38.62,0.0,2.5,0.0,0.0
US1VACP0004,RIXEYVILLE 6.1 N,VA,CULPEPER,-77.98,38.66,0.0,2.5,0.0,0.0
US1VACP0001,RIXEYVILLE 6.3 NNE,VA,CULPEPER,-77.95,38.67,0.0,2.2,0.0,0.0
US1VARN0005,ROANOKE 4.3 SW,VA,ROANOKE,-80.02,37.24,0.0,0.0,0.0,0.0
US1VARN0014,ROANOKE 5.5 SW,VA,ROANOKE,-80.03,37.22,0.0,0.0,0.0,0.0
US1VARN0013,ROANOKE 5.8 SW,VA,ROANOKE,-80.04,37.23,0.0,0.0,0.0,0.0
USC00447278,ROANOKE 8 N,VA,ROANOKE,-79.96,37.36,0.0,0.0,0.0,0.0
USW00013741,ROANOKE REGIONAL AP,VA,ROANOKE,-79.97,37.32,0.0,0.1,0.0,0.0
USC00447338,ROCKY MOUNT,VA,FRANKLIN,-79.9,36.98,0.0,0.0,0.0,0.0
US1VAFR0024,ROCKY MOUNT 2.2 NW,VA,FRANKLIN,-79.92,37.02,0.0,0.0,0.0,0.0
US1VAFR0004,ROCKY MOUNT 3.1 SE,VA,FRANKLIN,-79.84,36.97,0.0,0.0,0.0,0.0
US1VAFR0001,ROCKY MOUNT 3.6 W,VA,FRANKLIN,-79.95,36.99,0.0,0.0,0.0,0.0
US1VAFR0005,ROCKY MOUNT 4.3 NNW,VA,FRANKLIN,-79.91,37.06,0.0,0.0,0.0,0.0
US1VALD0013,ROUND HILL 2.7 WSW,VA,LOUDOUN,-77.82,39.12,0.0,0.0,0.0,0.0
USC00447506,SALTVILLE 1N,VA,SMYTH,-81.77,36.89,0.0,0.0,0.2,0.0
US1VANL0003,SCOTTSVILLE 11.8 SW,VA,NELSON,-78.66,37.69,0.0,0.0,0.0,0.0
US1VAST0002,SEDLEY 3.7 N,VA,SOUTHAMPTON,-76.99,36.83,0.0,0.0,0.0,0.0
US1VAPG0001,SHENANDOAH 1.4 N,VA,PAGE,-78.62,38.51,0.0,3.0,0.0,0.0
US1VAIW0013,SMITHFIELD 0.7 ESE,VA,ISLE OF WIGHT,-76.61,36.98,0.0,0.0,0.0,0.0
US1VAIW0011,SMITHFIELD 1.7 SSW,VA,ISLE OF WIGHT,-76.62,36.96,0.0,0.0,0.0,0.0
US1VAIW0010,SMITHFIELD 3.6 SSE,VA,ISLE OF WIGHT,-76.6,36.93,0.0,0.0,0.0,0.0
US1VAIW0012,SMITHFIELD 7.2 W,VA,ISLE OF WIGHT,-76.75,36.99,0.0,0.0,0.0,0.0
USC00447904,SOMERSET,VA,ORANGE,-78.27,38.25,0.0,1.0,0.0,0.0
USC00447925,SOUTH BOSTON,VA,HALIFAX,-78.88,36.7,0.0,0.0,0.0,0.0
USC00447985,SPERRYVILLE,VA,RAPPAHANNOCK,-78.23,38.66,0.0,2.0,0.0,0.0
USC00448022,STAFFORDSVILLE 3 ENE,VA,GILES,-80.71,37.27,0.0,1.6,0.0,0.0
US1VAAG0006,STAUNTON 0.5 WNW,VA,AUGUSTA,-79.07,38.16,0.0,1.0,0.0,0.0
US1VAAG0008,STAUNTON 2.0 S,VA,AUGUSTA,-79.06,38.13,0.0,2.0,0.0,0.0
USC00448062,STAUNTON WATER TREATMENT PLANT,VA,AUGUSTA,-79.08,38.17,0.0,1.2,0.0,0.0
US1VAFD0001,STEPHENS CITY 2.2 E,VA,FREDERICK,-78.18,39.1,0.0,5.2,0.3,0.0
USC00448084,STERLING (RCS),VA,LOUDOUN,-77.49,38.98,0.0,4.8,0.8,0.0
US1VASH0002,STRASBURG 3.7 N,VA,SHENANDOAH,-78.35,39.04,0.0,6.1,0.0,0.0
USC00448170,STUART,VA,PATRICK,-80.25,36.64,0.0,0.0,0.0,0.0
US1VASFC007,SUFFOLK 13.9 NNE,VA,SUFFOLK,-76.53,36.89,0.0,0.0,0.0,0.0
USC00448192,SUFFOLK LAKE KILBY,VA,SUFFOLK,-76.6,36.73,0.0,0.0,0.0,0.0
US1VALN0001,URBANNA 6.2 NNE,VA,LANCASTER,-76.52,37.72,0.0,0.0,0.0,0.0
USC00448737,VIENNA,VA,FAIRFAX,-77.27,38.9,0.0,3.5,0.0,0.0
US1VAFX0061,VIENNA 0.8 S,VA,FAIRFAX,-77.26,38.89,0.0,3.2,0.0,0.0
US1VAFX0051,VIENNA 1.3 W,VA,FAIRFAX,-77.28,38.9,0.0,3.2,0.0,0.0
US1VAFX0040,VIENNA 3.3 N,VA,FAIRFAX,-77.26,38.95,0.0,3.4,0.1,0.0
US1VARN0015,VINTON 0.7 NE,VA,ROANOKE,-79.88,37.28,0.0,0.1,0.0,0.0
US1VAVBC023,VIRGINIA BEACH 10.6 N,VA,VIRGINIA BEACH,-76.03,36.89,0.0,0.0,0.0,0.0
US1VAVBC013,VIRGINIA BEACH 2.4 N,VA,VIRGINIA BEACH,-76.04,36.77,0.0,0.0,0.0,0.0
US1VAVBC021,VIRGINIA BEACH 3.1 ENE,VA,VIRGINIA BEACH,-75.99,36.75,0.0,0.0,0.0,0.0
US1VAVBC030,VIRGINIA BEACH 6.0 WNW,VA,VIRGINIA BEACH,-76.14,36.78,0.0,0.0,0.0,0.0
US1VASS0001,WAKEFIELD 0.1 ENE,VA,SUSSEX,-76.99,36.97,0.0,0.0,0.0,0.0
USC00448800,WAKEFIELD 1NW,VA,SUSSEX,-77.01,36.98,0.0,0.0,0.0,0.0
USW00093773,WAKEFIELD MUNICIPAL AP,VA,SUSSEX,-77.01,36.98,0.0,0.0,0.0,0.0
US1VAAC0012,WALLOPS ISLAND 2.0 NW,VA,ACCOMACK,-75.47,37.94,0.0,0.0,0.0,0.0
USW00093739,WALLOPS ISLAND WALLOPS FLIGHT FAC,VA,ACCOMACK,-75.47,37.94,0.0,0.0,0.0,0.0
US1VAFQ0001,WARRENTON 6.1 S,VA,FAUQUIER,-77.81,38.63,0.0,3.0,0.0,0.0
USW00093738,WASHINGTON DULLES INTL AP,VA,LOUDOUN,-77.46,38.94,1.5,4.1,0.0,0.0
USW00013743,WASHINGTON REAGAN NATIONAL AIRPOR,VA,ARLINGTON,-77.03,38.85,1.1,0.9,0.0,0.0
USC00448941,WAYNESBORO WATER TREATMENT,VA,WAYNESBORO,-78.88,38.08,0.0,0.6,0.0,0.0
USC00449025,WEST POINT 2 NW,VA,KING WILLIAM,-76.8,37.57,0.0,0.0,0.0,0.0
US1VAMX0001,WHITE STONE 8.0 SSW,VA,MIDDLESEX,-76.44,37.54,0.0,0.0,0.0,0.0
US1VAYR0012,WILLIAMSBURG 0.9 NNW,VA,YORK,-76.71,37.28,0.0,0.0,0.0,0.0
US1VAWLC001,WILLIAMSBURG 1.3 SSW,VA,WILLIAMSBURG,-76.72,37.25,0.0,0.0,0.0,0.0
US1VAWLC003,WILLIAMSBURG 1.4 ENE,VA,WILLIAMSBURG,-76.68,37.28,0.0,0.0,0.0,0.0
US1VAWLC006,WILLIAMSBURG 1.6 SW,VA,WILLIAMSBURG,-76.73,37.25,0.0,0.0,0.0,0.0
US1VAJC0040,WILLIAMSBURG 1.9 SW,VA,JAMES (CITY),-76.73,37.25,0.0,0.0,0.0,0.0
US1VAJC0026,WILLIAMSBURG 3.1 SSE,VA,JAMES (CITY),-76.68,37.23,0.0,0.0,0.0,0.0
US1VAJC0016,WILLIAMSBURG 3.2 WNW,VA,JAMES (CITY),-76.76,37.28,0.0,0.0,0.0,0.0
US1VAJC0038,WILLIAMSBURG 3.8 WSW,VA,JAMES (CITY),-76.77,37.24,0.0,0.0,0.0,0.0
US1VAYR0007,WILLIAMSBURG 4.4 N,VA,YORK,-76.71,37.33,0.0,0.0,0.0,0.0
US1VAJC0021,WILLIAMSBURG 4.5 NW,VA,JAMES (CITY),-76.77,37.31,0.0,0.0,0.0,0.0
US1VAJC0031,WILLIAMSBURG 5.8 WSW,VA,JAMES (CITY),-76.81,37.25,0.0,0.0,0.0,0.0
US1VAYR0004,WILLIAMSBURG 6.0 N,VA,YORK,-76.7,37.36,0.0,0.0,0.0,0.0
US1VAJC0025,WILLIAMSBURG 8.2 NW,VA,JAMES (CITY),-76.79,37.37,0.0,0.0,0.0,0.0
USC00449169,WILLIS,VA,FLOYD,-80.51,36.91,0.0,0.0,0.0,0.0
US1VAFL0006,WILLIS 2.7 SE,VA,FLOYD,-80.45,36.83,0.0,0.5,0.0,0.0
USC00449181,WINCHESTER,VA,FREDERICK,-78.15,39.19,0.0,6.2,0.9,0.0
US1VAFD0005,WINCHESTER 5.1 NE,VA,FREDERICK,-78.1,39.22,0.0,6.0,1.4,0.0
USC00449186,WINCHESTER 7 SE,VA,FREDERICK,-78.12,39.18,5.0,0.0,0.0,0.0
US1VAFD0003,WINCHESTER 9.4 NW,VA,FREDERICK,-78.3,39.27,0.0,8.1,1.0,0.0
USC00449215,WISE 1SE,VA,WISE,-82.56,36.97,0.0,0.5,0.0,0.0
US1VAPW0010,WOODBRIDGE 5.9 NW,VA,PRINCE WILLIAM,-77.34,38.7,0.0,0.0,0.0,0.0
USC00449263,WOODSTOCK 2 NE,VA,SHENANDOAH,-78.47,38.9,0.0,5.6,0.0,0.0
USC00449272,WOOLWINE,VA,PATRICK,-80.28,36.78,0.0,0.0,0.0,0.0
USC00449301,WYTHEVILLE,VA,WYTHE,-81.09,36.96,0.0,1.0,0.2,0.0
US1VAYR0008,YORKTOWN 0.5 SSE,VA,YORK,-76.51,37.23,0.0,0.0,0.0,0.0
US1VAYR0014,YORKTOWN 6.8 SE,VA,YORK,-76.45,37.15,0.0,0.0,0.0,0.0
US1VTGI0003,ALBURGH 4.6 SSE,VT,GRAND ISLE,-73.27,44.91,0.0,0.0,15.0,0.0
USC00430193,AVERILL,VT,ESSEX,-71.69,45.01,0.0,0.0,18.0,9.0
USW00094705,BARRE MONTPELIER KNAPP STATE AP,VT,WASHINGTON,-72.56,44.2,0.0,0.0,0.0,0.0
US1VTOL0002,BARTON 3.0 ENE,VT,ORLEANS,-72.12,44.76,0.0,0.0,18.2,3.3
USW00054781,BENNINGTON MORSE STATE AP,VT,BENNINGTON,-73.25,42.89,0.0,0.0,0.0,0.0
US1VTWS0005,BERLIN 4.3 WNW,VT,WASHINGTON,-72.66,44.23,0.0,0.0,0.0,0.0
US1VTOG0010,BRAINTREE 2.8 SW,VT,ORANGE,-72.75,43.94,0.0,0.0,0.0,0.0
US1VTOG0007,BROOKFIELD 2.7 ESE,VT,ORANGE,-72.55,44.03,0.0,0.0,17.7,1.2
USW00014742,BURLINGTON WSO AP,VT,CHITTENDEN,-73.15,44.47,0.0,17.8,12.6,0.0
US1VTWS0023,CABOT 2.3 E,VT,WASHINGTON,-72.27,44.4,0.0,0.0,19.5,2.3
US1VTWS0012,CABOT 3.9 ENE,VT,WASHINGTON,-72.24,44.42,0.0,0.5,18.0,6.5
US1VTCH0003,CHARLOTTE 2.9 NNE,VT,CHITTENDEN,-73.24,44.35,0.0,0.0,0.0,0.0
USC00431565,CORINTH,VT,ORANGE,-72.32,44.01,0.0,0.0,16.0,1.8
USC00431580,CORNWALL,VT,ADDISON,-73.21,43.96,0.0,0.0,0.0,0.0
US1VTOL0005,DERBY CENTER 1.8 NW,VT,ORLEANS,-72.15,44.97,0.0,0.0,16.5,3.3
US1VTWS0015,EAST CALAIS 1.5 SW,VT,WASHINGTON,-72.46,44.36,0.0,0.0,15.0,1.2
USC00432314,EAST HAVEN,VT,ESSEX,-71.89,44.64,0.1,0.0,13.5,0.0
USC00432773,ENOSBURG FALLS 2,VT,FRANKLIN,-72.81,44.91,0.0,0.0,23.0,10.0
USC00433341,GILMAN,VT,ESSEX,-71.72,44.41,0.0,0.0,12.0,1.0
US1VTES0001,GRANBY 1.4 NW,VT,ESSEX,-71.78,44.58,0.0,0.0,17.1,4.2
US1VTOL0009,GREENSBORO 2.1 NNW,VT,ORLEANS,-72.31,44.61,0.0,0.0,20.4,5.9
US1VTOL0012,GREENSBORO 3.9 NNE,VT,ORLEANS,-72.28,44.63,0.0,0.0,20.5,6.5
US1VTCL0003,GROTON 4.4 WSW,VT,CALEDONIA,-72.28,44.19,0.0,0.0,16.9,0.0
US1VTCH0015,HUNTINGTON 0.7 NNE,VT,CHITTENDEN,-72.98,44.34,0.0,0.0,23.2,8.2
US1VTCH0012,HUNTINGTON 1.6 SW,VT,CHITTENDEN,-73.01,44.31,0.0,0.0,0.0,0.0
US1VTLM0007,HYDE PARK 2.9 NE,VT,LAMOILLE,-72.57,44.62,0.0,0.0,18.5,16.4
USC00434120,ISLAND POND,VT,ESSEX,-71.89,44.81,0.1,0.0,17.0,5.0
USC00434261,JEFFERSONVILLE,VT,LAMOILLE,-72.79,44.58,0.0,0.0,19.4,4.0
US1VTCH0019,JERICHO 1.0 NNW,VT,CHITTENDEN,-72.99,44.52,0.0,0.0,23.0,6.0
USC00434290,JOHNSON 2 N,VT,LAMOILLE,-72.68,44.66,0.0,0.0,19.0,9.0
US1VTBN0003,LANDGROVE 1.1 NNE,VT,BENNINGTON,-72.83,43.29,0.0,1.5,23.0,4.0
US1VTAD0007,LINCOLN 1.6 SE,VT,ADDISON,-72.98,44.09,0.0,0.0,22.6,0.0
US1VTWR0003,LUDLOW 0.5 WSW,VT,WINDSOR,-72.71,43.39,0.0,1.2,16.3,0.3
US1VTWR0006,LUDLOW 3.4 S,VT,WINDSOR,-72.7,43.35,0.0,1.2,13.8,0.1
US1VTES0003,LUNENBURG 2.3 NNW,VT,ESSEX,-71.7,44.49,0.0,0.0,12.0,1.6
US1VTCL0014,LYNDONVILLE 1.1 W,VT,CALEDONIA,-72.03,44.54,0.0,0.0,17.2,0.4
US1VTWS0007,MIDDLESEX 3.1 ENE,VT,WASHINGTON,-72.63,44.32,0.0,0.0,14.0,0.0
US1VTWS0013,MIDDLESEX 6.9 NE,VT,WASHINGTON,-72.56,44.35,0.0,0.0,0.0,0.0
USC00435273,MONTPELIER 2,VT,WASHINGTON,-72.6,44.26,0.0,0.0,9.0,2.5
US1VTOL0006,MORGAN 6.7 SE,VT,ORLEANS,-71.91,44.86,0.0,0.0,23.5,15.0
USW00054771,MORRISVILLE STOWE STATE AP,VT,LAMOILLE,-72.61,44.53,0.0,0.0,0.0,0.0
USC00435416,MOUNT MANSFIELD,VT,LAMOILLE,-72.82,44.52,0.0,8.0,28.0,9.1
USC00435982,N SPRINGFIELD LAKE,VT,WINDSOR,-72.51,43.34,0.0,0.0,12.5,0.0
USC00435542,NEWPORT,VT,ORLEANS,-72.19,44.95,0.0,0.0,21.1,2.5
USC00435768,NORTH HARTLAND LAKE,VT,WINDSOR,-72.36,43.6,0.0,0.5,12.4,0.2
USC00435733,NORTHFIELD,VT,WASHINGTON,-72.66,44.16,0.0,0.0,15.0,1.0
US1VTWS0010,NORTHFIELD 1.5 N,VT,WASHINGTON,-72.65,44.17,0.0,0.0,14.5,1.4
US1VTAD0005,ORWELL 1.2 WNW,VT,ADDISON,-73.32,43.81,0.0,0.0,18.0,0.0
USC00436335,PERU,VT,BENNINGTON,-72.9,43.27,0.0,0.0,14.3,0.5
USC00436391,PLAINFIELD,VT,WASHINGTON,-72.42,44.28,0.0,0.0,0.0,0.5
US1VTWR0002,POMFRET 2.6 N,VT,WINDSOR,-72.53,43.74,0.0,0.0,22.5,1.5
US1VTWH0012,PUTNEY 2.0 WNW,VT,WINDHAM,-72.53,43.0,0.0,1.0,16.0,0.0
US1VTCH0013,RICHMOND 3.4 SSE,VT,CHITTENDEN,-72.96,44.36,0.0,0.0,23.0,7.5
USC00436893,ROCHESTER,VT,WINDSOR,-72.8,43.86,0.0,0.0,16.0,1.0
US1VTWH0017,ROCKINGHAM 1.1 NNE,VT,WINDHAM,-72.48,43.2,0.0,2.1,15.0,0.0
USC00436995,RUTLAND,VT,RUTLAND,-72.98,43.63,0.0,0.0,15.1,0.0
USC00437054,SAINT JOHNSBURY,VT,CALEDONIA,-72.02,44.42,0.0,6.5,9.5,0.0
USW00054742,SAINT JOHNSBURY ASOS,VT,CALEDONIA,-72.02,44.42,0.0,0.0,0.0,0.0
USC00437612,SOUTH LINCOLN,VT,ADDISON,-72.97,44.07,0.0,0.2,23.0,2.2
US1VTWR0009,SPRINGFIELD 5.4 NE,VT,WINDSOR,-72.41,43.36,0.0,0.0,0.0,0.0
USW00054740,SPRINGFIELD HARTNESS STATE AP,VT,WINDSOR,-72.52,43.34,0.0,0.0,0.0,0.0
US1VTLM0001,STOWE 0.2 SW,VT,LAMOILLE,-72.69,44.46,0.0,0.0,12.7,5.0
USC00438169,SUTTON,VT,CALEDONIA,-72.05,44.61,0.1,0.0,15.2,2.9
USC00438172,SUTTON 2NE,VT,CALEDONIA,-72.02,44.66,0.0,0.0,0.0,0.0
US1VTCH0004,UNDERHILL 4.4 NNE,VT,CHITTENDEN,-72.92,44.59,0.0,0.0,22.1,12.0
US1VTCH0011,UNDERHILL 5.1 NNE,VT,CHITTENDEN,-72.92,44.6,0.0,0.0,22.0,12.0
USC00438556,UNION VILLAGE DAM,VT,ORANGE,-72.26,43.79,0.0,0.0,10.7,0.0
USC00438597,VERGENNES,VT,ADDISON,-73.25,44.17,0.0,0.0,16.9,0.0
US1VTOG0011,VERSHIRE 1.5 ESE,VT,ORANGE,-72.3,43.96,0.0,0.5,18.5,1.4
US1VTWS0011,WAITSFIELD 1.8 SE,VT,WASHINGTON,-72.8,44.18,0.0,0.0,19.0,7.0
USC00438640,WAITSFIELD 2 SE,VT,WASHINGTON,-72.8,44.18,0.0,0.0,0.0,0.0
USC00438652,WALDEN 4N,VT,CALEDONIA,-72.22,44.5,0.0,0.0,18.0,8.0
US1VTWS0022,WARREN 3.3 SSE,VT,WASHINGTON,-72.83,44.07,0.0,0.0,23.0,5.5
US1VTWS0019,WATERBURY 3.0 NW,VT,WASHINGTON,-72.81,44.36,0.0,0.0,22.3,18.7
US1VTWH0009,WEST HALIFAX 0.2 SE,VT,WINDHAM,-72.77,42.79,0.0,0.0,16.0,0.0
US1VTRT0001,WEST RUTLAND 1.2 N,VT,RUTLAND,-73.05,43.61,0.0,1.1,18.1,1.1
US1VTOL0001,WESTFIELD 0.7 WNW,VT,ORLEANS,-72.44,44.89,0.0,0.0,14.5,8.5
US1VTWH0006,WESTMINSTER WEST 0.9 E,VT,WINDHAM,-72.52,43.07,0.0,3.0,18.5,0.0
US1VTCL0018,WHEELOCK 1.6 S,VT,CALEDONIA,-72.09,44.56,0.0,0.0,14.7,1.6
USC00439984,WOODSTOCK,VT,WINDSOR,-72.51,43.63,0.0,0.0,14.0,0.2
USC00439988,WORCESTER 2 W,VT,WASHINGTON,-72.58,44.37,0.0,0.0,15.5,3.5
